{"type":"FeatureCollection","features":[{"type":"Feature","properties":{"codigo":"P28","nombre_asp":"Los Quetzales","cat_manejo":"Parque Nacional","estatus":"Estatal","siglas_cat":"PN","nombre_ac":"Area de Conservacion Central","siglas_ac":"ACC","descripcio":"Area terrestre protegida","a_creacion":"2006","n_creacion":"DE_32981_MINAE","version":"2019-11-19-001","area_hecta":4102.8235102348635,"area_km2":41.02823510234863,"fid_2":2,"origen":"PRCR05/TERRA","codigo_2":"130102","nom_objeto":"CARRETERA PAVIMENTO DOS VIAS O MAS","jerarquia":"Primaria","nombre":"Carretera Interamericana","longitud":328608.23,"num_ruta":"2"},"geometry":{"type":"MultiPolygon","coordinates":[[[[-84.005214,9.796089],[-83.937257,9.819721],[-83.930891,9.81461],[-83.930904,9.814535],[-83.930955,9.814254],[-83.931011,9.813973],[-83.931071,9.813693],[-83.931135,9.813414],[-83.931204,9.813136],[-83.931226,9.813049],[-83.931296,9.812785],[-83.93137,9.812522],[-83.931448,9.812261],[-83.93153,9.812],[-83.931616,9.811741],[-83.931676,9.811568],[-83.931653,9.811456],[-83.931636,9.811368],[-83.931588,9.811112],[-83.931544,9.810856],[-83.931504,9.810598],[-83.931467,9.810341],[-83.931455,9.810252],[-83.931422,9.809992],[-83.931393,9.809732],[-83.931367,9.809471],[-83.931346,9.809209],[-83.931339,9.80912],[-83.931333,9.809023],[-83.931199,9.80886],[-83.931016,9.808629],[-83.930838,9.808394],[-83.93082,9.808371],[-83.930632,9.808115],[-83.930447,9.807856],[-83.930268,9.807594],[-83.930093,9.807329],[-83.930077,9.807304],[-83.929918,9.807053],[-83.929763,9.8068],[-83.929612,9.806543],[-83.929465,9.806285],[-83.929451,9.806259],[-83.929307,9.805995],[-83.929167,9.805728],[-83.929031,9.805459],[-83.9289,9.805188],[-83.928888,9.805162],[-83.928763,9.804892],[-83.928643,9.80462],[-83.928527,9.804345],[-83.928416,9.80407],[-83.928405,9.804043],[-83.928294,9.803753],[-83.928188,9.803462],[-83.928087,9.803169],[-83.927991,9.802875],[-83.927983,9.802847],[-83.927894,9.802559],[-83.927811,9.802269],[-83.927732,9.801978],[-83.927658,9.801686],[-83.927651,9.801658],[-83.927582,9.801363],[-83.927518,9.801067],[-83.927459,9.80077],[-83.927405,9.800472],[-83.9274,9.800444],[-83.927352,9.800155],[-83.927309,9.799866],[-83.927271,9.799577],[-83.927238,9.799286],[-83.927235,9.799258],[-83.927205,9.798954],[-83.92718,9.79865],[-83.927161,9.798345],[-83.927159,9.798307],[-83.927145,9.798005],[-83.927135,9.797703],[-83.927132,9.7974],[-83.927131,9.797363],[-83.927133,9.797044],[-83.92714,9.796726],[-83.927152,9.796408],[-83.927154,9.79637],[-83.927172,9.796063],[-83.927194,9.795757],[-83.927222,9.795451],[-83.927226,9.795414],[-83.927259,9.795112],[-83.927297,9.794812],[-83.92734,9.794512],[-83.927345,9.794474],[-83.927395,9.794164],[-83.927451,9.793854],[-83.927512,9.793545],[-83.927519,9.793508],[-83.927585,9.793202],[-83.927656,9.792896],[-83.927733,9.792592],[-83.927742,9.792557],[-83.927818,9.792277],[-83.927898,9.791997],[-83.927983,9.79172],[-83.928072,9.791443],[-83.928166,9.791168],[-83.928264,9.790894],[-83.928366,9.790622],[-83.92841,9.79051],[-83.928512,9.790252],[-83.928618,9.789996],[-83.928728,9.789741],[-83.928841,9.789488],[-83.928959,9.789237],[-83.92908,9.788988],[-83.929128,9.788893],[-83.929251,9.788649],[-83.929378,9.788407],[-83.929509,9.788167],[-83.929643,9.787929],[-83.929781,9.787693],[-83.929923,9.787459],[-83.930068,9.787227],[-83.930217,9.786998],[-83.930369,9.78677],[-83.930524,9.786545],[-83.930614,9.786418],[-83.930783,9.786182],[-83.930955,9.785948],[-83.93108,9.785783],[-83.931217,9.785602],[-83.931357,9.785424],[-83.931523,9.785214],[-83.931689,9.785007],[-83.931858,9.784803],[-83.932031,9.784601],[-83.932206,9.784401],[-83.932384,9.784204],[-83.932565,9.78401],[-83.932638,9.783933],[-83.93279,9.783774],[-83.932949,9.78361],[-83.93316,9.783396],[-83.933375,9.783184],[-83.933594,9.782977],[-83.933816,9.782773],[-83.934041,9.782573],[-83.934212,9.782423],[-83.934444,9.782224],[-83.93468,9.782028],[-83.934918,9.781837],[-83.935052,9.781732],[-83.935274,9.781559],[-83.935499,9.78139],[-83.935727,9.781224],[-83.935957,9.781062],[-83.93619,9.780903],[-83.936425,9.780748],[-83.936663,9.780597],[-83.936903,9.780449],[-83.937136,9.780308],[-83.937395,9.780154],[-83.937657,9.780004],[-83.937921,9.779859],[-83.938188,9.779718],[-83.938456,9.779581],[-83.938727,9.779449],[-83.939001,9.779322],[-83.939276,9.779199],[-83.939432,9.779132],[-83.939581,9.778967],[-83.939776,9.778758],[-83.939973,9.778553],[-83.940174,9.778351],[-83.940379,9.778152],[-83.940586,9.777956],[-83.940796,9.777763],[-83.94101,9.777574],[-83.941226,9.777388],[-83.941446,9.777205],[-83.941668,9.777026],[-83.941893,9.77685],[-83.942121,9.776678],[-83.942351,9.776509],[-83.942436,9.776448],[-83.942658,9.776291],[-83.942882,9.776137],[-83.943108,9.775987],[-83.943337,9.77584],[-83.943568,9.775696],[-83.943801,9.775556],[-83.943869,9.775516],[-83.944111,9.775375],[-83.944356,9.775238],[-83.944603,9.775104],[-83.944851,9.774974],[-83.945102,9.774849],[-83.945355,9.774726],[-83.945609,9.774608],[-83.945866,9.774494],[-83.946124,9.774384],[-83.946383,9.774277],[-83.946645,9.774175],[-83.946741,9.774138],[-83.947011,9.774037],[-83.947282,9.773941],[-83.947555,9.773848],[-83.94783,9.77376],[-83.948105,9.773677],[-83.948382,9.773597],[-83.948661,9.773522],[-83.94894,9.773451],[-83.949221,9.773385],[-83.949502,9.773323],[-83.949785,9.773266],[-83.950068,9.773213],[-83.950353,9.773164],[-83.950466,9.773146],[-83.950749,9.773102],[-83.951032,9.773063],[-83.951315,9.773028],[-83.951599,9.772997],[-83.951884,9.772971],[-83.952169,9.77295],[-83.952454,9.772932],[-83.952574,9.772926],[-83.952859,9.772913],[-83.953143,9.772905],[-83.953428,9.772901],[-83.953713,9.772901],[-83.953998,9.772906],[-83.954282,9.772916],[-83.954567,9.772929],[-83.954851,9.772948],[-83.955135,9.77297],[-83.955418,9.772997],[-83.955701,9.773028],[-83.955984,9.773064],[-83.956266,9.773104],[-83.956374,9.77312],[-83.956665,9.773166],[-83.956954,9.773217],[-83.957243,9.773272],[-83.95753,9.773332],[-83.957817,9.773396],[-83.958102,9.773465],[-83.958387,9.773539],[-83.95867,9.773617],[-83.958769,9.773645],[-83.959046,9.773726],[-83.959321,9.773811],[-83.959595,9.773901],[-83.959868,9.773995],[-83.960139,9.774093],[-83.960409,9.774196],[-83.960676,9.774302],[-83.960943,9.774413],[-83.961207,9.774528],[-83.961469,9.774648],[-83.96173,9.774771],[-83.961988,9.774898],[-83.962245,9.77503],[-83.962499,9.775165],[-83.962751,9.775305],[-83.963001,9.775448],[-83.963248,9.775595],[-83.963494,9.775746],[-83.963612,9.77582],[-83.96386,9.775979],[-83.964105,9.776142],[-83.964348,9.776308],[-83.964502,9.776417],[-83.964501,9.776413],[-83.964468,9.776326],[-83.964378,9.776082],[-83.964293,9.775837],[-83.96421,9.77559],[-83.964131,9.775343],[-83.964056,9.775094],[-83.96403,9.775005],[-83.963958,9.774755],[-83.96389,9.774504],[-83.963825,9.774252],[-83.963764,9.773999],[-83.963707,9.773745],[-83.963688,9.773654],[-83.963628,9.773369],[-83.963573,9.773083],[-83.963523,9.772797],[-83.963477,9.772509],[-83.963449,9.772326],[-83.963403,9.771999],[-83.963363,9.771671],[-83.963329,9.771342],[-83.96332,9.77125],[-83.963296,9.770969],[-83.963276,9.770687],[-83.963261,9.770405],[-83.96325,9.770123],[-83.963247,9.77003],[-83.96324,9.769749],[-83.963238,9.769468],[-83.96324,9.769187],[-83.963247,9.768906],[-83.96325,9.768813],[-83.963261,9.768529],[-83.963276,9.768246],[-83.963294,9.767996],[-83.963215,9.767881],[-83.963047,9.767626],[-83.962974,9.767514],[-83.962825,9.76728],[-83.962679,9.767044],[-83.962537,9.766805],[-83.962398,9.766565],[-83.962264,9.766322],[-83.962232,9.766263],[-83.962102,9.766021],[-83.961976,9.765777],[-83.961854,9.765531],[-83.961735,9.765283],[-83.96162,9.765033],[-83.96151,9.764782],[-83.961403,9.764528],[-83.961377,9.764467],[-83.961261,9.76418],[-83.96115,9.763891],[-83.961044,9.7636],[-83.960943,9.763307],[-83.960847,9.763012],[-83.960757,9.762717],[-83.960738,9.762653],[-83.960652,9.762355],[-83.960571,9.762055],[-83.960496,9.761754],[-83.960425,9.761453],[-83.960397,9.761324],[-83.960338,9.761053],[-83.960284,9.760781],[-83.960275,9.760731],[-83.960186,9.760733],[-83.959892,9.760736],[-83.959597,9.760733],[-83.959302,9.760727],[-83.959008,9.760715],[-83.958952,9.760712],[-83.958661,9.760696],[-83.95837,9.760676],[-83.95808,9.76065],[-83.95779,9.76062],[-83.957501,9.760586],[-83.957212,9.760547],[-83.956924,9.760503],[-83.956869,9.760494],[-83.956584,9.760446],[-83.956301,9.760394],[-83.956018,9.760338],[-83.955736,9.760277],[-83.955455,9.760211],[-83.955176,9.760141],[-83.954897,9.760067],[-83.954843,9.760052],[-83.954561,9.759972],[-83.95428,9.759887],[-83.954,9.759798],[-83.953722,9.759705],[-83.953445,9.759607],[-83.95317,9.759504],[-83.952897,9.759398],[-83.952845,9.759377],[-83.952516,9.759242],[-83.95219,9.7591],[-83.952135,9.759075],[-83.951863,9.758952],[-83.951593,9.758823],[-83.951326,9.758691],[-83.951061,9.758554],[-83.951025,9.758535],[-83.95083,9.758511],[-83.950536,9.758471],[-83.950242,9.758426],[-83.950146,9.758411],[-83.950025,9.75839],[-83.94979,9.758357],[-83.949508,9.758315],[-83.949226,9.758268],[-83.948946,9.758217],[-83.948666,9.758162],[-83.948618,9.758152],[-83.948347,9.758094],[-83.948077,9.758032],[-83.947808,9.757966],[-83.947539,9.757896],[-83.947272,9.757822],[-83.947006,9.757743],[-83.946742,9.757661],[-83.946478,9.757575],[-83.946216,9.757485],[-83.946171,9.757469],[-83.945911,9.757375],[-83.945652,9.757277],[-83.945395,9.757175],[-83.945139,9.75707],[-83.944886,9.756961],[-83.944634,9.756847],[-83.944383,9.75673],[-83.944135,9.75661],[-83.943888,9.756485],[-83.943845,9.756463],[-83.943635,9.756353],[-83.94351,9.756292],[-83.943237,9.756152],[-83.942965,9.756007],[-83.942697,9.755858],[-83.942612,9.755811],[-83.942344,9.755656],[-83.942079,9.755497],[-83.941817,9.755333],[-83.941557,9.755165],[-83.941476,9.755112],[-83.941225,9.754943],[-83.940976,9.754771],[-83.940731,9.754594],[-83.940488,9.754413],[-83.940249,9.754228],[-83.94021,9.754198],[-83.940187,9.754179],[-83.940148,9.754149],[-83.93994,9.753982],[-83.939733,9.753812],[-83.93953,9.753639],[-83.939328,9.753463],[-83.939255,9.753398],[-83.939054,9.753217],[-83.938856,9.753033],[-83.938661,9.752847],[-83.938469,9.752657],[-83.9384,9.752588],[-83.938199,9.752384],[-83.938001,9.752177],[-83.937807,9.751966],[-83.93768,9.751827],[-83.937475,9.751598],[-83.937274,9.751365],[-83.937078,9.75113],[-83.93702,9.75106],[-83.936839,9.750835],[-83.936662,9.750608],[-83.936488,9.750378],[-83.936318,9.750146],[-83.936265,9.750072],[-83.9361,9.749839],[-83.935938,9.749603],[-83.935781,9.749364],[-83.935627,9.749123],[-83.935579,9.749046],[-83.935428,9.748802],[-83.935282,9.748556],[-83.93514,9.748307],[-83.935106,9.748249],[-83.934975,9.748012],[-83.934848,9.747773],[-83.934724,9.747532],[-83.934604,9.747289],[-83.934487,9.747045],[-83.934374,9.746798],[-83.934347,9.746737],[-83.934235,9.746484],[-83.934128,9.74623],[-83.934025,9.745974],[-83.933925,9.745717],[-83.93383,9.745458],[-83.933738,9.745198],[-83.933717,9.745134],[-83.93363,9.744875],[-83.933564,9.744667],[-83.933447,9.744469],[-83.933306,9.744219],[-83.933168,9.743967],[-83.933034,9.743713],[-83.932905,9.743457],[-83.932779,9.743198],[-83.932658,9.742938],[-83.932634,9.742886],[-83.932524,9.742641],[-83.932418,9.742394],[-83.932316,9.742146],[-83.932217,9.741896],[-83.932123,9.741645],[-83.932032,9.741393],[-83.931944,9.741139],[-83.931926,9.741085],[-83.931843,9.740831],[-83.931763,9.740575],[-83.931688,9.740319],[-83.931616,9.740061],[-83.931548,9.739802],[-83.931484,9.739542],[-83.931423,9.739282],[-83.931411,9.739226],[-83.931353,9.738959],[-83.9313,9.738691],[-83.931251,9.738422],[-83.931205,9.738153],[-83.931164,9.737883],[-83.931127,9.737613],[-83.931094,9.737342],[-83.931088,9.737285],[-83.931057,9.736995],[-83.931031,9.736704],[-83.93101,9.736413],[-83.930994,9.736121],[-83.930982,9.735829],[-83.930975,9.735537],[-83.930973,9.735416],[-83.930971,9.735108],[-83.930974,9.734799],[-83.930983,9.73449],[-83.930997,9.734182],[-83.931016,9.733873],[-83.93104,9.733566],[-83.931046,9.733502],[-83.931073,9.733222],[-83.931104,9.732943],[-83.931139,9.732664],[-83.931179,9.732386],[-83.931187,9.732338],[-83.931185,9.732332],[-83.931135,9.732074],[-83.931122,9.732002],[-83.931075,9.731741],[-83.931032,9.73148],[-83.930993,9.731218],[-83.930958,9.730956],[-83.930926,9.730693],[-83.930918,9.73062],[-83.930891,9.730358],[-83.930867,9.730096],[-83.930847,9.729833],[-83.930832,9.72957],[-83.93082,9.729318],[-83.930774,9.729099],[-83.930719,9.728813],[-83.930668,9.728527],[-83.930622,9.728241],[-83.930581,9.727953],[-83.930544,9.727665],[-83.930512,9.727376],[-83.930484,9.727087],[-83.930462,9.726798],[-83.930444,9.726508],[-83.93043,9.726218],[-83.930422,9.725927],[-83.930418,9.725637],[-83.930419,9.725346],[-83.930424,9.725056],[-83.930426,9.724981],[-83.930437,9.724668],[-83.930454,9.724354],[-83.930476,9.724041],[-83.930504,9.723728],[-83.930511,9.723653],[-83.930545,9.723336],[-83.930584,9.723019],[-83.930629,9.722703],[-83.93068,9.722388],[-83.930692,9.722315],[-83.930742,9.722037],[-83.930795,9.72176],[-83.930854,9.721484],[-83.930916,9.721209],[-83.930983,9.720935],[-83.931054,9.720662],[-83.931123,9.720412],[-83.931066,9.720225],[-83.930989,9.719958],[-83.930917,9.71969],[-83.930896,9.719607],[-83.930823,9.719319],[-83.930755,9.71903],[-83.930692,9.71874],[-83.93068,9.718685],[-83.930672,9.718647],[-83.930615,9.718363],[-83.930563,9.718077],[-83.930559,9.718054],[-83.930402,9.717998],[-83.930135,9.717897],[-83.92987,9.717793],[-83.929692,9.717722],[-83.929388,9.717596],[-83.929086,9.717465],[-83.928911,9.717387],[-83.928608,9.717249],[-83.928307,9.717105],[-83.928135,9.717021],[-83.927923,9.716916],[-83.927803,9.716855],[-83.92755,9.716724],[-83.927298,9.71659],[-83.927049,9.716452],[-83.926932,9.716385],[-83.926682,9.716242],[-83.926435,9.716094],[-83.926191,9.715943],[-83.926077,9.715871],[-83.925838,9.715718],[-83.925602,9.715561],[-83.925368,9.715401],[-83.925258,9.715324],[-83.92503,9.715163],[-83.924806,9.714999],[-83.924583,9.714831],[-83.924466,9.714741],[-83.924267,9.714586],[-83.924071,9.714429],[-83.923876,9.714269],[-83.923798,9.714204],[-83.923691,9.714163],[-83.923397,9.714048],[-83.923169,9.713957],[-83.922881,9.71384],[-83.922655,9.713745],[-83.92236,9.713618],[-83.922209,9.71355],[-83.921987,9.71352],[-83.921723,9.713481],[-83.921459,9.713438],[-83.921378,9.713424],[-83.921106,9.713376],[-83.920836,9.713323],[-83.920566,9.713266],[-83.920297,9.713206],[-83.920029,9.713141],[-83.919762,9.713072],[-83.919496,9.712999],[-83.91941,9.712975],[-83.919099,9.712885],[-83.91879,9.712788],[-83.918482,9.712687],[-83.918398,9.712658],[-83.918084,9.712548],[-83.917772,9.712433],[-83.917463,9.712312],[-83.91738,9.712279],[-83.917088,9.712158],[-83.916798,9.712033],[-83.91651,9.711902],[-83.916429,9.711865],[-83.916138,9.711727],[-83.91585,9.711584],[-83.915564,9.711436],[-83.915486,9.711395],[-83.91524,9.711262],[-83.914995,9.711125],[-83.914753,9.710985],[-83.914513,9.710841],[-83.914276,9.710694],[-83.914041,9.710543],[-83.913808,9.710388],[-83.913577,9.71023],[-83.913516,9.710187],[-83.913262,9.710006],[-83.91301,9.709821],[-83.912762,9.709632],[-83.912517,9.709438],[-83.912459,9.709391],[-83.912212,9.709189],[-83.911969,9.708982],[-83.911729,9.708771],[-83.911493,9.708556],[-83.911438,9.708505],[-83.911253,9.708331],[-83.911071,9.708155],[-83.910891,9.707976],[-83.910714,9.707794],[-83.910608,9.707684],[-83.910418,9.707483],[-83.91023,9.70728],[-83.910046,9.707073],[-83.909994,9.707015],[-83.909818,9.706811],[-83.909796,9.706785],[-83.909651,9.70684],[-83.909414,9.706926],[-83.909176,9.707009],[-83.909003,9.707068],[-83.908772,9.707145],[-83.90854,9.707218],[-83.908307,9.707289],[-83.908221,9.707314],[-83.907948,9.707393],[-83.907674,9.707467],[-83.907399,9.707537],[-83.907122,9.707602],[-83.907035,9.707622],[-83.906764,9.707682],[-83.906493,9.707738],[-83.906221,9.70779],[-83.905948,9.707838],[-83.905899,9.707846],[-83.905851,9.707854],[-83.905579,9.707897],[-83.905307,9.707936],[-83.905034,9.707971],[-83.904761,9.708002],[-83.904672,9.708011],[-83.904394,9.708038],[-83.904116,9.708061],[-83.903838,9.70808],[-83.903559,9.708094],[-83.90347,9.708098],[-83.903217,9.708107],[-83.902963,9.708113],[-83.90271,9.708116],[-83.902589,9.708116],[-83.902321,9.708115],[-83.902054,9.70811],[-83.901787,9.708101],[-83.901519,9.708088],[-83.901398,9.708081],[-83.901134,9.708065],[-83.90087,9.708044],[-83.900607,9.70802],[-83.900343,9.707992],[-83.900223,9.707978],[-83.899959,9.707946],[-83.899695,9.70791],[-83.899431,9.707871],[-83.899169,9.707827],[-83.899049,9.707807],[-83.898785,9.707759],[-83.898522,9.707708],[-83.898259,9.707652],[-83.897997,9.707593],[-83.897879,9.707565],[-83.897593,9.707496],[-83.897308,9.707422],[-83.897024,9.707344],[-83.896741,9.707261],[-83.89646,9.707173],[-83.896181,9.707081],[-83.895903,9.706985],[-83.895626,9.706884],[-83.895515,9.706842],[-83.895275,9.70675],[-83.895037,9.706655],[-83.8948,9.706557],[-83.89469,9.706511],[-83.894463,9.706413],[-83.894237,9.706312],[-83.894012,9.706208],[-83.893905,9.706157],[-83.893679,9.706048],[-83.893454,9.705937],[-83.893231,9.705822],[-83.893126,9.705767],[-83.89287,9.705631],[-83.892616,9.70549],[-83.892365,9.705346],[-83.892116,9.705197],[-83.892034,9.705148],[-83.891788,9.704996],[-83.891545,9.70484],[-83.891304,9.70468],[-83.891065,9.704517],[-83.890987,9.704462],[-83.89074,9.704287],[-83.890497,9.704109],[-83.890257,9.703926],[-83.890019,9.703739],[-83.889945,9.703679],[-83.889715,9.703492],[-83.889488,9.703301],[-83.889265,9.703107],[-83.889045,9.702909],[-83.888974,9.702845],[-83.88876,9.702646],[-83.888549,9.702443],[-83.888341,9.702237],[-83.888136,9.702028],[-83.88807,9.701959],[-83.888024,9.701912],[-83.887965,9.70185],[-83.887929,9.701812],[-83.887914,9.701797],[-83.887729,9.701599],[-83.887547,9.701398],[-83.887525,9.701373],[-83.887345,9.701262],[-83.88713,9.701123],[-83.886916,9.700982],[-83.886843,9.700933],[-83.886631,9.700789],[-83.88642,9.700641],[-83.886212,9.70049],[-83.886006,9.700337],[-83.885936,9.700284],[-83.885719,9.700117],[-83.885505,9.699948],[-83.885294,9.699775],[-83.885085,9.699599],[-83.884879,9.69942],[-83.884807,9.699357],[-83.884572,9.699146],[-83.884341,9.698931],[-83.884113,9.698712],[-83.883889,9.698489],[-83.883822,9.698422],[-83.883607,9.6982],[-83.883395,9.697974],[-83.883188,9.697745],[-83.882984,9.697513],[-83.882922,9.697441],[-83.882721,9.697203],[-83.882523,9.696961],[-83.88233,9.696716],[-83.882142,9.696468],[-83.882085,9.696392],[-83.881901,9.696141],[-83.881721,9.695887],[-83.881546,9.695631],[-83.881375,9.695371],[-83.881324,9.695291],[-83.881158,9.695029],[-83.880996,9.694764],[-83.880839,9.694496],[-83.880687,9.694225],[-83.880641,9.694142],[-83.880503,9.693888],[-83.88037,9.693631],[-83.88024,9.693372],[-83.880115,9.693111],[-83.879994,9.692849],[-83.879877,9.692584],[-83.879764,9.692318],[-83.879656,9.692049],[-83.879552,9.691779],[-83.879452,9.691508],[-83.879357,9.691235],[-83.879158,9.69065],[-83.879078,9.690409],[-83.879002,9.690168],[-83.878929,9.689925],[-83.87886,9.689682],[-83.87885,9.689646],[-83.878839,9.689613],[-83.87883,9.689583],[-83.878675,9.689387],[-83.8786,9.68929],[-83.878438,9.689079],[-83.87828,9.688866],[-83.878125,9.68865],[-83.877973,9.688432],[-83.877904,9.688331],[-83.877893,9.688315],[-83.877767,9.688338],[-83.877647,9.688358],[-83.877388,9.688401],[-83.877129,9.68844],[-83.876869,9.688476],[-83.876748,9.688491],[-83.876479,9.688524],[-83.876209,9.688553],[-83.875938,9.688578],[-83.875793,9.68859],[-83.875534,9.68861],[-83.875274,9.688626],[-83.875014,9.688639],[-83.874869,9.688645],[-83.874613,9.688653],[-83.874358,9.688659],[-83.874102,9.68866],[-83.873957,9.68866],[-83.873705,9.688659],[-83.873453,9.688653],[-83.873202,9.688645],[-83.873057,9.688639],[-83.872797,9.688626],[-83.872537,9.68861],[-83.872277,9.68859],[-83.872133,9.688577],[-83.871881,9.688554],[-83.871629,9.688528],[-83.871592,9.688524],[-83.871528,9.688537],[-83.871254,9.688591],[-83.870978,9.68864],[-83.870702,9.688686],[-83.870591,9.688703],[-83.870253,9.688753],[-83.870149,9.688767],[-83.869889,9.688801],[-83.869629,9.688831],[-83.869369,9.688857],[-83.869109,9.68888],[-83.869003,9.688888],[-83.86874,9.688907],[-83.868476,9.688922],[-83.868212,9.688934],[-83.867948,9.688942],[-83.867842,9.688944],[-83.867583,9.688948],[-83.867323,9.688948],[-83.867063,9.688944],[-83.866804,9.688937],[-83.866698,9.688934],[-83.866602,9.68893],[-83.866507,9.688972],[-83.866234,9.68909],[-83.86596,9.689203],[-83.865684,9.689311],[-83.865615,9.689338],[-83.865353,9.689436],[-83.86509,9.68953],[-83.864826,9.68962],[-83.86456,9.689707],[-83.864293,9.689789],[-83.864144,9.689833],[-83.863846,9.68992],[-83.863547,9.690001],[-83.863246,9.690077],[-83.862944,9.690148],[-83.862865,9.690166],[-83.862596,9.690225],[-83.862327,9.690279],[-83.862057,9.69033],[-83.861786,9.690376],[-83.861515,9.690419],[-83.861434,9.690431],[-83.861166,9.690469],[-83.860897,9.690503],[-83.860628,9.690533],[-83.860358,9.690559],[-83.860088,9.690581],[-83.860006,9.690587],[-83.859734,9.690605],[-83.85946,9.690619],[-83.859187,9.69063],[-83.858914,9.690636],[-83.85864,9.690637],[-83.858559,9.690637],[-83.858221,9.690634],[-83.857883,9.690625],[-83.857686,9.690617],[-83.857433,9.690606],[-83.85718,9.690592],[-83.857065,9.690584],[-83.856734,9.69056],[-83.856404,9.690529],[-83.856074,9.690493],[-83.855959,9.690479],[-83.855628,9.690437],[-83.855297,9.690388],[-83.854967,9.690333],[-83.854854,9.690313],[-83.854527,9.690253],[-83.854201,9.690186],[-83.853877,9.690114],[-83.853764,9.690088],[-83.853494,9.690024],[-83.853226,9.689955],[-83.852958,9.689882],[-83.852692,9.689805],[-83.852521,9.689754],[-83.852198,9.689655],[-83.852028,9.689601],[-83.851693,9.689492],[-83.851524,9.689435],[-83.851234,9.689334],[-83.850947,9.689229],[-83.850661,9.689119],[-83.850377,9.689004],[-83.850096,9.688884],[-83.849816,9.68876],[-83.849538,9.688631],[-83.849302,9.688519],[-83.849007,9.688375],[-83.848773,9.688259],[-83.848485,9.688113],[-83.848253,9.687993],[-83.847986,9.687851],[-83.847721,9.687705],[-83.847458,9.687558],[-83.847207,9.687414],[-83.846947,9.687262],[-83.846692,9.687111],[-83.846435,9.686955],[-83.846189,9.686804],[-83.846081,9.686736],[-83.84547,9.686369],[-83.845216,9.686214],[-83.844965,9.686055],[-83.844717,9.685891],[-83.844472,9.685724],[-83.844229,9.685553],[-83.843989,9.685378],[-83.843752,9.685199],[-83.843518,9.685016],[-83.843287,9.684829],[-83.843059,9.684639],[-83.842834,9.684445],[-83.842613,9.684248],[-83.842394,9.684046],[-83.84218,9.683842],[-83.841968,9.683634],[-83.84163,9.683296],[-83.841463,9.683126],[-83.841129,9.682784],[-83.840965,9.682613],[-83.840637,9.682266],[-83.840475,9.682093],[-83.840151,9.681743],[-83.840047,9.68163],[-83.840044,9.681627],[-83.839883,9.681466],[-83.839489,9.681069],[-83.839374,9.680952],[-83.839362,9.680941],[-83.839115,9.680707],[-83.838873,9.680469],[-83.838744,9.68034],[-83.838505,9.680097],[-83.838271,9.679849],[-83.838147,9.679715],[-83.837916,9.679462],[-83.83769,9.679204],[-83.837571,9.679065],[-83.837351,9.678805],[-83.837137,9.67854],[-83.837023,9.678398],[-83.836812,9.678127],[-83.836605,9.677852],[-83.836497,9.677705],[-83.836296,9.677426],[-83.8361,9.677143],[-83.835998,9.676992],[-83.83586,9.676786],[-83.835725,9.676578],[-83.835581,9.676352],[-83.835431,9.676113],[-83.835284,9.675872],[-83.835142,9.675629],[-83.835003,9.675383],[-83.834869,9.675135],[-83.834738,9.674886],[-83.834611,9.674634],[-83.834488,9.674381],[-83.834224,9.673825],[-83.834111,9.673583],[-83.834001,9.673338],[-83.833896,9.673092],[-83.833793,9.672845],[-83.833695,9.672596],[-83.8336,9.672346],[-83.833509,9.672094],[-83.833313,9.671538],[-83.833222,9.671274],[-83.833135,9.671009],[-83.833052,9.670742],[-83.832974,9.670474],[-83.832899,9.670205],[-83.832829,9.669935],[-83.832763,9.669663],[-83.832701,9.669391],[-83.832644,9.669118],[-83.832504,9.66843],[-83.832448,9.66814],[-83.832397,9.667848],[-83.83235,9.667556],[-83.832308,9.667263],[-83.832271,9.666969],[-83.832239,9.666675],[-83.832211,9.66638],[-83.832182,9.666036],[-83.83216,9.665747],[-83.832143,9.665457],[-83.83213,9.665167],[-83.832122,9.664878],[-83.832118,9.664588],[-83.83212,9.664298],[-83.832125,9.663912],[-83.83203,9.663743],[-83.831898,9.6635],[-83.831771,9.663254],[-83.831647,9.663007],[-83.831526,9.662758],[-83.83141,9.662506],[-83.831269,9.662195],[-83.831157,9.661944],[-83.831048,9.66169],[-83.830944,9.661435],[-83.830844,9.661179],[-83.830774,9.660996],[-83.830671,9.660719],[-83.830572,9.660441],[-83.830478,9.660162],[-83.830389,9.65988],[-83.830304,9.659598],[-83.830224,9.659314],[-83.830149,9.659029],[-83.830078,9.658743],[-83.830012,9.658455],[-83.829914,9.658013],[-83.829857,9.657743],[-83.829803,9.657472],[-83.829754,9.6572],[-83.829709,9.656927],[-83.829698,9.656852],[-83.829627,9.65672],[-83.829491,9.656461],[-83.82936,9.6562],[-83.829233,9.655937],[-83.829111,9.655671],[-83.828993,9.655404],[-83.828879,9.655135],[-83.828816,9.654984],[-83.828651,9.654584],[-83.828543,9.654316],[-83.828439,9.654046],[-83.828339,9.653775],[-83.828244,9.653502],[-83.828153,9.653228],[-83.828067,9.652952],[-83.827985,9.652675],[-83.827908,9.652397],[-83.827835,9.652117],[-83.827766,9.651837],[-83.827702,9.651555],[-83.827656,9.651341],[-83.827614,9.651152],[-83.827554,9.650864],[-83.827498,9.650576],[-83.827447,9.650286],[-83.827401,9.649995],[-83.82736,9.649704],[-83.827323,9.649412],[-83.827322,9.6494],[-83.827263,9.649306],[-83.827116,9.64906],[-83.826973,9.648812],[-83.826709,9.648345],[-83.826572,9.6481],[-83.82644,9.647853],[-83.826311,9.647604],[-83.826186,9.647353],[-83.826065,9.6471],[-83.825948,9.646846],[-83.825836,9.646589],[-83.825727,9.646331],[-83.825622,9.646071],[-83.825521,9.64581],[-83.825424,9.645547],[-83.825332,9.645283],[-83.825243,9.645017],[-83.825152,9.644734],[-83.825084,9.644518],[-83.825019,9.644433],[-83.824854,9.644211],[-83.824684,9.643978],[-83.824517,9.643742],[-83.824354,9.643504],[-83.824195,9.643263],[-83.82404,9.64302],[-83.823889,9.642775],[-83.823742,9.642527],[-83.823599,9.642276],[-83.82346,9.642024],[-83.823325,9.641769],[-83.823194,9.641512],[-83.823067,9.641254],[-83.822958,9.641022],[-83.822885,9.640932],[-83.822707,9.640702],[-83.822532,9.640469],[-83.82236,9.640234],[-83.822193,9.639996],[-83.822029,9.639755],[-83.82187,9.639512],[-83.821714,9.639266],[-83.821562,9.639018],[-83.821415,9.638767],[-83.821271,9.638514],[-83.82117,9.638332],[-83.821031,9.638077],[-83.820895,9.63782],[-83.820764,9.637561],[-83.820638,9.637299],[-83.820515,9.637036],[-83.820397,9.636771],[-83.820283,9.636503],[-83.820173,9.636235],[-83.820095,9.636034],[-83.819853,9.635831],[-83.81963,9.63564],[-83.819555,9.635574],[-83.81945,9.635533],[-83.819178,9.635422],[-83.818907,9.635306],[-83.818638,9.635185],[-83.818372,9.635061],[-83.818107,9.634932],[-83.817845,9.634799],[-83.817585,9.634662],[-83.817327,9.63452],[-83.817071,9.634375],[-83.816911,9.63428],[-83.816666,9.634218],[-83.816402,9.634149],[-83.816138,9.634076],[-83.815936,9.634017],[-83.815742,9.634037],[-83.815452,9.634062],[-83.815161,9.634083],[-83.814871,9.634099],[-83.81458,9.63411],[-83.814155,9.634124],[-83.813845,9.634131],[-83.813535,9.634132],[-83.813225,9.634129],[-83.812915,9.63412],[-83.812605,9.634106],[-83.811697,9.634058],[-83.811413,9.634041],[-83.811129,9.634019],[-83.810846,9.633993],[-83.810563,9.633962],[-83.81028,9.633927],[-83.809999,9.633888],[-83.809717,9.633844],[-83.808825,9.633699],[-83.808524,9.633647],[-83.808225,9.63359],[-83.807926,9.633529],[-83.807628,9.633462],[-83.807089,9.633337],[-83.806803,9.633268],[-83.806518,9.633195],[-83.806235,9.633116],[-83.805952,9.633034],[-83.805671,9.632947],[-83.805392,9.632855],[-83.804554,9.632573],[-83.804257,9.63247],[-83.803961,9.632362],[-83.803667,9.632249],[-83.803113,9.63203],[-83.802114,9.631636],[-83.80198,9.63164],[-83.801692,9.631646],[-83.801405,9.631647],[-83.801118,9.631644],[-83.800831,9.631636],[-83.800544,9.631624],[-83.800257,9.631608],[-83.799956,9.631588],[-83.799681,9.631567],[-83.799405,9.631543],[-83.799131,9.631514],[-83.798856,9.631482],[-83.798582,9.631445],[-83.798309,9.631404],[-83.798037,9.631359],[-83.797765,9.63131],[-83.797494,9.631256],[-83.797195,9.631195],[-83.796915,9.631136],[-83.796636,9.631072],[-83.796358,9.631004],[-83.796081,9.630931],[-83.795805,9.630854],[-83.795531,9.630773],[-83.795258,9.630688],[-83.794986,9.630598],[-83.794716,9.630505],[-83.794447,9.630406],[-83.793988,9.630235],[-83.793723,9.630134],[-83.793461,9.630029],[-83.793102,9.629882],[-83.792841,9.629772],[-83.792581,9.629659],[-83.792323,9.629542],[-83.792067,9.62942],[-83.791813,9.629295],[-83.791561,9.629166],[-83.791311,9.629033],[-83.791063,9.628896],[-83.790818,9.628755],[-83.790574,9.62861],[-83.790333,9.628462],[-83.790094,9.62831],[-83.789858,9.628155],[-83.789744,9.628078],[-83.789518,9.627924],[-83.789293,9.627767],[-83.789072,9.627606],[-83.788852,9.627442],[-83.788636,9.627274],[-83.788421,9.627103],[-83.78821,9.626929],[-83.788001,9.626752],[-83.787794,9.626572],[-83.787655,9.626448],[-83.787516,9.626323],[-83.787432,9.626299],[-83.787177,9.62622],[-83.786924,9.626137],[-83.786671,9.62605],[-83.78642,9.62596],[-83.786171,9.625867],[-83.786083,9.625833],[-83.785789,9.625717],[-83.785497,9.625597],[-83.785207,9.625471],[-83.784919,9.62534],[-83.784634,9.625205],[-83.78455,9.625164],[-83.784268,9.625024],[-83.783989,9.624879],[-83.783712,9.624729],[-83.783438,9.624575],[-83.783166,9.624416],[-83.783086,9.624368],[-83.782857,9.624229],[-83.782631,9.624086],[-83.782611,9.624074],[-83.782447,9.623972],[-83.782227,9.623831],[-83.782166,9.623791],[-83.781931,9.623636],[-83.781698,9.623478],[-83.781469,9.623315],[-83.781241,9.62315],[-83.781017,9.62298],[-83.780795,9.622808],[-83.780575,9.622632],[-83.780519,9.622586],[-83.780309,9.622412],[-83.780102,9.622235],[-83.780044,9.622184],[-83.779953,9.622207],[-83.779778,9.622251],[-83.779439,9.622331],[-83.779098,9.622405],[-83.778922,9.622442],[-83.778577,9.62251],[-83.778232,9.622571],[-83.778054,9.622601],[-83.777705,9.622656],[-83.777355,9.622705],[-83.777292,9.622713],[-83.777236,9.622742],[-83.776987,9.622866],[-83.776736,9.622986],[-83.77665,9.623026],[-83.776407,9.623138],[-83.776162,9.623246],[-83.775915,9.623351],[-83.775667,9.623452],[-83.775418,9.62355],[-83.775329,9.623584],[-83.775074,9.623679],[-83.774817,9.623771],[-83.774559,9.623859],[-83.7743,9.623943],[-83.774039,9.624023],[-83.774032,9.624025],[-83.773865,9.624114],[-83.773625,9.624238],[-83.773383,9.624358],[-83.773276,9.62441],[-83.77301,9.624537],[-83.772741,9.62466],[-83.772471,9.624779],[-83.772199,9.624893],[-83.771925,9.625002],[-83.771649,9.625108],[-83.771371,9.625209],[-83.771092,9.625305],[-83.770811,9.625397],[-83.770529,9.625484],[-83.770245,9.625567],[-83.76996,9.625645],[-83.769674,9.625719],[-83.769387,9.625788],[-83.769098,9.625852],[-83.768809,9.625912],[-83.768519,9.625967],[-83.768227,9.626018],[-83.768116,9.626036],[-83.7678,9.626085],[-83.767483,9.626129],[-83.767165,9.626167],[-83.766847,9.6262],[-83.766735,9.62621],[-83.766418,9.626237],[-83.766101,9.626259],[-83.765784,9.626275],[-83.765466,9.626285],[-83.765354,9.626288],[-83.765036,9.626293],[-83.764719,9.626292],[-83.764402,9.626286],[-83.764085,9.626275],[-83.763972,9.62627],[-83.76365,9.626252],[-83.763329,9.626229],[-83.763008,9.626201],[-83.762688,9.626167],[-83.762576,9.626154],[-83.762262,9.626115],[-83.761948,9.62607],[-83.761635,9.62602],[-83.761323,9.625965],[-83.761212,9.625944],[-83.760897,9.625883],[-83.760583,9.625816],[-83.76027,9.625743],[-83.759959,9.625665],[-83.75985,9.625637],[-83.759541,9.625554],[-83.759234,9.625465],[-83.758928,9.625371],[-83.758624,9.625272],[-83.758517,9.625236],[-83.758216,9.625132],[-83.757917,9.625023],[-83.757621,9.624909],[-83.757326,9.62479],[-83.757222,9.624746],[-83.756931,9.624622],[-83.756642,9.624494],[-83.756355,9.62436],[-83.756282,9.624324],[-83.756188,9.624295],[-83.755911,9.624203],[-83.755636,9.624107],[-83.755362,9.624006],[-83.75509,9.623901],[-83.75482,9.623792],[-83.754551,9.623678],[-83.754284,9.623561],[-83.75402,9.623439],[-83.753757,9.623312],[-83.753496,9.623182],[-83.753237,9.623047],[-83.752981,9.622909],[-83.752727,9.622766],[-83.752475,9.622619],[-83.752226,9.622469],[-83.751979,9.622314],[-83.751734,9.622155],[-83.751493,9.621993],[-83.751253,9.621827],[-83.751173,9.62177],[-83.750974,9.621629],[-83.750745,9.621464],[-83.750518,9.621296],[-83.750294,9.621124],[-83.750073,9.620949],[-83.749855,9.620771],[-83.749639,9.620589],[-83.749426,9.620404],[-83.749217,9.620215],[-83.74901,9.620024],[-83.748806,9.619829],[-83.748605,9.619631],[-83.748408,9.61943],[-83.748213,9.619226],[-83.748022,9.619019],[-83.747834,9.618809],[-83.747649,9.618597],[-83.747547,9.618477],[-83.747362,9.618257],[-83.74718,9.618034],[-83.747003,9.617808],[-83.746828,9.61758],[-83.746658,9.617348],[-83.746491,9.617115],[-83.746328,9.616878],[-83.746169,9.616639],[-83.746013,9.616398],[-83.745862,9.616154],[-83.745714,9.615908],[-83.74557,9.615659],[-83.74543,9.615408],[-83.745295,9.615155],[-83.745163,9.6149],[-83.745035,9.614643],[-83.744929,9.614424],[-83.744807,9.614169],[-83.744689,9.613911],[-83.744576,9.613652],[-83.744466,9.613391],[-83.74436,9.613128],[-83.744259,9.612864],[-83.744162,9.612598],[-83.744069,9.612331],[-83.74398,9.612062],[-83.743895,9.611792],[-83.743815,9.611521],[-83.743739,9.611249],[-83.743668,9.610975],[-83.7436,9.6107],[-83.743537,9.610424],[-83.743479,9.610148],[-83.743424,9.60987],[-83.743387,9.60967],[-83.743336,9.609385],[-83.743289,9.609099],[-83.743247,9.608813],[-83.74321,9.608526],[-83.743178,9.608238],[-83.74315,9.60795],[-83.743126,9.607662],[-83.743108,9.607373],[-83.743094,9.607084],[-83.743085,9.606794],[-83.74308,9.606505],[-83.74308,9.606215],[-83.743085,9.605926],[-83.743094,9.605637],[-83.743102,9.605449],[-83.743115,9.605168],[-83.743133,9.604888],[-83.743156,9.604608],[-83.743182,9.604328],[-83.743213,9.604049],[-83.743249,9.603771],[-83.743289,9.603492],[-83.743333,9.603215],[-83.743381,9.602938],[-83.743434,9.602662],[-83.743491,9.602387],[-83.743553,9.602113],[-83.743618,9.60184],[-83.743688,9.601568],[-83.743762,9.601297],[-83.74384,9.601029],[-83.743875,9.600822],[-83.743901,9.600684],[-83.743819,9.600412],[-83.743742,9.600137],[-83.743669,9.599861],[-83.7436,9.599584],[-83.743536,9.599306],[-83.743476,9.599027],[-83.743421,9.598747],[-83.743363,9.598443],[-83.74331,9.598149],[-83.743261,9.597854],[-83.743218,9.597559],[-83.74318,9.597263],[-83.743146,9.596966],[-83.743117,9.596669],[-83.743094,9.596371],[-83.743075,9.596073],[-83.743061,9.595775],[-83.743053,9.595476],[-83.743049,9.595178],[-83.743047,9.594898],[-83.743048,9.594625],[-83.743053,9.594352],[-83.743063,9.59408],[-83.743076,9.593807],[-83.743093,9.593535],[-83.743115,9.593263],[-83.74314,9.592992],[-83.74317,9.59272],[-83.743204,9.59245],[-83.743242,9.59218],[-83.74328,9.591923],[-83.743326,9.591633],[-83.743376,9.591344],[-83.743431,9.591057],[-83.74349,9.59077],[-83.743555,9.590484],[-83.743624,9.590199],[-83.743683,9.58997],[-83.743643,9.589974],[-83.743352,9.589995],[-83.743062,9.590012],[-83.742771,9.590024],[-83.74248,9.590031],[-83.742085,9.590038],[-83.741795,9.590041],[-83.741504,9.590039],[-83.741214,9.590033],[-83.740923,9.590022],[-83.740633,9.590006],[-83.740343,9.589986],[-83.740054,9.589962],[-83.739765,9.589932],[-83.739476,9.589898],[-83.739188,9.58986],[-83.738901,9.589817],[-83.738614,9.589769],[-83.738328,9.589717],[-83.738043,9.589661],[-83.737642,9.589577],[-83.737368,9.589519],[-83.737095,9.589456],[-83.736823,9.589388],[-83.736553,9.589317],[-83.736283,9.589242],[-83.736015,9.589162],[-83.735747,9.589078],[-83.735311,9.588938],[-83.735041,9.588849],[-83.734772,9.588756],[-83.734505,9.588658],[-83.734239,9.588557],[-83.733975,9.588451],[-83.733291,9.588171],[-83.733012,9.588054],[-83.732736,9.587932],[-83.732461,9.587806],[-83.732189,9.587676],[-83.731918,9.587541],[-83.73165,9.587402],[-83.730899,9.587003],[-83.730644,9.586865],[-83.730392,9.586724],[-83.730142,9.586578],[-83.729894,9.586428],[-83.729649,9.586275],[-83.729406,9.586118],[-83.729166,9.585957],[-83.728371,9.585414],[-83.728134,9.58525],[-83.7279,9.585081],[-83.727668,9.584909],[-83.727439,9.584734],[-83.727213,9.584555],[-83.72699,9.584372],[-83.726769,9.584186],[-83.726184,9.583683],[-83.725976,9.583501],[-83.72577,9.583316],[-83.725567,9.583128],[-83.725367,9.582937],[-83.725171,9.582743],[-83.724977,9.582546],[-83.724503,9.582057],[-83.724303,9.581847],[-83.724106,9.581634],[-83.723912,9.581417],[-83.723722,9.581198],[-83.723536,9.580975],[-83.723353,9.58075],[-83.722825,9.580089],[-83.722657,9.579874],[-83.722492,9.579658],[-83.72233,9.579438],[-83.722171,9.579216],[-83.722016,9.578992],[-83.721864,9.578766],[-83.721716,9.578537],[-83.721383,9.578016],[-83.721232,9.577775],[-83.721085,9.577532],[-83.720942,9.577286],[-83.720909,9.577228],[-83.720799,9.577189],[-83.72053,9.577089],[-83.720262,9.576985],[-83.719996,9.576876],[-83.719731,9.576764],[-83.719468,9.576647],[-83.719208,9.576526],[-83.718949,9.576401],[-83.718692,9.576272],[-83.718437,9.576139],[-83.718015,9.575914],[-83.717763,9.575777],[-83.717694,9.575738],[-83.717446,9.575873],[-83.717189,9.576008],[-83.716717,9.57625],[-83.716477,9.576371],[-83.716236,9.576489],[-83.715994,9.576602],[-83.715749,9.576712],[-83.715503,9.576819],[-83.715256,9.576922],[-83.715006,9.577021],[-83.714731,9.577129],[-83.714472,9.577228],[-83.714213,9.577322],[-83.713952,9.577413],[-83.71369,9.5775],[-83.713426,9.577583],[-83.713161,9.577661],[-83.712895,9.577736],[-83.712628,9.577807],[-83.712198,9.577918],[-83.711926,9.577985],[-83.711653,9.578049],[-83.711379,9.578108],[-83.711104,9.578163],[-83.710829,9.578214],[-83.710553,9.578261],[-83.710276,9.578303],[-83.709998,9.578342],[-83.70972,9.578376],[-83.709441,9.578405],[-83.709162,9.578431],[-83.708883,9.578452],[-83.708603,9.578469],[-83.708323,9.578482],[-83.708043,9.57849],[-83.707791,9.578496],[-83.707513,9.5785],[-83.707234,9.5785],[-83.706956,9.578496],[-83.706677,9.578487],[-83.706399,9.578474],[-83.706121,9.578457],[-83.705844,9.578436],[-83.705125,9.578376],[-83.704838,9.57835],[-83.704551,9.578319],[-83.704265,9.578283],[-83.70398,9.578243],[-83.703695,9.578199],[-83.703411,9.57815],[-83.703127,9.578097],[-83.702845,9.578039],[-83.702563,9.577977],[-83.702283,9.57791],[-83.702003,9.57784],[-83.701258,9.577644],[-83.70098,9.577569],[-83.700703,9.577489],[-83.700427,9.577405],[-83.700153,9.577316],[-83.700019,9.577272],[-83.699743,9.577178],[-83.699469,9.57708],[-83.699196,9.576978],[-83.699014,9.576906],[-83.698927,9.576885],[-83.698643,9.576811],[-83.698361,9.576732],[-83.698079,9.576649],[-83.697799,9.576561],[-83.69752,9.576468],[-83.697243,9.576372],[-83.696968,9.576271],[-83.696694,9.576165],[-83.696422,9.576055],[-83.696152,9.575941],[-83.695883,9.575822],[-83.695617,9.5757],[-83.695353,9.575573],[-83.69509,9.575441],[-83.69483,9.575306],[-83.694573,9.575166],[-83.694317,9.575022],[-83.694064,9.574875],[-83.693813,9.574723],[-83.693565,9.574567],[-83.693319,9.574407],[-83.693076,9.574244],[-83.692836,9.574076],[-83.692598,9.573905],[-83.692363,9.57373],[-83.692131,9.573551],[-83.691902,9.573368],[-83.691645,9.57316],[-83.6915,9.573041],[-83.691245,9.57283],[-83.691027,9.572646],[-83.690811,9.572459],[-83.690599,9.572269],[-83.690389,9.572075],[-83.690183,9.571878],[-83.68998,9.571678],[-83.68978,9.571475],[-83.689583,9.571269],[-83.689372,9.571044],[-83.689174,9.570829],[-83.68898,9.570612],[-83.688789,9.570391],[-83.688601,9.570168],[-83.688418,9.569941],[-83.688238,9.569712],[-83.688062,9.569479],[-83.687889,9.569244],[-83.68772,9.569007],[-83.687556,9.568766],[-83.687395,9.568523],[-83.687238,9.568278],[-83.686934,9.567794],[-83.686781,9.567545],[-83.686632,9.567294],[-83.686487,9.567041],[-83.686346,9.566785],[-83.686209,9.566527],[-83.686077,9.566267],[-83.685948,9.566005],[-83.685824,9.565741],[-83.685704,9.565475],[-83.685589,9.565207],[-83.685478,9.564937],[-83.685371,9.564666],[-83.685269,9.564392],[-83.685171,9.564118],[-83.685078,9.563841],[-83.684989,9.563563],[-83.684905,9.563284],[-83.684825,9.563004],[-83.68475,9.562722],[-83.68468,9.562439],[-83.684614,9.562155],[-83.684552,9.56187],[-83.684495,9.561584],[-83.684443,9.561298],[-83.684416,9.56114],[-83.68437,9.560861],[-83.684328,9.560582],[-83.684291,9.560302],[-83.684258,9.560022],[-83.68423,9.559741],[-83.684206,9.55946],[-83.684186,9.559178],[-83.684171,9.558896],[-83.684161,9.558614],[-83.684154,9.558332],[-83.684152,9.55805],[-83.684155,9.557768],[-83.684162,9.557485],[-83.684174,9.557203],[-83.68419,9.556922],[-83.68421,9.55664],[-83.684235,9.556359],[-83.684264,9.556078],[-83.684297,9.555798],[-83.684335,9.555518],[-83.684378,9.555239],[-83.684425,9.554961],[-83.684476,9.554683],[-83.684531,9.554406],[-83.684591,9.55413],[-83.684655,9.553855],[-83.684694,9.553693],[-83.684764,9.553415],[-83.684838,9.553138],[-83.684917,9.552863],[-83.684999,9.552588],[-83.685087,9.552315],[-83.685178,9.552043],[-83.685274,9.551773],[-83.685374,9.551504],[-83.685479,9.551237],[-83.685587,9.550971],[-83.685605,9.55093],[-83.685621,9.550872],[-83.685702,9.550597],[-83.685788,9.550323],[-83.685878,9.550051],[-83.685957,9.549824],[-83.686,9.549644],[-83.68607,9.549368],[-83.686144,9.549094],[-83.686223,9.54882],[-83.686306,9.548548],[-83.686394,9.548277],[-83.686486,9.548008],[-83.686582,9.54774],[-83.686682,9.547474],[-83.686786,9.547209],[-83.686895,9.546946],[-83.687008,9.546684],[-83.687125,9.546425],[-83.687246,9.546167],[-83.687371,9.545911],[-83.6875,9.545657],[-83.687633,9.545405],[-83.68777,9.545156],[-83.687911,9.544908],[-83.688056,9.544663],[-83.688205,9.54442],[-83.688357,9.544179],[-83.688469,9.544009],[-83.68828,9.543871],[-83.687786,9.543504],[-83.687545,9.543322],[-83.687307,9.543136],[-83.687073,9.542946],[-83.686841,9.542752],[-83.686613,9.542554],[-83.686388,9.542353],[-83.686167,9.542148],[-83.685697,9.541706],[-83.685489,9.541507],[-83.685285,9.541305],[-83.685084,9.5411],[-83.684886,9.540892],[-83.684691,9.540681],[-83.6845,9.540466],[-83.684312,9.540249],[-83.684128,9.540029],[-83.683948,9.539806],[-83.68377,9.53958],[-83.683597,9.539351],[-83.683427,9.53912],[-83.683261,9.538886],[-83.683099,9.538649],[-83.68294,9.53841],[-83.682785,9.538169],[-83.682635,9.537925],[-83.682488,9.537679],[-83.682345,9.53743],[-83.682206,9.537179],[-83.682118,9.537018],[-83.681981,9.536762],[-83.681848,9.536503],[-83.68172,9.536242],[-83.681596,9.53598],[-83.681476,9.535715],[-83.68136,9.535449],[-83.681248,9.53518],[-83.681154,9.534942],[-83.682986,9.53339],[-83.734292,9.542015],[-83.734387,9.542103],[-83.734511,9.542222],[-83.734671,9.542197],[-83.734958,9.542158],[-83.735047,9.542148],[-83.747144,9.544471],[-83.747144,9.544471],[-83.786487,9.583742],[-83.786497,9.583876],[-83.786515,9.58415],[-83.786526,9.58439],[-83.786587,9.584387],[-83.786886,9.584378],[-83.787185,9.584373],[-83.787484,9.584374],[-83.787783,9.584379],[-83.788082,9.584389],[-83.788381,9.584404],[-83.788453,9.584408],[-83.788754,9.584428],[-83.789054,9.584453],[-83.789354,9.584483],[-83.789654,9.584518],[-83.789952,9.584558],[-83.79025,9.584602],[-83.790322,9.584614],[-83.790612,9.584662],[-83.7909,9.584715],[-83.791189,9.584772],[-83.791476,9.584834],[-83.791762,9.584901],[-83.792047,9.584972],[-83.792116,9.58499],[-83.792409,9.585068],[-83.7927,9.585151],[-83.792989,9.585239],[-83.793277,9.585331],[-83.793564,9.585428],[-83.793849,9.58553],[-83.793916,9.585555],[-83.794196,9.58566],[-83.794474,9.58577],[-83.79475,9.585885],[-83.795024,9.586003],[-83.795296,9.586127],[-83.795566,9.586254],[-83.795631,9.586286],[-83.795895,9.586416],[-83.796156,9.58655],[-83.796348,9.586652],[-83.796516,9.586714],[-83.796777,9.586816],[-83.796848,9.586844],[-83.797121,9.586954],[-83.797393,9.58707],[-83.797663,9.587189],[-83.79793,9.587313],[-83.798196,9.587441],[-83.798459,9.587574],[-83.798527,9.587609],[-83.798783,9.587742],[-83.799036,9.58788],[-83.799288,9.588022],[-83.799537,9.588168],[-83.799784,9.588318],[-83.800029,9.588471],[-83.800093,9.588512],[-83.800339,9.588672],[-83.800582,9.588836],[-83.800822,9.589004],[-83.80106,9.589176],[-83.801295,9.589351],[-83.801527,9.58953],[-83.801587,9.589577],[-83.801816,9.58976],[-83.802041,9.589946],[-83.802264,9.590136],[-83.802484,9.590329],[-83.8027,9.590526],[-83.802914,9.590726],[-83.802969,9.590779],[-83.803178,9.590982],[-83.803384,9.591188],[-83.803586,9.591397],[-83.803785,9.59161],[-83.803981,9.591826],[-83.804173,9.592044],[-83.804223,9.592102],[-83.804413,9.592325],[-83.804599,9.592552],[-83.804781,9.592781],[-83.80496,9.593013],[-83.805135,9.593249],[-83.805306,9.593487],[-83.80535,9.593549],[-83.805514,9.593785],[-83.805674,9.594023],[-83.805831,9.594265],[-83.805984,9.594508],[-83.80606,9.594635],[-83.806246,9.594774],[-83.806463,9.594942],[-83.806677,9.595113],[-83.806889,9.595288],[-83.806953,9.595341],[-83.807106,9.595361],[-83.807395,9.595402],[-83.807683,9.595448],[-83.80797,9.595499],[-83.808256,9.595554],[-83.808589,9.595621],[-83.808855,9.595676],[-83.80912,9.595736],[-83.809384,9.595799],[-83.809647,9.595866],[-83.809909,9.595937],[-83.81017,9.596012],[-83.810429,9.596091],[-83.810688,9.596174],[-83.811351,9.596391],[-83.811667,9.596498],[-83.811982,9.596611],[-83.812294,9.596729],[-83.81231,9.596735],[-83.812392,9.596767],[-83.812788,9.596924],[-83.814617,9.597647],[-83.814711,9.597635],[-83.814998,9.597606],[-83.815285,9.597582],[-83.815816,9.597541],[-83.816116,9.59752],[-83.816417,9.597504],[-83.816718,9.597493],[-83.817019,9.597487],[-83.81732,9.597486],[-83.817621,9.59749],[-83.817922,9.597499],[-83.818242,9.597511],[-83.818521,9.597523],[-83.818799,9.59754],[-83.819078,9.597561],[-83.819356,9.597587],[-83.819633,9.597616],[-83.81991,9.59765],[-83.820187,9.597688],[-83.820462,9.59773],[-83.820555,9.597745],[-83.820954,9.597809],[-83.821238,9.597857],[-83.821521,9.597909],[-83.821803,9.597966],[-83.822084,9.598027],[-83.822365,9.598093],[-83.822644,9.598163],[-83.823329,9.598341],[-83.823628,9.59842],[-83.823924,9.598505],[-83.82422,9.598595],[-83.824513,9.59869],[-83.824805,9.59879],[-83.825002,9.598859],[-83.825293,9.598962],[-83.825345,9.598965],[-83.825609,9.598985],[-83.825874,9.599009],[-83.826138,9.599038],[-83.826423,9.59907],[-83.8267,9.599104],[-83.826977,9.599141],[-83.827253,9.599183],[-83.827528,9.59923],[-83.827802,9.59928],[-83.828076,9.599335],[-83.828348,9.599393],[-83.82862,9.599456],[-83.828891,9.599523],[-83.829161,9.599594],[-83.829429,9.599669],[-83.829714,9.599751],[-83.829723,9.599754],[-83.82977,9.599751],[-83.830061,9.59974],[-83.830353,9.599733],[-83.830644,9.59973],[-83.830935,9.599733],[-83.831227,9.59974],[-83.831518,9.599751],[-83.831809,9.599767],[-83.8321,9.599788],[-83.83239,9.599813],[-83.83268,9.599843],[-83.832969,9.599878],[-83.833258,9.599917],[-83.833546,9.599961],[-83.833917,9.60002],[-83.834205,9.600068],[-83.834493,9.600121],[-83.83478,9.600179],[-83.835066,9.600241],[-83.835351,9.600308],[-83.835634,9.600379],[-83.835917,9.600455],[-83.836198,9.600535],[-83.836478,9.60062],[-83.836756,9.600709],[-83.837033,9.600803],[-83.837309,9.600901],[-83.837583,9.601004],[-83.837855,9.60111],[-83.838125,9.601221],[-83.838394,9.601337],[-83.83866,9.601457],[-83.838925,9.60158],[-83.839188,9.601709],[-83.839448,9.601841],[-83.839825,9.602036],[-83.840077,9.602169],[-83.840327,9.602306],[-83.840575,9.602447],[-83.84082,9.602591],[-83.841063,9.602739],[-83.841304,9.602892],[-83.841542,9.603047],[-83.841778,9.603207],[-83.842011,9.60337],[-83.842242,9.603537],[-83.84247,9.603707],[-83.842695,9.603881],[-83.842917,9.604058],[-83.843137,9.604239],[-83.843354,9.604423],[-83.843513,9.604561],[-83.843729,9.60475],[-83.843941,9.604942],[-83.844151,9.605138],[-83.844357,9.605337],[-83.84456,9.605539],[-83.84476,9.605745],[-83.844957,9.605953],[-83.84515,9.606165],[-83.84534,9.606379],[-83.845527,9.606597],[-83.845709,9.606817],[-83.845889,9.60704],[-83.846015,9.6072],[-83.846192,9.607427],[-83.846365,9.607658],[-83.846535,9.607891],[-83.846701,9.608126],[-83.846863,9.608365],[-83.847022,9.608606],[-83.847176,9.608849],[-83.847327,9.609095],[-83.847473,9.609343],[-83.847616,9.609593],[-83.847754,9.609846],[-83.847889,9.6101],[-83.848019,9.610357],[-83.848139,9.610597],[-83.848263,9.610671],[-83.848514,9.610825],[-83.848762,9.610982],[-83.849007,9.611144],[-83.84925,9.611309],[-83.84949,9.611478],[-83.849727,9.611651],[-83.849961,9.611828],[-83.850193,9.612009],[-83.850421,9.612193],[-83.850647,9.612381],[-83.850869,9.612573],[-83.851088,9.612768],[-83.851304,9.612967],[-83.851517,9.613169],[-83.851727,9.613374],[-83.851933,9.613583],[-83.852135,9.613795],[-83.852334,9.61401],[-83.852594,9.614295],[-83.852788,9.614512],[-83.852978,9.614731],[-83.853165,9.614953],[-83.853348,9.615178],[-83.853527,9.615407],[-83.853703,9.615637],[-83.853875,9.615871],[-83.854043,9.616107],[-83.854207,9.616346],[-83.854368,9.616588],[-83.854524,9.616832],[-83.854677,9.617079],[-83.854825,9.617328],[-83.85497,9.617579],[-83.85511,9.617832],[-83.855247,9.618088],[-83.855379,9.618346],[-83.855507,9.618606],[-83.855631,9.618868],[-83.85575,9.619132],[-83.855866,9.619397],[-83.855977,9.619665],[-83.856084,9.619934],[-83.856158,9.620126],[-83.856263,9.620404],[-83.856363,9.620683],[-83.856459,9.620964],[-83.85655,9.621247],[-83.856636,9.621531],[-83.856718,9.621816],[-83.856795,9.622103],[-83.856814,9.622181],[-83.856898,9.622286],[-83.857072,9.622511],[-83.857242,9.622739],[-83.857408,9.622969],[-83.857571,9.623201],[-83.85773,9.623437],[-83.857886,9.623674],[-83.858038,9.623914],[-83.858185,9.624157],[-83.858329,9.624401],[-83.85847,9.624648],[-83.858606,9.624897],[-83.858699,9.625071],[-83.858831,9.625321],[-83.858959,9.625574],[-83.859083,9.625828],[-83.859202,9.626084],[-83.859318,9.626342],[-83.85943,9.626601],[-83.859538,9.626863],[-83.859641,9.627126],[-83.859741,9.62739],[-83.859836,9.627656],[-83.859927,9.627924],[-83.860014,9.628193],[-83.860096,9.628463],[-83.860174,9.628734],[-83.860248,9.629007],[-83.860318,9.629281],[-83.860383,9.629556],[-83.860445,9.629831],[-83.860501,9.630108],[-83.860554,9.630386],[-83.860602,9.630664],[-83.860645,9.630943],[-83.860684,9.631223],[-83.860719,9.631503],[-83.86075,9.631784],[-83.860771,9.631994],[-83.860797,9.632279],[-83.860819,9.632564],[-83.860836,9.63285],[-83.860848,9.633136],[-83.860856,9.633422],[-83.860858,9.633529],[-83.860869,9.633549],[-83.860997,9.633796],[-83.861253,9.634295],[-83.861384,9.634556],[-83.861511,9.63482],[-83.861634,9.635085],[-83.861752,9.635352],[-83.861866,9.635622],[-83.861976,9.635893],[-83.862081,9.636165],[-83.862182,9.63644],[-83.862278,9.636716],[-83.86237,9.636993],[-83.862457,9.637272],[-83.862605,9.637759],[-83.862686,9.638033],[-83.862763,9.63831],[-83.862835,9.638587],[-83.862903,9.638865],[-83.86295,9.639072],[-83.862985,9.639117],[-83.863163,9.639351],[-83.863336,9.639588],[-83.863506,9.639827],[-83.863671,9.640069],[-83.863833,9.640314],[-83.863991,9.640561],[-83.864144,9.640811],[-83.864294,9.641063],[-83.864439,9.641318],[-83.86458,9.641575],[-83.86472,9.641834],[-83.864857,9.642093],[-83.86499,9.642355],[-83.865119,9.642619],[-83.865243,9.642885],[-83.865363,9.643153],[-83.865479,9.643422],[-83.86559,9.643694],[-83.865697,9.643967],[-83.865799,9.644242],[-83.865896,9.644519],[-83.86599,9.644797],[-83.866078,9.645077],[-83.866162,9.645358],[-83.866242,9.64564],[-83.866317,9.645924],[-83.866387,9.646208],[-83.866453,9.646494],[-83.866513,9.646781],[-83.86657,9.647069],[-83.866616,9.647319],[-83.866666,9.647597],[-83.866711,9.647876],[-83.866752,9.648156],[-83.866789,9.648436],[-83.866821,9.648717],[-83.866848,9.648999],[-83.866872,9.64928],[-83.866891,9.649563],[-83.866905,9.649845],[-83.866915,9.650128],[-83.866919,9.650364],[-83.867067,9.650682],[-83.867183,9.650938],[-83.867296,9.651196],[-83.867404,9.651455],[-83.867474,9.65163],[-83.867755,9.651586],[-83.868053,9.651545],[-83.868141,9.651533],[-83.868414,9.6515],[-83.868687,9.65147],[-83.868735,9.651466],[-83.867907,9.652956],[-83.997359,9.749259],[-84.005214,9.796089]]]]}},{"type":"Feature","properties":{"codigo":"P28","nombre_asp":"Los Quetzales","cat_manejo":"Parque Nacional","estatus":"Estatal","siglas_cat":"PN","nombre_ac":"Area de Conservacion Central","siglas_ac":"ACC","descripcio":"Area terrestre protegida","a_creacion":"2006","n_creacion":"DE_32981_MINAE","version":"2019-11-19-001","area_hecta":4102.8235102348635,"area_km2":41.02823510234863,"fid_2":3,"origen":"PRCR05/TERRA","codigo_2":"130102","nom_objeto":"CARRETERA PAVIMENTO DOS VIAS O MAS","jerarquia":"Primaria","nombre":"Carretera Interamericana","longitud":328608.23,"num_ruta":"2"},"geometry":{"type":"MultiPolygon","coordinates":[[[[-83.682885,9.533373],[-83.682885,9.533373],[-83.682986,9.53339],[-83.681154,9.534942],[-83.681141,9.53491],[-83.681129,9.534876],[-83.682885,9.533373]]]]}},{"type":"Feature","properties":{"codigo":"P28","nombre_asp":"Los Quetzales","cat_manejo":"Parque Nacional","estatus":"Estatal","siglas_cat":"PN","nombre_ac":"Area de Conservacion Central","siglas_ac":"ACC","descripcio":"Area terrestre protegida","a_creacion":"2006","n_creacion":"DE_32981_MINAE","version":"2019-11-19-001","area_hecta":4102.8235102348635,"area_km2":41.02823510234863,"fid_2":4,"origen":"PRCR05/TERRA","codigo_2":"130102","nom_objeto":"CARRETERA PAVIMENTO DOS VIAS O MAS","jerarquia":"Primaria","nombre":"Carretera Interamericana","longitud":328608.23,"num_ruta":"2"},"geometry":{"type":"MultiPolygon","coordinates":[[[[-83.682986,9.53339],[-83.682992,9.533385],[-83.734291,9.542014],[-83.734292,9.542015],[-83.682986,9.53339]]]]}}]}