{"type":"FeatureCollection","features":[{"type":"Feature","properties":{"DISTRITO":null,"CANTON":null,"PROVINCIA":null,"CATEGORIA":null,"NOMBRE_ASP":null,"AC":null,"PLANO":"3-32012-1962","TIPO_ADQ":null,"DON_VEN":null,"AREA_M2":"299999","PROPIET":null,"N_FINCA":"3-70384-000","PATRIMONIO":null,"ANO_INSCR":null,"IDENTIFIC":null,"VALOR":null,"EXPEDIENTE":"ACLA-P-PNE-P24-013-1973","Observac":"Falta activar plano y asignar"},"geometry":{"type":"MultiPolygon","coordinates":[[[[-83.704444,9.777543],[-83.712258,9.77755],[-83.712255,9.780714],[-83.704442,9.780708],[-83.704444,9.777543]]]]}},{"type":"Feature","properties":{"DISTRITO":"COPEY","CANTON":"DOTA","PROVINCIA":"SAN_JOSE","CATEGORIA":"RESERVA_FORESTAL","NOMBRE_ASP":"LOS_SANTOS","AC":"ACC","PLANO":"SJ-0446517-1997","TIPO_ADQ":"INSCRIPCION_TERRENO_BALDIO","DON_VEN":"NO_HAY_DATOS","AREA_M2":"1647041,64382181","PROPIET":"ESTADO","N_FINCA":"1-510586-000","PATRIMONIO":"2455526","ANO_INSCR":"2000","IDENTIFIC":"11703051058600","VALOR":"?2.156.420.498,54","EXPEDIENTE":"RFLS001","Observac":null},"geometry":{"type":"MultiPolygon","coordinates":[[[[-83.838036,9.597858],[-83.837805,9.598488],[-83.837781,9.598798],[-83.837414,9.599309],[-83.836947,9.600413],[-83.836706,9.60082],[-83.836379,9.601048],[-83.836198,9.601473],[-83.836108,9.601901],[-83.835483,9.602056],[-83.835358,9.602289],[-83.835137,9.603204],[-83.834193,9.604619],[-83.833976,9.60619],[-83.834038,9.606768],[-83.834112,9.607195],[-83.834046,9.607623],[-83.833419,9.609229],[-83.833036,9.609999],[-83.832417,9.609906],[-83.832277,9.610138],[-83.831801,9.610436],[-83.831285,9.610465],[-83.831074,9.610395],[-83.830734,9.610593],[-83.830243,9.610602],[-83.829664,9.610431],[-83.828801,9.611121],[-83.828291,9.611281],[-83.82795,9.611491],[-83.827761,9.611834],[-83.827659,9.612021],[-83.827423,9.612477],[-83.826121,9.613358],[-83.825375,9.613472],[-83.825126,9.61326],[-83.824243,9.613092],[-83.823852,9.613183],[-83.823331,9.613073],[-83.823082,9.612858],[-83.822929,9.612557],[-83.822391,9.612064],[-83.822478,9.611985],[-83.822727,9.611586],[-83.822858,9.610917],[-83.823076,9.610323],[-83.823363,9.609544],[-83.823328,9.609282],[-83.823102,9.609205],[-83.822954,9.608875],[-83.823248,9.608412],[-83.823152,9.607585],[-83.82298,9.607423],[-83.822634,9.606691],[-83.82245,9.606187],[-83.822478,9.605988],[-83.823345,9.606206],[-83.823811,9.606253],[-83.823768,9.60549],[-83.823884,9.60549],[-83.824652,9.606311],[-83.824866,9.606399],[-83.825229,9.606399],[-83.825395,9.606307],[-83.825436,9.605958],[-83.826264,9.60529],[-83.82656,9.60529],[-83.826776,9.604387],[-83.826731,9.604274],[-83.826467,9.604197],[-83.826454,9.604064],[-83.826788,9.603594],[-83.826859,9.603081],[-83.827247,9.602876],[-83.827306,9.602756],[-83.827528,9.602541],[-83.827528,9.602286],[-83.827676,9.60212],[-83.827774,9.60114],[-83.828031,9.600195],[-83.828293,9.599995],[-83.828528,9.600061],[-83.828768,9.600042],[-83.828846,9.599859],[-83.82875,9.599613],[-83.82882,9.599494],[-83.829179,9.599612],[-83.830018,9.599353],[-83.830502,9.599529],[-83.830994,9.599312],[-83.831333,9.598955],[-83.831688,9.598245],[-83.832275,9.597867],[-83.832411,9.597154],[-83.832392,9.596702],[-83.832263,9.596558],[-83.832027,9.596422],[-83.831372,9.596183],[-83.831351,9.596087],[-83.831625,9.595622],[-83.831451,9.594797],[-83.831451,9.594606],[-83.831718,9.594188],[-83.838036,9.597858]]]]}},{"type":"Feature","properties":{"DISTRITO":"TOBOSI","CANTON":"GUARCO","PROVINCIA":"CARTAGO","CATEGORIA":"FUERA_ASP","NOMBRE_ASP":"FUERA_ASP","AC":"ACC","PLANO":"3-1676082-2013","TIPO_ADQ":"DONACION","DON_VEN":"INDER","AREA_M2":"456169,767694444","PROPIET":"ESTADO-MINAE","N_FINCA":"3-253648-000","PATRIMONIO":"908012241","ANO_INSCR":"2016","IDENTIFIC":"30803025364800","VALOR":"?375.851.603,00","EXPEDIENTE":"3019","Observac":null},"geometry":{"type":"MultiPolygon","coordinates":[[[[-83.986259,9.802683],[-83.985768,9.80225],[-83.985428,9.80253],[-83.985134,9.802699],[-83.985012,9.802789],[-83.984884,9.802853],[-83.984704,9.802899],[-83.983023,9.803329],[-83.982165,9.802321],[-83.981871,9.802713],[-83.981579,9.802935],[-83.981317,9.80332],[-83.981213,9.803366],[-83.980942,9.803448],[-83.980639,9.803597],[-83.980507,9.803565],[-83.980139,9.803511],[-83.980084,9.803373],[-83.980084,9.803311],[-83.980108,9.803184],[-83.980046,9.803005],[-83.97993,9.802758],[-83.979925,9.802612],[-83.979893,9.802571],[-83.979974,9.802279],[-83.980076,9.801959],[-83.980171,9.801657],[-83.980166,9.801391],[-83.98013,9.801224],[-83.980093,9.801052],[-83.98007,9.80063],[-83.980068,9.800489],[-83.980116,9.80041],[-83.980425,9.800065],[-83.9806,9.799826],[-83.98052,9.799805],[-83.980359,9.799386],[-83.980403,9.798765],[-83.980506,9.798607],[-83.980638,9.798432],[-83.980896,9.798235],[-83.981132,9.798096],[-83.981609,9.797735],[-83.981846,9.797672],[-83.982161,9.797672],[-83.982413,9.797672],[-83.982413,9.797423],[-83.982486,9.797594],[-83.983872,9.799838],[-83.985272,9.798684],[-83.985456,9.798532],[-83.986291,9.798422],[-83.986385,9.798409],[-83.986649,9.798875],[-83.986766,9.79895],[-83.986902,9.799072],[-83.987384,9.79939],[-83.987493,9.799437],[-83.987646,9.799549],[-83.98799,9.800106],[-83.987965,9.800266],[-83.988346,9.800707],[-83.988485,9.800971],[-83.988625,9.800991],[-83.988801,9.801009],[-83.988899,9.800985],[-83.989229,9.801056],[-83.989287,9.801378],[-83.98934,9.801611],[-83.986259,9.802683]]]]}},{"type":"Feature","properties":{"DISTRITO":"COPEY","CANTON":"DOTA","PROVINCIA":"SON_JOSE","CATEGORIA":"NO_HAY_DATOS","NOMBRE_ASP":"NO_HAY_DATOS","AC":"ACC","PLANO":"SJ-1022660-2005","TIPO_ADQ":"NO_HAY_DATOS","DON_VEN":"NO_HAY_DATOS","AREA_M2":"499309,684281869","PROPIET":"ESTADO","N_FINCA":"1-212139-000","PATRIMONIO":"219008572","ANO_INSCR":"NO_HAY_DATOS","IDENTIFIC":"11703021213900","VALOR":"NO_HAY_DATOS","EXPEDIENTE":"NO_HAY_DATOS","Observac":null},"geometry":{"type":"MultiPolygon","coordinates":[[[[-83.833726,9.590989],[-83.833264,9.591172],[-83.833224,9.591245],[-83.832621,9.591418],[-83.832457,9.591483],[-83.832332,9.59145],[-83.832031,9.591385],[-83.831889,9.591385],[-83.831588,9.591424],[-83.831493,9.591471],[-83.831159,9.59204],[-83.831083,9.59217],[-83.830903,9.592399],[-83.830702,9.592519],[-83.830615,9.592701],[-83.830782,9.592804],[-83.831048,9.592667],[-83.831465,9.592528],[-83.831612,9.592433],[-83.831823,9.592262],[-83.832037,9.59222],[-83.832533,9.592408],[-83.832628,9.592444],[-83.83239,9.59243],[-83.832239,9.592446],[-83.832029,9.592663],[-83.831959,9.59292],[-83.832218,9.593073],[-83.832331,9.593206],[-83.832331,9.593348],[-83.832064,9.593456],[-83.831976,9.593646],[-83.831548,9.593849],[-83.831423,9.593786],[-83.831127,9.593837],[-83.830188,9.594151],[-83.829602,9.594499],[-83.828821,9.594616],[-83.828495,9.594756],[-83.828468,9.594805],[-83.828353,9.594995],[-83.828173,9.595031],[-83.82799,9.595008],[-83.827016,9.595261],[-83.826471,9.595601],[-83.826107,9.596089],[-83.825435,9.59635],[-83.825098,9.596243],[-83.824774,9.596081],[-83.824481,9.595772],[-83.824129,9.595537],[-83.82402,9.595434],[-83.82675,9.588926],[-83.826823,9.588965],[-83.82713,9.588965],[-83.827366,9.589005],[-83.827504,9.589005],[-83.827864,9.588721],[-83.82812,9.588263],[-83.828166,9.58796],[-83.828759,9.588208],[-83.829235,9.588261],[-83.829982,9.588565],[-83.830461,9.588958],[-83.830611,9.589015],[-83.832251,9.590072],[-83.833411,9.590619],[-83.833642,9.590853],[-83.833726,9.590989]]]]}},{"type":"Feature","properties":{"DISTRITO":"SANTA_TERESITA","CANTON":"TURRIALBA","PROVINCIA":"CARTAGO","CATEGORIA":"PARQUE_NACIONAL","NOMBRE_ASP":"TAPANTI_MACIZO_DE_LA_MUERTE","AC":"ACC","PLANO":"C-0004174-1973","TIPO_ADQ":"TRASLADO_DE_FINCA(OFICIO)","DON_VEN":"NO_HAY_DATOS","AREA_M2":"190768,456409261","PROPIET":"ESTADO","N_FINCA":"3-40754-000","PATRIMONIO":"NO_HAY_DATOS","ANO_INSCR":"1975","IDENTIFIC":"30402004075400","VALOR":"?4.833.721.896","EXPEDIENTE":"NO_HAY_DATOS","Observac":null},"geometry":{"type":"MultiPolygon","coordinates":[[[[-83.745283,9.775388],[-83.745286,9.773806],[-83.743691,9.773803],[-83.743195,9.770864],[-83.74757,9.770872],[-83.747561,9.775392],[-83.745283,9.775388]]]]}},{"type":"Feature","properties":{"DISTRITO":"PEJIBAYE","CANTON":"JIMENEZ","PROVINCIA":"CARTAGO","CATEGORIA":"PARQUE_NACIONAL","NOMBRE_ASP":"TAPANTI_MACIZO_DE_LA_MUERTE","AC":"ACC","PLANO":"C-0007198-1974","TIPO_ADQ":"NO_HAY_DATOS","DON_VEN":"NO_HAY_DATOS","AREA_M2":"909814,031394934","PROPIET":"ESTADO","N_FINCA":"3-93285-000","PATRIMONIO":"2620794","ANO_INSCR":"1976","IDENTIFIC":"30403009328500","VALOR":"?2.460.088.412,4","EXPEDIENTE":"NO_HAY_DATOS","Observac":null},"geometry":{"type":"MultiPolygon","coordinates":[[[[-83.717537,9.767375],[-83.723608,9.757271],[-83.729093,9.760479],[-83.723053,9.77058],[-83.717537,9.767375]]]]}},{"type":"Feature","properties":{"DISTRITO":"PEJIBAYE","CANTON":"JIMENEZ","PROVINCIA":"CARTAGO","CATEGORIA":"PARQUE_NACIONAL","NOMBRE_ASP":"TAPANTI_MACIZO_DE_LA_MUERTE","AC":"ACC","PLANO":"C-0000605-1973","TIPO_ADQ":"NO_HAY_DATOS","DON_VEN":"NO_HAY_DATOS","AREA_M2":"351254,501477255","PROPIET":"ESTADO","N_FINCA":"3-166471-000","PATRIMONIO":"2620784","ANO_INSCR":"1998","IDENTIFIC":"30403016647100","VALOR":"?5.584.200.000,00","EXPEDIENTE":"NO_HAY_DATOS","Observac":"Ubicacion dudosa"},"geometry":{"type":"MultiPolygon","coordinates":[[[[-83.712282,9.775293],[-83.712319,9.769417],[-83.715858,9.769426],[-83.715896,9.766235],[-83.716783,9.766243],[-83.716721,9.775305],[-83.712282,9.775293]]]]}},{"type":"Feature","properties":{"DISTRITO":"PEJIBAYE","CANTON":"JIMENEZ","PROVINCIA":"CARTAGO","CATEGORIA":"PARQUE_NACIONAL","NOMBRE_ASP":"TAPANTI_MACIZO_DE_LA_MUERTE","AC":"ACC","PLANO":"C-0000605-1973","TIPO_ADQ":"NO_HAY_DATOS","DON_VEN":"NO_HAY_DATOS","AREA_M2":"199808,371118092","PROPIET":"ESTADO","N_FINCA":"3-166471-000","PATRIMONIO":"2620784","ANO_INSCR":"1998","IDENTIFIC":"30403016647100","VALOR":"?5.584.200.000,00","EXPEDIENTE":"NO_HAY_DATOS","Observac":"Ubicacion dudosa"},"geometry":{"type":"MultiPolygon","coordinates":[[[[-83.716725,9.775317],[-83.716693,9.779027],[-83.712265,9.779012],[-83.712286,9.775295],[-83.716725,9.775317]]]]}},{"type":"Feature","properties":{"DISTRITO":"PEJIBAYE","CANTON":"JIMENEZ","PROVINCIA":"CARTAGO","CATEGORIA":"PARQUE_NACIONAL","NOMBRE_ASP":"TAPANTI_MACIZO_DE_LA_MUERTE","AC":"ACC","PLANO":"C-0005546-1973","TIPO_ADQ":"TRASLADO_DE_FINCA","DON_VEN":"NO_HAY_DATOS","AREA_M2":"99977,5928752557","PROPIET":"ESTADO","N_FINCA":"3-52195-000","PATRIMONIO":"2620787","ANO_INSCR":"1976","IDENTIFIC":"30403005219500","VALOR":"?492.000.000,00","EXPEDIENTE":"NO_HAY_DATOS","Observac":null},"geometry":{"type":"MultiPolygon","coordinates":[[[[-83.715858,9.769426],[-83.712212,9.769419],[-83.712217,9.767159],[-83.715863,9.767166],[-83.715858,9.769426]]]]}},{"type":"Feature","properties":{"DISTRITO":"SAN_FRANCISCO","CANTON":"CARTAGO","PROVINCIA":"CARTAGO","CATEGORIA":"PARQUE_NACIONAL","NOMBRE_ASP":"TAPANTI_MACIZO_DE_LA_MUERTE","AC":"ACC","PLANO":"3-0002250-1973","TIPO_ADQ":"NO_HAY_DATOS","DON_VEN":"NO_HAY_DATOS","AREA_M2":"157094,108282943","PROPIET":"ESTADO","N_FINCA":"3-72791-000","PATRIMONIO":"2620799","ANO_INSCR":"1973","IDENTIFIC":"30802007279100","VALOR":"?23.771.196.480,00","EXPEDIENTE":"NO_HAY_DATOS","Observac":null},"geometry":{"type":"MultiPolygon","coordinates":[[[[-83.913615,9.737058],[-83.913082,9.743001],[-83.910829,9.743838],[-83.911361,9.737895],[-83.913615,9.737058]]]]}},{"type":"Feature","properties":{"DISTRITO":"PEJIBAYE","CANTON":"JIMENEZ","PROVINCIA":"CARTAGO","CATEGORIA":"PARQUE_NACIONAL","NOMBRE_ASP":"TAPANTI_MACIZO_DE_LA_MUERTE","AC":"ACC","PLANO":"C-0492564-1983","TIPO_ADQ":"DONACION","DON_VEN":"NO_HAY_DATOS","AREA_M2":"231961,596815039","PROPIET":"ESTADO","N_FINCA":"3-137965-000","PATRIMONIO":"2455445","ANO_INSCR":"2004","IDENTIFIC":"30403013796500","VALOR":"?2.777.352.792","EXPEDIENTE":"NO_HAY_DATOS","Observac":null},"geometry":{"type":"MultiPolygon","coordinates":[[[[-83.781268,9.782237],[-83.780437,9.781691],[-83.780105,9.78147],[-83.779353,9.780185],[-83.779258,9.779731],[-83.779126,9.779267],[-83.778687,9.778824],[-83.778443,9.77872],[-83.778375,9.778633],[-83.777934,9.778615],[-83.777576,9.778344],[-83.777421,9.778177],[-83.777051,9.778125],[-83.776939,9.777765],[-83.7767,9.777691],[-83.776339,9.777505],[-83.776103,9.777468],[-83.775978,9.777536],[-83.775771,9.777745],[-83.775688,9.777783],[-83.77558,9.777511],[-83.775281,9.777231],[-83.775315,9.777094],[-83.775463,9.777065],[-83.775959,9.777159],[-83.776317,9.777379],[-83.776585,9.777503],[-83.776664,9.777505],[-83.776729,9.777389],[-83.776374,9.777027],[-83.776076,9.776861],[-83.776199,9.7768],[-83.776515,9.776809],[-83.776736,9.777035],[-83.777311,9.776975],[-83.777605,9.777147],[-83.777826,9.777457],[-83.77797,9.777569],[-83.778108,9.777603],[-83.778267,9.777484],[-83.778349,9.777507],[-83.778497,9.777608],[-83.778719,9.777687],[-83.778986,9.777703],[-83.779291,9.777951],[-83.779359,9.777953],[-83.779434,9.777896],[-83.779479,9.777816],[-83.779572,9.77764],[-83.779221,9.77741],[-83.778924,9.777288],[-83.779277,9.776876],[-83.779359,9.776827],[-83.779447,9.77683],[-83.779859,9.776957],[-83.779968,9.776954],[-83.780357,9.7769],[-83.780384,9.776757],[-83.780348,9.776505],[-83.780692,9.776785],[-83.78153,9.777511],[-83.781917,9.777919],[-83.783925,9.780035],[-83.781268,9.782237]]]]}},{"type":"Feature","properties":{"DISTRITO":"PEJIBAYE","CANTON":"JIMENEZ","PROVINCIA":"CARTAGO","CATEGORIA":"PARQUE_NACIONAL","NOMBRE_ASP":"TAPANTI_MACIZO_DE_LA_MUERTE","AC":"ACC","PLANO":"C-0492564-1983","TIPO_ADQ":"DONACION","DON_VEN":"NO_HAY_DATOS","AREA_M2":"7365,30288803977","PROPIET":"ESTADO","N_FINCA":"3-137965-000","PATRIMONIO":"2455445","ANO_INSCR":"2004","IDENTIFIC":"30403013796500","VALOR":"?2.777.352.792","EXPEDIENTE":"NO_HAY_DATOS","Observac":null},"geometry":{"type":"MultiPolygon","coordinates":[[[[-83.77486,9.777586],[-83.774757,9.777381],[-83.774384,9.777172],[-83.774346,9.77713],[-83.773981,9.777051],[-83.773878,9.777017],[-83.77363,9.776802],[-83.773546,9.776697],[-83.773482,9.776527],[-83.773218,9.776216],[-83.773119,9.77606],[-83.773248,9.775831],[-83.773455,9.77607],[-83.773566,9.776208],[-83.773764,9.776482],[-83.773819,9.776744],[-83.774151,9.776934],[-83.774357,9.776962],[-83.774734,9.777257],[-83.775117,9.77726],[-83.775456,9.777574],[-83.775546,9.777749],[-83.775432,9.777629],[-83.775218,9.777533],[-83.775125,9.777574],[-83.77502,9.777581],[-83.77486,9.777586]]]]}},{"type":"Feature","properties":{"DISTRITO":"PEJIBAYE","CANTON":"JIMENEZ","PROVINCIA":"CARTAGO","CATEGORIA":"PARQUE_NACIONAL","NOMBRE_ASP":"TAPANTI_MACIZO_DE_LA_MUERTE","AC":"ACC","PLANO":"C-0492564-1983","TIPO_ADQ":"DONACION","DON_VEN":"NO_HAY_DATOS","AREA_M2":"322084,951206133","PROPIET":"ESTADO","N_FINCA":"3-137965-000","PATRIMONIO":"2455445","ANO_INSCR":"2004","IDENTIFIC":"30403013796500","VALOR":"?2.777.352.792","EXPEDIENTE":"NO_HAY_DATOS","Observac":null},"geometry":{"type":"MultiPolygon","coordinates":[[[[-83.773232,9.77569],[-83.773297,9.775557],[-83.77338,9.775389],[-83.77362,9.774743],[-83.773886,9.77399],[-83.774046,9.773408],[-83.774058,9.773366],[-83.774139,9.773131],[-83.774345,9.772534],[-83.774545,9.772085],[-83.774736,9.771531],[-83.774935,9.770832],[-83.774843,9.770451],[-83.774824,9.770082],[-83.77537,9.770454],[-83.775973,9.771135],[-83.776412,9.771592],[-83.777007,9.772278],[-83.777155,9.772416],[-83.777555,9.772568],[-83.777806,9.772725],[-83.77802,9.773087],[-83.778049,9.77366],[-83.778082,9.774232],[-83.779874,9.775893],[-83.780218,9.776429],[-83.780188,9.776632],[-83.780234,9.776773],[-83.780181,9.776855],[-83.779763,9.776907],[-83.77952,9.776838],[-83.77949,9.776765],[-83.779314,9.776735],[-83.779121,9.77673],[-83.77866,9.777282],[-83.77909,9.777476],[-83.779305,9.777665],[-83.779269,9.777805],[-83.779145,9.777842],[-83.778911,9.777642],[-83.778649,9.777605],[-83.77842,9.777542],[-83.778238,9.777411],[-83.778155,9.777408],[-83.777904,9.777488],[-83.77775,9.777381],[-83.777558,9.777081],[-83.777213,9.77689],[-83.776692,9.776926],[-83.776431,9.776726],[-83.77614,9.776683],[-83.77591,9.776762],[-83.775906,9.77686],[-83.77623,9.777022],[-83.776483,9.777326],[-83.776448,9.777377],[-83.775881,9.777083],[-83.77536,9.776971],[-83.775217,9.776978],[-83.77507,9.777116],[-83.774722,9.777132],[-83.774325,9.776843],[-83.774125,9.776814],[-83.773811,9.776633],[-83.773773,9.776385],[-83.773647,9.776192],[-83.773568,9.776105],[-83.773444,9.775957],[-83.773232,9.77569]]]]}},{"type":"Feature","properties":{"DISTRITO":"PEJIBAYE","CANTON":"JIMENEZ","PROVINCIA":"CARTAGO","CATEGORIA":"PARQUE_NACIONAL","NOMBRE_ASP":"TAPANTI_MACIZO_DE_LA_MUERTE","AC":"ACC","PLANO":"C-0007442-1968","TIPO_ADQ":"REUNION_DE_FINCAS","DON_VEN":"NO_HAY_DATOS","AREA_M2":"2992726,92177224","PROPIET":"ESTADO","N_FINCA":"3-191676-000","PATRIMONIO":"2620791","ANO_INSCR":"1978","IDENTIFIC":"30402019167600","VALOR":"?14.434.166.850,00","EXPEDIENTE":"NO_HAY_DATOS","Observac":null},"geometry":{"type":"MultiPolygon","coordinates":[[[[-83.701477,9.781486],[-83.692312,9.782478],[-83.691222,9.777248],[-83.686794,9.769916],[-83.686883,9.769881],[-83.687079,9.769977],[-83.687672,9.769239],[-83.689081,9.769038],[-83.689124,9.768535],[-83.688728,9.767156],[-83.68354,9.764912],[-83.683008,9.764284],[-83.68257,9.764023],[-83.682652,9.763239],[-83.682908,9.762867],[-83.68213,9.762409],[-83.682193,9.76181],[-83.682748,9.761263],[-83.682723,9.758856],[-83.684918,9.758945],[-83.68529,9.758833],[-83.686348,9.757081],[-83.687522,9.756841],[-83.689028,9.757489],[-83.694995,9.762194],[-83.698572,9.75939],[-83.697134,9.771933],[-83.701477,9.781486]]]]}},{"type":"Feature","properties":{"DISTRITO":"COPEY","CANTON":"DOTA","PROVINCIA":"SAN_JOSE","CATEGORIA":"RESERVA_FORESTAL","NOMBRE_ASP":"LOS_SANTOS","AC":"ACC","PLANO":"SJ-0417101-1997","TIPO_ADQ":"INSCRIPCION_TERRENO_BALDIO","DON_VEN":"NO_HAY_DATOS","AREA_M2":"1270680,84169035","PROPIET":"ESTADO","N_FINCA":"1-512182-000","PATRIMONIO":"2455527","ANO_INSCR":"2001","IDENTIFIC":"11703051218200","VALOR":"?1.626.404.709,93","EXPEDIENTE":"RFLS002","Observac":null},"geometry":{"type":"MultiPolygon","coordinates":[[[[-83.83225,9.594362],[-83.832537,9.593928],[-83.832912,9.593662],[-83.833015,9.593607],[-83.833103,9.59281],[-83.833005,9.59256],[-83.833464,9.592186],[-83.833801,9.592028],[-83.834029,9.591982],[-83.834136,9.592062],[-83.834281,9.592007],[-83.83485,9.591357],[-83.835034,9.591416],[-83.835272,9.591689],[-83.835311,9.592037],[-83.835397,9.592507],[-83.835704,9.593176],[-83.835865,9.593532],[-83.835865,9.593863],[-83.835853,9.594227],[-83.835916,9.594307],[-83.836081,9.594202],[-83.836585,9.592462],[-83.836629,9.592281],[-83.83693,9.591695],[-83.837389,9.590895],[-83.837389,9.590671],[-83.836798,9.590163],[-83.837011,9.589977],[-83.837058,9.589794],[-83.837025,9.589607],[-83.837129,9.589483],[-83.837555,9.58944],[-83.837814,9.589299],[-83.838026,9.58899],[-83.838148,9.588766],[-83.838589,9.588457],[-83.83853,9.588588],[-83.838426,9.588738],[-83.838283,9.589107],[-83.83832,9.589327],[-83.838287,9.58964],[-83.838283,9.590142],[-83.838676,9.590221],[-83.838967,9.590149],[-83.839145,9.589716],[-83.839416,9.589196],[-83.83964,9.589083],[-83.839877,9.588983],[-83.839992,9.588983],[-83.840098,9.588999],[-83.840633,9.589289],[-83.841038,9.589208],[-83.841741,9.589819],[-83.841832,9.590153],[-83.842239,9.591007],[-83.842568,9.591084],[-83.842898,9.591572],[-83.842917,9.592484],[-83.843256,9.592913],[-83.843595,9.593103],[-83.848112,9.593968],[-83.849403,9.594654],[-83.849752,9.594701],[-83.850062,9.594754],[-83.850031,9.594911],[-83.849774,9.595403],[-83.84863,9.596586],[-83.848468,9.59702],[-83.847738,9.598193],[-83.848281,9.599573],[-83.848266,9.599605],[-83.847916,9.600611],[-83.847508,9.601088],[-83.846375,9.60092],[-83.84626,9.600806],[-83.845763,9.600779],[-83.845532,9.600561],[-83.845114,9.600454],[-83.844837,9.600209],[-83.844545,9.600018],[-83.843895,9.599902],[-83.842733,9.59952],[-83.842541,9.59908],[-83.841061,9.598214],[-83.840551,9.598244],[-83.840266,9.598316],[-83.839451,9.597993],[-83.838533,9.598133],[-83.83225,9.594362]]]]}},{"type":"Feature","properties":{"DISTRITO":"Orosi","CANTON":"Paraiso","PROVINCIA":"Cartago","CATEGORIA":"Parque Nacional","NOMBRE_ASP":"Tapanti MAcizo de la Muerte","AC":"ACLAP","PLANO":"301588111993","TIPO_ADQ":"Compra","DON_VEN":"No indica","AREA_M2":"900353,79","PROPIET":"El Estado","N_FINCA":"3-46315-000","PATRIMONIO":"2455522","ANO_INSCR":"2000","IDENTIFIC":"30203004631500","VALOR":"?8 859 481 293,60","EXPEDIENTE":"No hay","Observac":null},"geometry":{"type":"MultiPolygon","coordinates":[[[[-83.783079,9.740268],[-83.783179,9.740742],[-83.783529,9.741786],[-83.784044,9.742593],[-83.784396,9.743453],[-83.783056,9.743983],[-83.782195,9.745417],[-83.782078,9.747454],[-83.78219,9.749064],[-83.78289,9.750139],[-83.782959,9.751638],[-83.783658,9.752504],[-83.784342,9.753573],[-83.782993,9.753558],[-83.782086,9.753482],[-83.778677,9.75333],[-83.775817,9.752957],[-83.776031,9.750293],[-83.776054,9.749656],[-83.776876,9.749716],[-83.776976,9.748643],[-83.777039,9.745977],[-83.777218,9.745071],[-83.778461,9.745162],[-83.778574,9.744371],[-83.77869,9.742207],[-83.778855,9.739964],[-83.783079,9.740268]]]]}},{"type":"Feature","properties":{"DISTRITO":"Orosi","CANTON":"Paraiso","PROVINCIA":"Cartago","CATEGORIA":"Parque Nacional","NOMBRE_ASP":"Tapanti MAcizo de la Muerte","AC":"ACLAP","PLANO":"300301751956","TIPO_ADQ":"No indica","DON_VEN":"No indica","AREA_M2":"196916,87","PROPIET":"El Estado","N_FINCA":"3-76469-000","PATRIMONIO":"219003319","ANO_INSCR":"1975","IDENTIFIC":"30203007646900","VALOR":"?1 397 935 920,00","EXPEDIENTE":"No hay","Observac":null},"geometry":{"type":"MultiPolygon","coordinates":[[[[-83.810292,9.734589],[-83.809724,9.734716],[-83.809031,9.734814],[-83.807834,9.734909],[-83.805136,9.730665],[-83.805323,9.730621],[-83.805938,9.730239],[-83.806933,9.730035],[-83.807871,9.729655],[-83.808657,9.729226],[-83.810292,9.734589]]]]}},{"type":"Feature","properties":{"DISTRITO":"02","CANTON":"08","PROVINCIA":"3","CATEGORIA":null,"NOMBRE_ASP":null,"AC":"ACC","PLANO":"307313582001","TIPO_ADQ":null,"DON_VEN":null,"AREA_M2":"29131.03","PROPIET":null,"N_FINCA":"3-156079-000","PATRIMONIO":"2620762","ANO_INSCR":"1996","IDENTIFIC":null,"VALOR":null,"EXPEDIENTE":null,"Observac":null},"geometry":{"type":"MultiPolygon","coordinates":[[[[-83.897038,9.702821],[-83.897034,9.702821],[-83.897095,9.702556],[-83.897234,9.702253],[-83.897207,9.701937],[-83.897207,9.700594],[-83.897214,9.700068],[-83.897245,9.699848],[-83.897343,9.699143],[-83.897359,9.699033],[-83.897388,9.698587],[-83.897389,9.69856],[-83.897958,9.698603],[-83.897763,9.700091],[-83.897758,9.700133],[-83.897764,9.700596],[-83.897788,9.70228],[-83.897788,9.702285],[-83.897612,9.702873],[-83.897093,9.702826],[-83.897038,9.702821]]]]}},{"type":"Feature","properties":{"DISTRITO":null,"CANTON":null,"PROVINCIA":null,"CATEGORIA":null,"NOMBRE_ASP":null,"AC":null,"PLANO":"3-32730-1963","TIPO_ADQ":null,"DON_VEN":null,"AREA_M2":null,"PROPIET":null,"N_FINCA":"3-74651-000","PATRIMONIO":null,"ANO_INSCR":null,"IDENTIFIC":null,"VALOR":null,"EXPEDIENTE":null,"Observac":null},"geometry":{"type":"MultiPolygon","coordinates":[[[[-83.777537,9.785212],[-83.772805,9.785209],[-83.772808,9.780591],[-83.771804,9.779362],[-83.771353,9.778821],[-83.771199,9.778664],[-83.770919,9.777971],[-83.77086,9.777592],[-83.770774,9.776753],[-83.769563,9.776675],[-83.769565,9.773799],[-83.770501,9.769624],[-83.774269,9.770988],[-83.773072,9.772504],[-83.773069,9.776971],[-83.776264,9.778176],[-83.776785,9.778598],[-83.778064,9.779129],[-83.777872,9.779407],[-83.777541,9.779718],[-83.777537,9.785212]]],[[[-83.777537,9.78524],[-83.777537,9.785212],[-83.777591,9.785212],[-83.777537,9.78524]]]]}},{"type":"Feature","properties":{"DISTRITO":null,"CANTON":null,"PROVINCIA":null,"CATEGORIA":null,"NOMBRE_ASP":null,"AC":null,"PLANO":"1-279331-1995","TIPO_ADQ":null,"DON_VEN":null,"AREA_M2":null,"PROPIET":null,"N_FINCA":"1-447023-000","PATRIMONIO":null,"ANO_INSCR":null,"IDENTIFIC":null,"VALOR":null,"EXPEDIENTE":null,"Observac":null},"geometry":{"type":"MultiPolygon","coordinates":[[[[-83.877292,9.621357],[-83.877142,9.62128],[-83.87661,9.621483],[-83.876174,9.621419],[-83.875735,9.621522],[-83.875106,9.621484],[-83.875251,9.621152],[-83.875152,9.620683],[-83.874808,9.620286],[-83.874435,9.62],[-83.874234,9.619947],[-83.873792,9.62019],[-83.873583,9.620045],[-83.873155,9.619947],[-83.872659,9.619999],[-83.872515,9.619855],[-83.872529,9.619671],[-83.872368,9.619443],[-83.872013,9.619374],[-83.871799,9.619107],[-83.871808,9.618808],[-83.871662,9.618653],[-83.871679,9.618524],[-83.871383,9.618341],[-83.870925,9.618217],[-83.870898,9.618088],[-83.870995,9.617724],[-83.870829,9.617263],[-83.870291,9.61689],[-83.869732,9.61675],[-83.86914,9.616192],[-83.868935,9.616127],[-83.867955,9.615505],[-83.867448,9.615537],[-83.867791,9.607865],[-83.868183,9.607846],[-83.868301,9.607903],[-83.868549,9.60838],[-83.868612,9.608614],[-83.869244,9.60913],[-83.869542,9.609251],[-83.870055,9.609184],[-83.870544,9.609298],[-83.871055,9.60905],[-83.87134,9.609036],[-83.871735,9.609212],[-83.8723,9.609313],[-83.872626,9.609144],[-83.872855,9.608619],[-83.873719,9.607749],[-83.874314,9.607744],[-83.875505,9.606968],[-83.876671,9.606843],[-83.87808,9.60597],[-83.878364,9.605749],[-83.878601,9.60569],[-83.879515,9.605314],[-83.880951,9.604539],[-83.881209,9.604396],[-83.881513,9.604127],[-83.881792,9.604414],[-83.881892,9.607204],[-83.881601,9.6075],[-83.881566,9.607796],[-83.881673,9.608049],[-83.882005,9.608514],[-83.881947,9.608881],[-83.882113,9.609187],[-83.881979,9.609829],[-83.881781,9.610014],[-83.881592,9.610462],[-83.881573,9.610765],[-83.88164,9.611226],[-83.881846,9.611788],[-83.881878,9.61219],[-83.881511,9.613015],[-83.881342,9.614025],[-83.881204,9.614485],[-83.880691,9.614824],[-83.879217,9.617362],[-83.878902,9.617919],[-83.878573,9.618175],[-83.878387,9.618187],[-83.878111,9.618401],[-83.877434,9.619121],[-83.877237,9.619546],[-83.877178,9.620333],[-83.877275,9.620956],[-83.877205,9.621349],[-83.877292,9.621357]]]]}},{"type":"Feature","properties":{"DISTRITO":null,"CANTON":null,"PROVINCIA":null,"CATEGORIA":null,"NOMBRE_ASP":null,"AC":null,"PLANO":"1-279333-1995","TIPO_ADQ":null,"DON_VEN":null,"AREA_M2":null,"PROPIET":null,"N_FINCA":"1-447527-000","PATRIMONIO":null,"ANO_INSCR":null,"IDENTIFIC":null,"VALOR":null,"EXPEDIENTE":null,"Observac":null},"geometry":{"type":"MultiPolygon","coordinates":[[[[-83.867347,9.615073],[-83.866464,9.615472],[-83.866143,9.615691],[-83.865768,9.615824],[-83.865626,9.615937],[-83.865351,9.616026],[-83.86499,9.616187],[-83.864424,9.616373],[-83.860482,9.618353],[-83.860089,9.61868],[-83.859617,9.618731],[-83.858685,9.61877],[-83.858523,9.618872],[-83.858129,9.61916],[-83.857543,9.619201],[-83.857289,9.619452],[-83.856721,9.619776],[-83.853203,9.598023],[-83.854018,9.598574],[-83.85418,9.598759],[-83.854589,9.599517],[-83.855079,9.599976],[-83.855648,9.600834],[-83.85594,9.601424],[-83.856676,9.602073],[-83.857275,9.603213],[-83.857784,9.60404],[-83.858559,9.604488],[-83.859221,9.605149],[-83.85946,9.605539],[-83.859816,9.605738],[-83.860824,9.605487],[-83.861744,9.605557],[-83.862058,9.605607],[-83.862242,9.606025],[-83.862297,9.606377],[-83.862641,9.607133],[-83.863327,9.607731],[-83.864021,9.608176],[-83.864497,9.60812],[-83.864989,9.607745],[-83.865211,9.607652],[-83.865728,9.60759],[-83.866534,9.607813],[-83.867167,9.607649],[-83.867678,9.607721],[-83.867347,9.615073]]]]}},{"type":"Feature","properties":{"DISTRITO":null,"CANTON":null,"PROVINCIA":null,"CATEGORIA":null,"NOMBRE_ASP":null,"AC":null,"PLANO":"1-286024-1995","TIPO_ADQ":null,"DON_VEN":null,"AREA_M2":null,"PROPIET":null,"N_FINCA":"1-495882-000","PATRIMONIO":null,"ANO_INSCR":null,"IDENTIFIC":null,"VALOR":null,"EXPEDIENTE":null,"Observac":null},"geometry":{"type":"MultiPolygon","coordinates":[[[[-83.852522,9.62194],[-83.851166,9.623022],[-83.849802,9.622929],[-83.84824,9.624853],[-83.847842,9.625082],[-83.847388,9.625045],[-83.846783,9.624781],[-83.846263,9.624902],[-83.843191,9.622164],[-83.841738,9.621064],[-83.840599,9.620338],[-83.839513,9.619273],[-83.83901,9.61898],[-83.839076,9.61822],[-83.839272,9.61726],[-83.839164,9.616669],[-83.838986,9.616602],[-83.838709,9.615833],[-83.838729,9.615121],[-83.838389,9.61396],[-83.837671,9.61311],[-83.837225,9.612589],[-83.836967,9.611796],[-83.837082,9.611038],[-83.836397,9.609706],[-83.836167,9.608845],[-83.834693,9.608481],[-83.834249,9.607849],[-83.833972,9.607723],[-83.833091,9.606937],[-83.832926,9.60617],[-83.832841,9.604992],[-83.832919,9.604053],[-83.832498,9.603279],[-83.833303,9.602863],[-83.833527,9.602226],[-83.834041,9.601268],[-83.834592,9.599928],[-83.834804,9.59908],[-83.835105,9.598377],[-83.835687,9.598944],[-83.836797,9.599162],[-83.837836,9.599489],[-83.838685,9.599903],[-83.839162,9.600864],[-83.839394,9.601031],[-83.841288,9.601339],[-83.84229,9.602061],[-83.843268,9.602733],[-83.844262,9.603441],[-83.844987,9.604012],[-83.845468,9.60423],[-83.845914,9.604751],[-83.846742,9.60501],[-83.847185,9.605895],[-83.847444,9.607265],[-83.847812,9.608934],[-83.847442,9.609402],[-83.846355,9.609798],[-83.846259,9.610686],[-83.846309,9.611237],[-83.846761,9.61268],[-83.847412,9.613932],[-83.847896,9.615714],[-83.847982,9.61715],[-83.848131,9.617696],[-83.849416,9.619612],[-83.850184,9.620522],[-83.85091,9.620787],[-83.852522,9.62194]]]]}},{"type":"Feature","properties":{"DISTRITO":null,"CANTON":null,"PROVINCIA":null,"CATEGORIA":null,"NOMBRE_ASP":null,"AC":null,"PLANO":"1-279335-1995","TIPO_ADQ":null,"DON_VEN":null,"AREA_M2":null,"PROPIET":null,"N_FINCA":"1-438409-000","PATRIMONIO":null,"ANO_INSCR":null,"IDENTIFIC":null,"VALOR":null,"EXPEDIENTE":null,"Observac":null},"geometry":{"type":"MultiPolygon","coordinates":[[[[-83.856621,9.61979],[-83.855432,9.620148],[-83.855179,9.620614],[-83.855192,9.620898],[-83.854764,9.621036],[-83.854664,9.620965],[-83.8543,9.620463],[-83.854159,9.620445],[-83.853763,9.620738],[-83.853476,9.620894],[-83.853104,9.621338],[-83.852942,9.621685],[-83.852793,9.621894],[-83.851416,9.62101],[-83.851063,9.620721],[-83.850334,9.620466],[-83.849553,9.619568],[-83.848082,9.617126],[-83.848096,9.616858],[-83.847466,9.613917],[-83.846435,9.611844],[-83.846354,9.611405],[-83.846292,9.611054],[-83.846327,9.60992],[-83.846382,9.609676],[-83.84743,9.609386],[-83.847643,9.609213],[-83.847889,9.608375],[-83.847895,9.607458],[-83.847769,9.606474],[-83.848096,9.605766],[-83.848115,9.604932],[-83.848306,9.604617],[-83.848518,9.604009],[-83.848727,9.603265],[-83.848805,9.60281],[-83.848629,9.602189],[-83.84847,9.601864],[-83.847321,9.600662],[-83.847397,9.600424],[-83.84767,9.600183],[-83.848303,9.599177],[-83.848602,9.598904],[-83.849814,9.598374],[-83.849998,9.598185],[-83.85056,9.598202],[-83.851027,9.598363],[-83.851239,9.598395],[-83.851655,9.598239],[-83.852506,9.59776],[-83.852714,9.597773],[-83.853103,9.598037],[-83.856621,9.61979]]]]}},{"type":"Feature","properties":{"DISTRITO":null,"CANTON":null,"PROVINCIA":null,"CATEGORIA":null,"NOMBRE_ASP":null,"AC":null,"PLANO":"1-423450-1997","TIPO_ADQ":null,"DON_VEN":null,"AREA_M2":null,"PROPIET":null,"N_FINCA":"1-507087-000","PATRIMONIO":null,"ANO_INSCR":null,"IDENTIFIC":null,"VALOR":null,"EXPEDIENTE":null,"Observac":null},"geometry":{"type":"MultiPolygon","coordinates":[[[[-83.860051,9.60852],[-83.859184,9.607554],[-83.858427,9.607109],[-83.857257,9.605136],[-83.856552,9.604509],[-83.856248,9.603897],[-83.855185,9.602528],[-83.854649,9.601705],[-83.853407,9.600817],[-83.853144,9.60085],[-83.851905,9.601498],[-83.851183,9.601251],[-83.850617,9.601297],[-83.849221,9.60197],[-83.848351,9.603271],[-83.848024,9.603494],[-83.848003,9.603759],[-83.848421,9.604841],[-83.847331,9.604425],[-83.846556,9.604057],[-83.846923,9.603601],[-83.847283,9.602571],[-83.84676,9.601213],[-83.847461,9.600113],[-83.847628,9.59964],[-83.848782,9.598515],[-83.849012,9.597997],[-83.84903,9.597838],[-83.849025,9.59676],[-83.849057,9.596306],[-83.848005,9.594662],[-83.847964,9.594124],[-83.848203,9.593627],[-83.848516,9.592409],[-83.848452,9.591815],[-83.848292,9.591553],[-83.848341,9.590826],[-83.848637,9.590333],[-83.849838,9.589499],[-83.856852,9.587995],[-83.859068,9.588982],[-83.860051,9.60852]]]]}},{"type":"Feature","properties":{"DISTRITO":null,"CANTON":null,"PROVINCIA":null,"CATEGORIA":null,"NOMBRE_ASP":null,"AC":null,"PLANO":"1-420636-1997","TIPO_ADQ":null,"DON_VEN":null,"AREA_M2":null,"PROPIET":null,"N_FINCA":"1-517282-000","PATRIMONIO":null,"ANO_INSCR":null,"IDENTIFIC":null,"VALOR":null,"EXPEDIENTE":null,"Observac":null},"geometry":{"type":"MultiPolygon","coordinates":[[[[-83.859836,9.586159],[-83.860088,9.581886],[-83.860572,9.579599],[-83.862405,9.577687],[-83.865538,9.579522],[-83.865571,9.580668],[-83.866781,9.583019],[-83.867195,9.5867],[-83.867994,9.588065],[-83.867797,9.589489],[-83.868012,9.590532],[-83.86892,9.591285],[-83.86959,9.591916],[-83.869957,9.594021],[-83.869884,9.594951],[-83.87009,9.595969],[-83.870184,9.59744],[-83.870152,9.597896],[-83.870406,9.598463],[-83.870157,9.599556],[-83.870155,9.599979],[-83.869976,9.600494],[-83.870242,9.601463],[-83.870275,9.602144],[-83.870048,9.603221],[-83.870518,9.603947],[-83.870672,9.604587],[-83.870614,9.605213],[-83.870967,9.606201],[-83.870802,9.607206],[-83.870498,9.60797],[-83.870041,9.608466],[-83.86968,9.607906],[-83.869068,9.607833],[-83.867864,9.607799],[-83.867055,9.607677],[-83.866511,9.607795],[-83.86579,9.608249],[-83.865331,9.608329],[-83.864629,9.607914],[-83.864036,9.60736],[-83.863552,9.606564],[-83.863383,9.605779],[-83.862128,9.605635],[-83.861112,9.605866],[-83.860821,9.605697],[-83.859836,9.586159]]]]}},{"type":"Feature","properties":{"DISTRITO":null,"CANTON":null,"PROVINCIA":null,"CATEGORIA":null,"NOMBRE_ASP":null,"AC":null,"PLANO":"1-291137-1995","TIPO_ADQ":null,"DON_VEN":null,"AREA_M2":null,"PROPIET":null,"N_FINCA":"1-501104-000","PATRIMONIO":null,"ANO_INSCR":null,"IDENTIFIC":null,"VALOR":null,"EXPEDIENTE":null,"Observac":null},"geometry":{"type":"MultiPolygon","coordinates":[[[[-83.833524,9.62102],[-83.833408,9.620683],[-83.833267,9.619967],[-83.832863,9.618619],[-83.832628,9.61725],[-83.831963,9.616104],[-83.83152,9.615237],[-83.83122,9.61378],[-83.831037,9.612759],[-83.830305,9.611562],[-83.829796,9.610625],[-83.82919,9.610007],[-83.828952,9.6094],[-83.82962,9.608732],[-83.830138,9.608493],[-83.830693,9.607859],[-83.831351,9.606701],[-83.831691,9.60616],[-83.832198,9.604812],[-83.832236,9.604767],[-83.832841,9.604992],[-83.832926,9.60617],[-83.83309,9.606937],[-83.833972,9.607723],[-83.834249,9.607849],[-83.834692,9.608481],[-83.836167,9.608845],[-83.836397,9.609706],[-83.837082,9.611038],[-83.836967,9.611796],[-83.837224,9.61259],[-83.838389,9.61396],[-83.838729,9.615121],[-83.838709,9.615833],[-83.838986,9.616602],[-83.839164,9.616669],[-83.839272,9.61726],[-83.839076,9.61822],[-83.83901,9.61898],[-83.839513,9.619273],[-83.840599,9.620338],[-83.841738,9.621064],[-83.843191,9.622164],[-83.846263,9.624902],[-83.844595,9.625914],[-83.84305,9.624947],[-83.841656,9.625341],[-83.841485,9.625304],[-83.840554,9.624721],[-83.839919,9.624654],[-83.83895,9.624966],[-83.838492,9.624847],[-83.837811,9.624198],[-83.83678,9.622893],[-83.836048,9.622603],[-83.835162,9.621959],[-83.834678,9.620998],[-83.833896,9.620838],[-83.833524,9.62102]]]]}},{"type":"Feature","properties":{"DISTRITO":null,"CANTON":null,"PROVINCIA":null,"CATEGORIA":null,"NOMBRE_ASP":null,"AC":"ACC","PLANO":"3-6124-1950","TIPO_ADQ":null,"DON_VEN":null,"AREA_M2":null,"PROPIET":null,"N_FINCA":"3-47944-000","PATRIMONIO":"219003318","ANO_INSCR":"1985","IDENTIFIC":null,"VALOR":null,"EXPEDIENTE":null,"Observac":"Falta asignar plano a 3-6124-1950"},"geometry":{"type":"MultiPolygon","coordinates":[[[[-83.916974,9.706375],[-83.916975,9.706375],[-83.916042,9.716426],[-83.918212,9.716562],[-83.919618,9.707015],[-83.916974,9.706375]]]]}},{"type":"Feature","properties":{"DISTRITO":null,"CANTON":null,"PROVINCIA":null,"CATEGORIA":"RESERVA_FORESTAL","NOMBRE_ASP":"RIO_MACHO","AC":"ACC","PLANO":"1-109965-1963","TIPO_ADQ":"COMPRA","DON_VEN":null,"AREA_M2":"859163.73","PROPIET":"EL ESTADO","N_FINCA":"1-379490-000","PATRIMONIO":"2620817","ANO_INSCR":"1990","IDENTIFIC":null,"VALOR":null,"EXPEDIENTE":null,"Observac":"ubicación aprx por colindantes"},"geometry":{"type":"MultiPolygon","coordinates":[[[[-83.687264,9.561293],[-83.687169,9.562728],[-83.686765,9.562835],[-83.685625,9.563381],[-83.684161,9.564387],[-83.683209,9.564845],[-83.68218,9.565598],[-83.681435,9.565863],[-83.680507,9.565984],[-83.680041,9.565145],[-83.68023,9.564657],[-83.680002,9.563676],[-83.679175,9.562804],[-83.678591,9.561991],[-83.678372,9.561781],[-83.678226,9.561225],[-83.678136,9.560103],[-83.678282,9.559695],[-83.679041,9.558473],[-83.679523,9.558608],[-83.68053,9.558645],[-83.680261,9.556475],[-83.680207,9.555347],[-83.680313,9.554265],[-83.681279,9.554189],[-83.68191,9.554421],[-83.682516,9.554274],[-83.683218,9.553675],[-83.683823,9.554188],[-83.684662,9.55446],[-83.685305,9.554987],[-83.685719,9.555107],[-83.685976,9.559482],[-83.686413,9.560287],[-83.68716,9.561032],[-83.687263,9.561293],[-83.687264,9.561293]]]]}},{"type":"Feature","properties":{"DISTRITO":"SAN ISIDRO","CANTON":"EL GUARCO","PROVINCIA":"CARTAGO","CATEGORIA":"PARQUE NACIONAL","NOMBRE_ASP":"TAPANTI MACIZO DE LA MUERTE","AC":"ACC","PLANO":"303497711996","TIPO_ADQ":null,"DON_VEN":null,"AREA_M2":null,"PROPIET":null,"N_FINCA":"3-41179-000 3-41182","PATRIMONIO":null,"ANO_INSCR":null,"IDENTIFIC":null,"VALOR":null,"EXPEDIENTE":null,"Observac":"ubic con cat El Guarco, debe hacer 2 pln"},"geometry":{"type":"MultiPolygon","coordinates":[[[[-83.932678,9.7196],[-83.93313,9.719587],[-83.932599,9.72442],[-83.931599,9.724422],[-83.93057,9.724329],[-83.929814,9.724206],[-83.929704,9.724215],[-83.928766,9.724079],[-83.928352,9.724022],[-83.928086,9.724057],[-83.927927,9.724041],[-83.927712,9.724016],[-83.92723,9.723913],[-83.927041,9.723928],[-83.926665,9.72393],[-83.926185,9.723962],[-83.925827,9.723872],[-83.926277,9.718863],[-83.926522,9.718869],[-83.926522,9.718869],[-83.926737,9.718912],[-83.926843,9.718919],[-83.927354,9.718951],[-83.929337,9.719166],[-83.929489,9.719183],[-83.929679,9.719145],[-83.929861,9.719124],[-83.929993,9.719166],[-83.930201,9.719259],[-83.93043,9.719267],[-83.930549,9.719319],[-83.930636,9.719534],[-83.930685,9.719493],[-83.930798,9.719504],[-83.93101,9.719379],[-83.931437,9.719443],[-83.931956,9.719494],[-83.932366,9.719547],[-83.932678,9.7196]]]]}},{"type":"Feature","properties":{"DISTRITO":null,"CANTON":null,"PROVINCIA":null,"CATEGORIA":null,"NOMBRE_ASP":null,"AC":"ACC","PLANO":"3-32145-1962","TIPO_ADQ":null,"DON_VEN":null,"AREA_M2":null,"PROPIET":null,"N_FINCA":"3-85067-000","PATRIMONIO":null,"ANO_INSCR":null,"IDENTIFIC":null,"VALOR":null,"EXPEDIENTE":null,"Observac":null},"geometry":{"type":"MultiPolygon","coordinates":[[[[-83.712316,9.779027],[-83.712316,9.779968],[-83.712798,9.780692],[-83.713369,9.781082],[-83.715095,9.780624],[-83.716089,9.780495],[-83.71609,9.779031],[-83.712316,9.779027],[-83.712316,9.779027]]]]}},{"type":"Feature","properties":{"DISTRITO":"OROSI","CANTON":"PARAISO","PROVINCIA":"CARTAGO","CATEGORIA":"RESERVA FORESTAL","NOMBRE_ASP":"RIO MACHO","AC":"ACC","PLANO":"C-1874-1966","TIPO_ADQ":null,"DON_VEN":null,"AREA_M2":"672513,89","PROPIET":null,"N_FINCA":"1-241060-000","PATRIMONIO":null,"ANO_INSCR":"2003","IDENTIFIC":null,"VALOR":null,"EXPEDIENTE":null,"Observac":"otrora Barahona Garro Carlos Enrique"},"geometry":{"type":"MultiPolygon","coordinates":[[[[-83.702809,9.558983],[-83.702809,9.558983],[-83.702748,9.559277],[-83.702198,9.558788],[-83.701691,9.558655],[-83.701478,9.558471],[-83.694615,9.561836],[-83.692479,9.561612],[-83.692274,9.56073],[-83.691607,9.55927],[-83.691374,9.558548],[-83.69093,9.556811],[-83.69088,9.556107],[-83.691515,9.555586],[-83.692757,9.555387],[-83.694178,9.554572],[-83.694949,9.554545],[-83.701136,9.556194],[-83.702621,9.55679],[-83.70244,9.557312],[-83.702395,9.557926],[-83.702497,9.55824],[-83.702809,9.558983]]]]}},{"type":"Feature","properties":{"DISTRITO":null,"CANTON":null,"PROVINCIA":null,"CATEGORIA":null,"NOMBRE_ASP":null,"AC":null,"PLANO":"3-6126-1950","TIPO_ADQ":null,"DON_VEN":null,"AREA_M2":null,"PROPIET":null,"N_FINCA":"3-47023-000","PATRIMONIO":"2620811","ANO_INSCR":"1991","IDENTIFIC":null,"VALOR":null,"EXPEDIENTE":"ACLA-P-PNE-P24-006-1977","Observac":"ubicación aprx plano db asign a Certlit"},"geometry":{"type":"MultiPolygon","coordinates":[[[[-83.926029,9.717362],[-83.923038,9.716856],[-83.925281,9.708372],[-83.927698,9.708954],[-83.926028,9.717362],[-83.926029,9.717362]]]]}},{"type":"Feature","properties":{"DISTRITO":null,"CANTON":null,"PROVINCIA":null,"CATEGORIA":null,"NOMBRE_ASP":null,"AC":null,"PLANO":"C-6121-1950","TIPO_ADQ":null,"DON_VEN":null,"AREA_M2":null,"PROPIET":null,"N_FINCA":null,"PATRIMONIO":null,"ANO_INSCR":null,"IDENTIFIC":null,"VALOR":null,"EXPEDIENTE":"tapanti","Observac":null},"geometry":{"type":"MultiPolygon","coordinates":[[[[-83.916045,9.716431],[-83.916047,9.716431],[-83.914294,9.716326],[-83.915158,9.705948],[-83.916954,9.706378],[-83.916045,9.716431]]]]}},{"type":"Feature","properties":{"DISTRITO":null,"CANTON":null,"PROVINCIA":null,"CATEGORIA":null,"NOMBRE_ASP":null,"AC":null,"PLANO":"C-6118-1950","TIPO_ADQ":null,"DON_VEN":null,"AREA_M2":null,"PROPIET":null,"N_FINCA":null,"PATRIMONIO":null,"ANO_INSCR":null,"IDENTIFIC":null,"VALOR":null,"EXPEDIENTE":"tapanti","Observac":null},"geometry":{"type":"MultiPolygon","coordinates":[[[[-83.912363,9.725166],[-83.910052,9.724754],[-83.910613,9.715584],[-83.912924,9.715996],[-83.912363,9.725166]]]]}},{"type":"Feature","properties":{"DISTRITO":null,"CANTON":null,"PROVINCIA":null,"CATEGORIA":null,"NOMBRE_ASP":null,"AC":null,"PLANO":"C-6125-1950","TIPO_ADQ":null,"DON_VEN":null,"AREA_M2":null,"PROPIET":null,"N_FINCA":null,"PATRIMONIO":null,"ANO_INSCR":null,"IDENTIFIC":null,"VALOR":null,"EXPEDIENTE":"tapanti","Observac":null},"geometry":{"type":"MultiPolygon","coordinates":[[[[-83.915029,9.72564],[-83.912363,9.725166],[-83.912924,9.715996],[-83.91503,9.716373],[-83.915594,9.716407],[-83.915029,9.72564],[-83.915029,9.72564]]]]}},{"type":"Feature","properties":{"DISTRITO":null,"CANTON":null,"PROVINCIA":null,"CATEGORIA":null,"NOMBRE_ASP":null,"AC":null,"PLANO":"C-6119-1950","TIPO_ADQ":null,"DON_VEN":null,"AREA_M2":null,"PROPIET":null,"N_FINCA":null,"PATRIMONIO":null,"ANO_INSCR":null,"IDENTIFIC":null,"VALOR":null,"EXPEDIENTE":"tapanti","Observac":null},"geometry":{"type":"MultiPolygon","coordinates":[[[[-83.930498,9.709618],[-83.930499,9.709618],[-83.928925,9.717843],[-83.926023,9.717357],[-83.927681,9.708946],[-83.927681,9.708944],[-83.930498,9.709618]]]]}},{"type":"Feature","properties":{"DISTRITO":null,"CANTON":null,"PROVINCIA":null,"CATEGORIA":null,"NOMBRE_ASP":null,"AC":null,"PLANO":"C-6128-1950","TIPO_ADQ":null,"DON_VEN":null,"AREA_M2":null,"PROPIET":null,"N_FINCA":null,"PATRIMONIO":null,"ANO_INSCR":null,"IDENTIFIC":null,"VALOR":null,"EXPEDIENTE":"tapanti","Observac":null},"geometry":{"type":"MultiPolygon","coordinates":[[[[-83.922351,9.707672],[-83.922352,9.707672],[-83.922352,9.707672],[-83.920497,9.716702],[-83.918218,9.716565],[-83.9196,9.707014],[-83.922351,9.707672]]]]}},{"type":"Feature","properties":{"DISTRITO":null,"CANTON":null,"PROVINCIA":null,"CATEGORIA":null,"NOMBRE_ASP":null,"AC":"ACC","PLANO":"C-6291-1951","TIPO_ADQ":null,"DON_VEN":null,"AREA_M2":null,"PROPIET":null,"N_FINCA":"3-47147-000","PATRIMONIO":null,"ANO_INSCR":null,"IDENTIFIC":null,"VALOR":null,"EXPEDIENTE":"ACLAP-P-PNE-P24-003-1976","Observac":null},"geometry":{"type":"MultiPolygon","coordinates":[[[[-83.922351,9.707672],[-83.922352,9.707672],[-83.920497,9.716702],[-83.920497,9.716702],[-83.923032,9.716855],[-83.923032,9.716855],[-83.925263,9.708368],[-83.922351,9.707672]]]]}},{"type":"Feature","properties":{"DISTRITO":null,"CANTON":null,"PROVINCIA":null,"CATEGORIA":null,"NOMBRE_ASP":null,"AC":null,"PLANO":"C-6122-1950","TIPO_ADQ":null,"DON_VEN":null,"AREA_M2":null,"PROPIET":null,"N_FINCA":null,"PATRIMONIO":null,"ANO_INSCR":null,"IDENTIFIC":null,"VALOR":null,"EXPEDIENTE":"tapanti","Observac":null},"geometry":{"type":"MultiPolygon","coordinates":[[[[-83.917634,9.726105],[-83.917635,9.726104],[-83.915029,9.72564],[-83.915593,9.716407],[-83.916048,9.716434],[-83.918218,9.716565],[-83.917634,9.726105]]]]}},{"type":"Feature","properties":{"DISTRITO":null,"CANTON":null,"PROVINCIA":null,"CATEGORIA":"RESERVA_FORESTAL","NOMBRE_ASP":"RIO_MACHO","AC":"ACC","PLANO":"1-104589-1961","TIPO_ADQ":null,"DON_VEN":null,"AREA_M2":"954803","PROPIET":"EL ESTADO","N_FINCA":"1-234206-000","PATRIMONIO":"2620812","ANO_INSCR":"2003","IDENTIFIC":null,"VALOR":null,"EXPEDIENTE":null,"Observac":"Ubicación aprox al no haber diag ubic"},"geometry":{"type":"MultiPolygon","coordinates":[[[[-83.69259,9.561728],[-83.692225,9.561737],[-83.691003,9.561318],[-83.691117,9.564073],[-83.69048,9.564088],[-83.690094,9.56671],[-83.689999,9.573952],[-83.684716,9.574077],[-83.68468,9.572902],[-83.68586,9.571466],[-83.686764,9.569895],[-83.687143,9.569024],[-83.68701,9.566722],[-83.687287,9.564205],[-83.687197,9.562652],[-83.68735,9.561259],[-83.686391,9.560231],[-83.685969,9.559429],[-83.685702,9.554807],[-83.686317,9.554974],[-83.687045,9.554951],[-83.687499,9.555458],[-83.688362,9.555395],[-83.689549,9.555716],[-83.690323,9.555698],[-83.692589,9.561731],[-83.69259,9.561728]]]]}},{"type":"Feature","properties":{"DISTRITO":null,"CANTON":null,"PROVINCIA":null,"CATEGORIA":null,"NOMBRE_ASP":null,"AC":null,"PLANO":"C-6120-1950","TIPO_ADQ":null,"DON_VEN":null,"AREA_M2":null,"PROPIET":null,"N_FINCA":null,"PATRIMONIO":null,"ANO_INSCR":null,"IDENTIFIC":null,"VALOR":null,"EXPEDIENTE":"tapanti","Observac":"no tiene finca generada"},"geometry":{"type":"MultiPolygon","coordinates":[[[[-83.920998,9.727619],[-83.923837,9.7279],[-83.923022,9.736032],[-83.920659,9.735985],[-83.920998,9.727619],[-83.920998,9.727619]]]]}},{"type":"Feature","properties":{"DISTRITO":null,"CANTON":null,"PROVINCIA":null,"CATEGORIA":null,"NOMBRE_ASP":null,"AC":null,"PLANO":"C-6123-1950","TIPO_ADQ":null,"DON_VEN":null,"AREA_M2":null,"PROPIET":null,"N_FINCA":null,"PATRIMONIO":null,"ANO_INSCR":null,"IDENTIFIC":null,"VALOR":null,"EXPEDIENTE":"tapanti","Observac":"no tiene finca generada"},"geometry":{"type":"MultiPolygon","coordinates":[[[[-83.925768,9.736086],[-83.925769,9.736086],[-83.926633,9.728147],[-83.929448,9.728396],[-83.928594,9.736142],[-83.925768,9.736086]]]]}},{"type":"Feature","properties":{"DISTRITO":null,"CANTON":null,"PROVINCIA":null,"CATEGORIA":null,"NOMBRE_ASP":null,"AC":null,"PLANO":"C-6127-1950","TIPO_ADQ":null,"DON_VEN":null,"AREA_M2":null,"PROPIET":null,"N_FINCA":null,"PATRIMONIO":null,"ANO_INSCR":null,"IDENTIFIC":null,"VALOR":null,"EXPEDIENTE":"tapanti","Observac":"no tiene finca generada"},"geometry":{"type":"MultiPolygon","coordinates":[[[[-83.925769,9.736086],[-83.923022,9.736032],[-83.923837,9.7279],[-83.926633,9.728147],[-83.925769,9.736086],[-83.925769,9.736086]]]]}},{"type":"Feature","properties":{"DISTRITO":null,"CANTON":null,"PROVINCIA":null,"CATEGORIA":null,"NOMBRE_ASP":null,"AC":null,"PLANO":"3-6532-1953","TIPO_ADQ":null,"DON_VEN":null,"AREA_M2":null,"PROPIET":null,"N_FINCA":"3-58346-000","PATRIMONIO":null,"ANO_INSCR":null,"IDENTIFIC":null,"VALOR":null,"EXPEDIENTE":null,"Observac":"Ubicac imprecisa, plano inscr incorrect"},"geometry":{"type":"MultiPolygon","coordinates":[[[[-83.932607,9.728678],[-83.931765,9.736209],[-83.928594,9.736142],[-83.929449,9.728395],[-83.932607,9.728678],[-83.932607,9.728678]]]]}},{"type":"Feature","properties":{"DISTRITO":null,"CANTON":null,"PROVINCIA":null,"CATEGORIA":null,"NOMBRE_ASP":"TAPANTI MACIZO DE LA MUERTE","AC":"ACC","PLANO":"C-32015-1962","TIPO_ADQ":null,"DON_VEN":null,"AREA_M2":null,"PROPIET":null,"N_FINCA":"3-166469-000","PATRIMONIO":null,"ANO_INSCR":null,"IDENTIFIC":null,"VALOR":null,"EXPEDIENTE":"ACLA-P-PNE-P24-005-1973","Observac":null},"geometry":{"type":"MultiPolygon","coordinates":[[[[-83.704227,9.774256],[-83.704228,9.774254],[-83.704382,9.770018],[-83.705302,9.770051],[-83.70781,9.771131],[-83.70826,9.771203],[-83.708589,9.771636],[-83.709455,9.77163],[-83.710169,9.772032],[-83.711542,9.77264],[-83.712128,9.772728],[-83.712062,9.774538],[-83.704227,9.774256]]]]}},{"type":"Feature","properties":{"DISTRITO":null,"CANTON":null,"PROVINCIA":null,"CATEGORIA":null,"NOMBRE_ASP":null,"AC":"ACC","PLANO":"C-5251-1939","TIPO_ADQ":null,"DON_VEN":null,"AREA_M2":null,"PROPIET":null,"N_FINCA":"3-41178-000","PATRIMONIO":"2620821","ANO_INSCR":null,"IDENTIFIC":null,"VALOR":null,"EXPEDIENTE":null,"Observac":"Ubicación aprx por señas de exped y gis"},"geometry":{"type":"MultiPolygon","coordinates":[[[[-83.782689,9.753518],[-83.782228,9.756061],[-83.782309,9.758347],[-83.783101,9.759635],[-83.779466,9.759364],[-83.779868,9.753443],[-83.782692,9.753526],[-83.782689,9.753518]]]]}},{"type":"Feature","properties":{"DISTRITO":null,"CANTON":null,"PROVINCIA":null,"CATEGORIA":"PARQUE_NACIONAL","NOMBRE_ASP":"TAPANTI MACIZO DE LA MUERTE","AC":"ACC","PLANO":"C-6473-1952","TIPO_ADQ":"COMPRA","DON_VEN":null,"AREA_M2":"600085","PROPIET":"ESTADO","N_FINCA":"3-48103-000","PATRIMONIO":"219008585","ANO_INSCR":null,"IDENTIFIC":null,"VALOR":null,"EXPEDIENTE":"3-48103-000","Observac":"Ubicación aprx por señas exped"},"geometry":{"type":"MultiPolygon","coordinates":[[[[-83.752419,9.757816],[-83.752415,9.762337],[-83.741477,9.762329],[-83.741481,9.757808],[-83.752419,9.757816]]]]}},{"type":"Feature","properties":{"DISTRITO":null,"CANTON":null,"PROVINCIA":null,"CATEGORIA":null,"NOMBRE_ASP":null,"AC":"ACC","PLANO":"C-31761-1962","TIPO_ADQ":"COMPRA","DON_VEN":null,"AREA_M2":"25979523","PROPIET":"ESTADO","N_FINCA":"3-69836-000","PATRIMONIO":"2620797","ANO_INSCR":null,"IDENTIFIC":null,"VALOR":null,"EXPEDIENTE":null,"Observac":"finca conform por dos planos ubic aprx"},"geometry":{"type":"MultiPolygon","coordinates":[[[[-83.837763,9.648675],[-83.837775,9.64865],[-83.836137,9.651836],[-83.831146,9.649981],[-83.834488,9.645803],[-83.835491,9.646236],[-83.837056,9.648236],[-83.837763,9.648675]]]]}},{"type":"Feature","properties":{"DISTRITO":null,"CANTON":null,"PROVINCIA":null,"CATEGORIA":null,"NOMBRE_ASP":null,"AC":"ACC","PLANO":"C-31760-1962","TIPO_ADQ":"COMPRA","DON_VEN":null,"AREA_M2":"189924,15","PROPIET":"ESTADO","N_FINCA":"3-69836-000","PATRIMONIO":"2620797","ANO_INSCR":null,"IDENTIFIC":null,"VALOR":null,"EXPEDIENTE":null,"Observac":"finca conform por dos planos ubic aprx"},"geometry":{"type":"MultiPolygon","coordinates":[[[[-83.834482,9.645799],[-83.834488,9.645804],[-83.831139,9.649977],[-83.829386,9.649328],[-83.830623,9.64402],[-83.831849,9.644938],[-83.833007,9.645162],[-83.834482,9.645799]]]]}},{"type":"Feature","properties":{"DISTRITO":null,"CANTON":null,"PROVINCIA":null,"CATEGORIA":"PARQUE_NACIONAL","NOMBRE_ASP":"TAPANTI MACIZO DE LA MUERTE","AC":"ACC","PLANO":"C-32065-1962","TIPO_ADQ":null,"DON_VEN":null,"AREA_M2":"2051980.76","PROPIET":"ESTADO","N_FINCA":"3-75428-000","PATRIMONIO":null,"ANO_INSCR":null,"IDENTIFIC":null,"VALOR":null,"EXPEDIENTE":null,"Observac":"ubic aprx debe hacerse un plano unificad"},"geometry":{"type":"MultiPolygon","coordinates":[[[[-83.736142,9.569673],[-83.736707,9.569251],[-83.736792,9.569948],[-83.744021,9.574969],[-83.74261,9.575536],[-83.741744,9.576902],[-83.740403,9.577916],[-83.737722,9.580058],[-83.73685,9.58224],[-83.73652,9.584176],[-83.736018,9.585369],[-83.735642,9.585826],[-83.735477,9.586531],[-83.736366,9.589234],[-83.735974,9.590047],[-83.734721,9.591466],[-83.73443,9.592447],[-83.733361,9.591574],[-83.736142,9.569673]]]]}},{"type":"Feature","properties":{"DISTRITO":null,"CANTON":null,"PROVINCIA":null,"CATEGORIA":"PARQUE_NACIONAL","NOMBRE_ASP":"TAPANTI MACIZO DE LA MUERTE","AC":"ACC","PLANO":"C-32066-1962","TIPO_ADQ":null,"DON_VEN":null,"AREA_M2":"2051980.76","PROPIET":"ESTADO","N_FINCA":"3-75428-000","PATRIMONIO":null,"ANO_INSCR":null,"IDENTIFIC":null,"VALOR":null,"EXPEDIENTE":null,"Observac":"ubic aprx debe hacerse un plano unificad"},"geometry":{"type":"MultiPolygon","coordinates":[[[[-83.735044,9.568779],[-83.734896,9.568992],[-83.728086,9.587268],[-83.722287,9.582565],[-83.72249,9.582594],[-83.722694,9.582333],[-83.722853,9.582273],[-83.722992,9.58226],[-83.723275,9.581824],[-83.723503,9.581704],[-83.723646,9.581611],[-83.723928,9.581535],[-83.724142,9.581428],[-83.724369,9.581215],[-83.724659,9.581159],[-83.724877,9.581003],[-83.725063,9.580823],[-83.72527,9.580525],[-83.725391,9.580455],[-83.725479,9.580245],[-83.725349,9.58],[-83.725474,9.579622],[-83.725645,9.579595],[-83.725648,9.579509],[-83.725765,9.579416],[-83.725809,9.57916],[-83.726066,9.578773],[-83.726311,9.5787],[-83.72649,9.578421],[-83.726698,9.578052],[-83.726825,9.578027],[-83.726895,9.577933],[-83.727144,9.577744],[-83.727175,9.577537],[-83.727356,9.577439],[-83.727236,9.577277],[-83.727442,9.577157],[-83.727504,9.577176],[-83.727523,9.576985],[-83.727552,9.576669],[-83.727669,9.576568],[-83.727607,9.576268],[-83.727758,9.576109],[-83.727828,9.575906],[-83.727752,9.575579],[-83.727634,9.57548],[-83.727834,9.575302],[-83.727947,9.57507],[-83.728008,9.5749],[-83.728238,9.574774],[-83.728335,9.574602],[-83.728469,9.57402],[-83.728594,9.574003],[-83.728878,9.573733],[-83.72928,9.573428],[-83.729611,9.572957],[-83.729672,9.572606],[-83.729833,9.572325],[-83.729958,9.571816],[-83.730391,9.571378],[-83.730533,9.571413],[-83.730708,9.571358],[-83.730979,9.571129],[-83.731263,9.570692],[-83.731586,9.570219],[-83.732461,9.569675],[-83.732642,9.569521],[-83.732978,9.568914],[-83.733273,9.568712],[-83.733388,9.568413],[-83.733622,9.56765],[-83.733892,9.567907],[-83.734322,9.568297],[-83.734693,9.568586],[-83.735044,9.568779]]]]}},{"type":"Feature","properties":{"DISTRITO":null,"CANTON":null,"PROVINCIA":null,"CATEGORIA":"PARQUE_NACIONA","NOMBRE_ASP":"TAPANTI MACIZO DE LA MUERTE","AC":"ACC","PLANO":"C-32067-1962","TIPO_ADQ":null,"DON_VEN":null,"AREA_M2":null,"PROPIET":null,"N_FINCA":"3-75428-000","PATRIMONIO":null,"ANO_INSCR":null,"IDENTIFIC":null,"VALOR":null,"EXPEDIENTE":null,"Observac":"ubic aprx debe hacerse un plano unificad"},"geometry":{"type":"MultiPolygon","coordinates":[[[[-83.734953,9.569012],[-83.734953,9.569012],[-83.735557,9.569378],[-83.736135,9.569671],[-83.733363,9.591573],[-83.728085,9.587266],[-83.734953,9.569012]]]]}},{"type":"Feature","properties":{"DISTRITO":null,"CANTON":null,"PROVINCIA":null,"CATEGORIA":"PARQUE_NACIONAL","NOMBRE_ASP":"TAPANTI MACIZO DE LA MUERTE","AC":"ACC","PLANO":"C-5297-1941","TIPO_ADQ":"COMPRA","DON_VEN":null,"AREA_M2":null,"PROPIET":"ESTADO","N_FINCA":"3-81458-000","PATRIMONIO":"2620781","ANO_INSCR":"1990","IDENTIFIC":null,"VALOR":null,"EXPEDIENTE":"ACLA-P-PNE-P24-006-1976","Observac":"Ubic aprx según catastr Paraiso"},"geometry":{"type":"MultiPolygon","coordinates":[[[[-83.800697,9.729051],[-83.79954,9.730106],[-83.797832,9.731028],[-83.797448,9.731425],[-83.796514,9.732138],[-83.796304,9.73203],[-83.796579,9.731524],[-83.796751,9.730827],[-83.797719,9.729423],[-83.798027,9.728556],[-83.798602,9.727976],[-83.798497,9.727355],[-83.798562,9.727044],[-83.798499,9.726403],[-83.798825,9.725585],[-83.799031,9.725367],[-83.801046,9.725568],[-83.800929,9.725967],[-83.80069,9.729055],[-83.800697,9.729051]]]]}},{"type":"Feature","properties":{"DISTRITO":null,"CANTON":null,"PROVINCIA":null,"CATEGORIA":null,"NOMBRE_ASP":null,"AC":"ACC","PLANO":"C-6093-1950","TIPO_ADQ":"COMPRA","DON_VEN":null,"AREA_M2":null,"PROPIET":null,"N_FINCA":null,"PATRIMONIO":null,"ANO_INSCR":null,"IDENTIFIC":null,"VALOR":null,"EXPEDIENTE":"Brenes Monge Omar","Observac":"ubic aprx no se obs finca inscrita"},"geometry":{"type":"MultiPolygon","coordinates":[[[[-83.72814,9.59095],[-83.728406,9.592702],[-83.728515,9.595376],[-83.728807,9.597992],[-83.729506,9.600661],[-83.712437,9.601346],[-83.714236,9.58901],[-83.718306,9.58992],[-83.719815,9.590433],[-83.723749,9.590822],[-83.72814,9.59095],[-83.72814,9.59095]]]]}},{"type":"Feature","properties":{"DISTRITO":"COPEY","CANTON":"DOTA","PROVINCIA":"CARTAGO","CATEGORIA":"PARQUE NACIONAL","NOMBRE_ASP":"LOS QUETZALES","AC":"ACC","PLANO":"3-2269985-2021","TIPO_ADQ":"INSCRIPCION","DON_VEN":null,"AREA_M2":"11242.00","PROPIET":"Estado Minae","N_FINCA":"1-741986-000","PATRIMONIO":null,"ANO_INSCR":"2024","IDENTIFIC":null,"VALOR":"2637258,00","EXPEDIENTE":"I-ACC-0004-2022","Observac":null},"geometry":{"type":"MultiPolygon","coordinates":[[[[-83.819221,9.615806],[-83.818755,9.615646],[-83.818591,9.615594],[-83.818485,9.615561],[-83.818432,9.615545],[-83.818387,9.615534],[-83.818348,9.615339],[-83.818077,9.615169],[-83.817967,9.614966],[-83.818015,9.614612],[-83.818091,9.61452],[-83.818269,9.614487],[-83.818725,9.614571],[-83.819221,9.615806]]]]}},{"type":"Feature","properties":{"DISTRITO":"COPEY","CANTON":"DOTA","PROVINCIA":"CARTAGO","CATEGORIA":"PARQUE NACIONAL","NOMBRE_ASP":"LOS QUETZALES","AC":"ACC","PLANO":"1-2277849-2021","TIPO_ADQ":"INSCRIPCION","DON_VEN":null,"AREA_M2":null,"PROPIET":null,"N_FINCA":"1-742062 -000","PATRIMONIO":null,"ANO_INSCR":"2024","IDENTIFIC":null,"VALOR":"206659751,00","EXPEDIENTE":"I-ACC-0005-2022","Observac":null},"geometry":{"type":"MultiPolygon","coordinates":[[[[-83.832421,9.592604],[-83.832681,9.592579],[-83.832885,9.592572],[-83.832969,9.592612],[-83.832982,9.592707],[-83.832965,9.592792],[-83.832994,9.592906],[-83.832951,9.5931],[-83.832975,9.593213],[-83.832893,9.593477],[-83.83291,9.593561],[-83.832828,9.593686],[-83.832728,9.593769],[-83.83256,9.593823],[-83.832509,9.593851],[-83.832056,9.594338],[-83.831786,9.594797],[-83.831806,9.595028],[-83.831889,9.595409],[-83.831921,9.595719],[-83.831882,9.595852],[-83.831821,9.595962],[-83.831716,9.596078],[-83.83164,9.596191],[-83.83152,9.596425],[-83.831779,9.596449],[-83.83189,9.596501],[-83.832333,9.59662],[-83.832474,9.596672],[-83.832568,9.596735],[-83.832699,9.596917],[-83.832688,9.59753],[-83.832663,9.597748],[-83.832645,9.597914],[-83.832545,9.59804],[-83.832196,9.598214],[-83.832013,9.59832],[-83.831843,9.598508],[-83.831787,9.598673],[-83.831685,9.598808],[-83.83165,9.598911],[-83.831491,9.599157],[-83.831373,9.599222],[-83.831244,9.599439],[-83.831155,9.599522],[-83.831003,9.599598],[-83.830878,9.599644],[-83.830761,9.599651],[-83.830449,9.599582],[-83.830162,9.599459],[-83.829908,9.599488],[-83.829844,9.599528],[-83.829483,9.599632],[-83.829229,9.599602],[-83.829125,9.599568],[-83.828969,9.599543],[-83.828895,9.599675],[-83.828983,9.599838],[-83.829017,9.599948],[-83.828931,9.60005],[-83.828734,9.600108],[-83.828606,9.600082],[-83.828476,9.600049],[-83.828406,9.600055],[-83.828218,9.600188],[-83.828168,9.600252],[-83.828089,9.600498],[-83.827846,9.601116],[-83.827739,9.601391],[-83.827808,9.601839],[-83.827787,9.602006],[-83.827592,9.602307],[-83.82756,9.60254],[-83.827332,9.602726],[-83.827331,9.602783],[-83.827248,9.602875],[-83.827135,9.602909],[-83.826797,9.603055],[-83.826757,9.603138],[-83.826772,9.603526],[-83.826569,9.603782],[-83.826444,9.603985],[-83.826442,9.604013],[-83.826556,9.604105],[-83.826735,9.60419],[-83.82679,9.60424],[-83.826796,9.604333],[-83.826708,9.604551],[-83.826538,9.605132],[-83.826247,9.605224],[-83.826099,9.605283],[-83.825933,9.605448],[-83.825499,9.605668],[-83.82537,9.605787],[-83.825313,9.606046],[-83.825335,9.606147],[-83.825076,9.606279],[-83.824809,9.606226],[-83.82464,9.606155],[-83.824423,9.60597],[-83.823981,9.605558],[-83.823804,9.605273],[-83.823688,9.605278],[-83.823681,9.605547],[-83.823694,9.605674],[-83.823743,9.605779],[-83.823762,9.605941],[-83.823748,9.605996],[-83.823665,9.606083],[-83.823597,9.606086],[-83.823345,9.606037],[-83.823186,9.605983],[-83.823106,9.605926],[-83.822611,9.605774],[-83.822516,9.605728],[-83.822416,9.605729],[-83.822366,9.60577],[-83.822324,9.606011],[-83.822717,9.606931],[-83.823012,9.607435],[-83.823101,9.607743],[-83.823011,9.608058],[-83.82301,9.608189],[-83.822939,9.608427],[-83.822851,9.608512],[-83.822706,9.608616],[-83.822698,9.608706],[-83.822882,9.608994],[-83.823174,9.609208],[-83.823073,9.609404],[-83.823041,9.609586],[-83.822985,9.60977],[-83.822699,9.610218],[-83.822633,9.61055],[-83.822584,9.61062],[-83.822523,9.610869],[-83.822431,9.611179],[-83.822366,9.611412],[-83.822306,9.611502],[-83.822091,9.611747],[-83.821935,9.611853],[-83.821712,9.611918],[-83.821261,9.612045],[-83.820639,9.61188],[-83.820341,9.611628],[-83.82007,9.611446],[-83.819973,9.611162],[-83.819896,9.611021],[-83.819818,9.610975],[-83.819558,9.610935],[-83.819308,9.610711],[-83.819123,9.610536],[-83.819017,9.610504],[-83.818818,9.610569],[-83.818469,9.610882],[-83.818115,9.611208],[-83.817863,9.61154],[-83.817795,9.61169],[-83.817746,9.611943],[-83.817655,9.612135],[-83.817566,9.612403],[-83.817573,9.612571],[-83.817615,9.612748],[-83.817591,9.612933],[-83.81751,9.61328],[-83.817471,9.613749],[-83.817461,9.613817],[-83.817406,9.61369],[-83.817203,9.613472],[-83.817161,9.6134],[-83.817132,9.613213],[-83.817208,9.613078],[-83.817181,9.612753],[-83.817231,9.61258],[-83.817283,9.612517],[-83.817282,9.612419],[-83.817032,9.612167],[-83.816929,9.612022],[-83.816877,9.611755],[-83.816831,9.611612],[-83.816941,9.611435],[-83.816839,9.611001],[-83.816872,9.610805],[-83.816803,9.610508],[-83.81675,9.610339],[-83.816709,9.609954],[-83.81674,9.60965],[-83.816705,9.608963],[-83.816947,9.608572],[-83.817445,9.608133],[-83.817635,9.607869],[-83.817846,9.607682],[-83.818052,9.607432],[-83.818153,9.606859],[-83.818117,9.606709],[-83.818075,9.606195],[-83.818086,9.605909],[-83.818122,9.605762],[-83.818241,9.605433],[-83.818452,9.605118],[-83.818015,9.604856],[-83.817602,9.604534],[-83.817312,9.604139],[-83.817776,9.603569],[-83.81838,9.60327],[-83.818753,9.603058],[-83.818994,9.60291],[-83.819191,9.60286],[-83.819423,9.602749],[-83.819507,9.602735],[-83.81973,9.602782],[-83.81996,9.602839],[-83.820235,9.602956],[-83.820277,9.602891],[-83.82054,9.602763],[-83.820603,9.602752],[-83.820963,9.602848],[-83.821226,9.603193],[-83.821335,9.603235],[-83.821564,9.603164],[-83.82165,9.603081],[-83.821736,9.603065],[-83.821941,9.602799],[-83.822068,9.602811],[-83.822143,9.602676],[-83.822387,9.602508],[-83.822409,9.602376],[-83.82251,9.602299],[-83.82266,9.602004],[-83.822793,9.601482],[-83.822706,9.601301],[-83.822749,9.601037],[-83.822633,9.600822],[-83.822654,9.600746],[-83.822708,9.6007],[-83.823041,9.60041],[-83.823316,9.600281],[-83.823923,9.599769],[-83.824527,9.599095],[-83.82522,9.5991],[-83.82611,9.598769],[-83.827247,9.598465],[-83.828007,9.598459],[-83.829032,9.598128],[-83.830286,9.597384],[-83.830989,9.596365],[-83.831222,9.595357],[-83.831661,9.594247],[-83.831722,9.594217],[-83.831821,9.594029],[-83.832248,9.593828],[-83.832217,9.593682],[-83.832546,9.593553],[-83.832522,9.59338],[-83.832333,9.59321],[-83.83215,9.593109],[-83.832306,9.59269],[-83.832397,9.59268],[-83.832421,9.592604]]]]}},{"type":"Feature","properties":{"DISTRITO":"PEJIBAYE","CANTON":"JIMENEZ","PROVINCIA":"CARTAGO","CATEGORIA":"RESERVA FORESTAL","NOMBRE_ASP":"RIO MACHO","AC":"ACC","PLANO":"3-31976-1962","TIPO_ADQ":null,"DON_VEN":null,"AREA_M2":null,"PROPIET":null,"N_FINCA":"3-77648-000","PATRIMONIO":"2620793","ANO_INSCR":null,"IDENTIFIC":null,"VALOR":null,"EXPEDIENTE":"ACLA-P-PNE-P24-012-1976","Observac":"Ubicacion aprx"},"geometry":{"type":"MultiPolygon","coordinates":[[[[-83.712315,9.770268],[-83.711971,9.772625],[-83.711375,9.772492],[-83.710496,9.772153],[-83.710027,9.771876],[-83.709287,9.771448],[-83.708665,9.771309],[-83.708535,9.771359],[-83.708213,9.771043],[-83.707962,9.771042],[-83.70774,9.770934],[-83.707658,9.770853],[-83.707286,9.77076],[-83.707007,9.770676],[-83.706751,9.770504],[-83.706446,9.770424],[-83.70619,9.77034],[-83.705754,9.770073],[-83.705459,9.769816],[-83.70529,9.769408],[-83.705169,9.769164],[-83.704795,9.768969],[-83.704484,9.768708],[-83.704374,9.768633],[-83.703928,9.768092],[-83.704354,9.765749],[-83.71233,9.770159],[-83.712315,9.770268]]]]}},{"type":"Feature","properties":{"DISTRITO":null,"CANTON":"JIMENEZ","PROVINCIA":"CARTAGO","CATEGORIA":null,"NOMBRE_ASP":null,"AC":"ACC","PLANO":"300321351962","TIPO_ADQ":null,"DON_VEN":null,"AREA_M2":null,"PROPIET":null,"N_FINCA":null,"PATRIMONIO":null,"ANO_INSCR":null,"IDENTIFIC":null,"VALOR":null,"EXPEDIENTE":"ACLA-P-PNE-P24-003-1973","Observac":"Se debe averiguar si tiene finca inscr"},"geometry":{"type":"MultiPolygon","coordinates":[[[[-83.711802,9.784291],[-83.711802,9.784291],[-83.703931,9.78333],[-83.704164,9.780773],[-83.712369,9.78078],[-83.711802,9.784291]]]]}},{"type":"Feature","properties":{"DISTRITO":"PEJIBAYE","CANTON":"JIMENEZ","PROVINCIA":"CARTAGO","CATEGORIA":"PARQUE NACIONAL","NOMBRE_ASP":"TAPANTI MACIZO DE LA MUERTE","AC":"ACC","PLANO":"3-32014-1962","TIPO_ADQ":null,"DON_VEN":null,"AREA_M2":null,"PROPIET":"ESTADO","N_FINCA":"3-77017-000","PATRIMONIO":"2620792","ANO_INSCR":null,"IDENTIFIC":null,"VALOR":null,"EXPEDIENTE":"ACLA-P-PNE-P24-008-1975","Observac":"Ubic aprx segun plano y croquis exp"},"geometry":{"type":"MultiPolygon","coordinates":[[[[-83.698705,9.768576],[-83.704174,9.76858],[-83.70417,9.773101],[-83.698701,9.773096],[-83.698705,9.768576]]]]}},{"type":"Feature","properties":{"DISTRITO":"TUCURRIQUE","CANTON":"JIMENEZ","PROVINCIA":"CARTAGO","CATEGORIA":"PARQUE NACIONAL","NOMBRE_ASP":"TAPANTI MACIZO DE LA MUERTE","AC":"CENTRAL","PLANO":"3-32011-1962","TIPO_ADQ":null,"DON_VEN":null,"AREA_M2":null,"PROPIET":"ESTADO","N_FINCA":"3-77021-000","PATRIMONIO":"2620789","ANO_INSCR":null,"IDENTIFIC":null,"VALOR":null,"EXPEDIENTE":"ACLA-P-PNE-P24-006-1975","Observac":"ubic aprx según señas plano"},"geometry":{"type":"MultiPolygon","coordinates":[[[[-83.700214,9.773228],[-83.704121,9.773232],[-83.704115,9.779561],[-83.700208,9.779558],[-83.700214,9.773228]]]]}},{"type":"Feature","properties":{"DISTRITO":null,"CANTON":null,"PROVINCIA":null,"CATEGORIA":"PARQUE NACIONAL","NOMBRE_ASP":"LOS QUETZALES","AC":"ACC","PLANO":"122724812021","TIPO_ADQ":null,"DON_VEN":null,"AREA_M2":"1052864","PROPIET":null,"N_FINCA":"1-742958-000","PATRIMONIO":null,"ANO_INSCR":"2024","IDENTIFIC":null,"VALOR":null,"EXPEDIENTE":"I-ACC-0003-2022","Observac":null},"geometry":{"type":"MultiPolygon","coordinates":[[[[-83.836593,9.624918],[-83.836461,9.624788],[-83.836264,9.624628],[-83.835997,9.624481],[-83.835669,9.624373],[-83.835346,9.624321],[-83.834958,9.624276],[-83.834587,9.624222],[-83.834327,9.624147],[-83.834103,9.624036],[-83.833894,9.623879],[-83.833706,9.623687],[-83.8335,9.623435],[-83.833295,9.623177],[-83.833042,9.62291],[-83.832719,9.622634],[-83.832425,9.622409],[-83.832154,9.622197],[-83.83188,9.621969],[-83.831699,9.621777],[-83.831576,9.621561],[-83.831491,9.621326],[-83.831499,9.621052],[-83.831557,9.620808],[-83.831655,9.620536],[-83.83179,9.620183],[-83.831902,9.619885],[-83.832007,9.619599],[-83.832088,9.619265],[-83.832095,9.619018],[-83.832062,9.618775],[-83.831988,9.618532],[-83.831873,9.61831],[-83.831722,9.618109],[-83.831531,9.617933],[-83.831316,9.617796],[-83.831095,9.617698],[-83.830903,9.617649],[-83.830721,9.617627],[-83.830392,9.617642],[-83.829996,9.617753],[-83.829574,9.617909],[-83.829246,9.618034],[-83.828864,9.618178],[-83.82845,9.618334],[-83.828077,9.618475],[-83.827611,9.618642],[-83.827353,9.618725],[-83.827089,9.618765],[-83.826839,9.618757],[-83.826601,9.618699],[-83.826358,9.618588],[-83.826113,9.618404],[-83.826019,9.618301],[-83.825933,9.618196],[-83.825719,9.617892],[-83.825497,9.617568],[-83.825286,9.617324],[-83.824986,9.617086],[-83.824789,9.616983],[-83.824473,9.616866],[-83.824191,9.616818],[-83.824021,9.616803],[-83.823616,9.616787],[-83.823134,9.616772],[-83.822728,9.616756],[-83.822431,9.616738],[-83.822042,9.616697],[-83.821691,9.616631],[-83.821324,9.616538],[-83.820719,9.616341],[-83.820425,9.616237],[-83.820079,9.616117],[-83.819636,9.615961],[-83.819225,9.615815],[-83.818729,9.61458],[-83.818273,9.614496],[-83.818095,9.614529],[-83.818019,9.614621],[-83.818047,9.614516],[-83.818022,9.614395],[-83.817963,9.614268],[-83.817884,9.614157],[-83.817766,9.614026],[-83.817592,9.613862],[-83.8176,9.61359],[-83.817664,9.613208],[-83.817714,9.612958],[-83.817726,9.612732],[-83.817677,9.612429],[-83.817859,9.611995],[-83.817914,9.611723],[-83.818114,9.61141],[-83.818341,9.611193],[-83.818759,9.610814],[-83.818893,9.610677],[-83.819004,9.610639],[-83.819103,9.610675],[-83.819476,9.611011],[-83.819572,9.611061],[-83.81977,9.611106],[-83.819861,9.611177],[-83.819928,9.611445],[-83.82005,9.611576],[-83.820528,9.611956],[-83.820898,9.612078],[-83.821263,9.612173],[-83.821763,9.612047],[-83.822163,9.611853],[-83.822341,9.612026],[-83.822766,9.612556],[-83.822974,9.612848],[-83.823257,9.613054],[-83.82378,9.613191],[-83.824136,9.61308],[-83.82503,9.613273],[-83.825315,9.613473],[-83.826013,9.613389],[-83.827371,9.612503],[-83.827627,9.612038],[-83.827644,9.611855],[-83.827911,9.611553],[-83.828258,9.611351],[-83.828755,9.611172],[-83.829641,9.610485],[-83.829668,9.610494],[-83.829796,9.610624],[-83.830305,9.611561],[-83.831038,9.612759],[-83.83122,9.613779],[-83.831521,9.615236],[-83.831964,9.616103],[-83.832629,9.617249],[-83.832864,9.618618],[-83.833267,9.619967],[-83.833409,9.620683],[-83.833525,9.621019],[-83.833897,9.620837],[-83.834679,9.620997],[-83.835163,9.621958],[-83.836048,9.622603],[-83.83678,9.622892],[-83.837812,9.624197],[-83.838186,9.624554],[-83.838182,9.624563],[-83.837911,9.624867],[-83.837604,9.625087],[-83.837296,9.625129],[-83.837034,9.624841],[-83.836885,9.624899],[-83.83666,9.624856],[-83.836593,9.624918]]]]}},{"type":"Feature","properties":{"DISTRITO":"COPEY","CANTON":"DOTA","PROVINCIA":"SAN JOSE","CATEGORIA":"PARQUE NACIONAL","NOMBRE_ASP":"LOS QUETZALES","AC":"ACC","PLANO":"3-2251046-2020","TIPO_ADQ":null,"DON_VEN":null,"AREA_M2":"1256659","PROPIET":"ESTADO MINAE","N_FINCA":"1-742907-000","PATRIMONIO":null,"ANO_INSCR":"2024","IDENTIFIC":null,"VALOR":null,"EXPEDIENTE":"I-ACC-0002-2022","Observac":null},"geometry":{"type":"MultiPolygon","coordinates":[[[[-83.842913,9.639621],[-83.842825,9.639461],[-83.842774,9.639342],[-83.842736,9.639227],[-83.842697,9.639078],[-83.842671,9.638938],[-83.842652,9.638756],[-83.842647,9.638477],[-83.842648,9.638244],[-83.84265,9.638051],[-83.842653,9.637697],[-83.842648,9.637491],[-83.842632,9.637293],[-83.842625,9.637138],[-83.842607,9.636933],[-83.842583,9.636721],[-83.842569,9.636569],[-83.842543,9.636295],[-83.84253,9.636049],[-83.842533,9.635857],[-83.842556,9.635416],[-83.842605,9.635075],[-83.842638,9.63486],[-83.842777,9.634267],[-83.842857,9.633929],[-83.842872,9.633842],[-83.842854,9.63362],[-83.842823,9.633488],[-83.842796,9.633414],[-83.84276,9.633344],[-83.842713,9.633278],[-83.842668,9.633227],[-83.842621,9.63318],[-83.842562,9.63313],[-83.8425,9.633089],[-83.842431,9.633055],[-83.842361,9.633028],[-83.84229,9.63301],[-83.842221,9.632999],[-83.842137,9.632994],[-83.841889,9.633037],[-83.841681,9.633125],[-83.841288,9.633326],[-83.841037,9.633443],[-83.84079,9.633536],[-83.840532,9.633601],[-83.840233,9.633637],[-83.840128,9.633635],[-83.839985,9.63361],[-83.839899,9.633573],[-83.839854,9.633544],[-83.839782,9.633472],[-83.839738,9.633405],[-83.839703,9.633318],[-83.839686,9.633222],[-83.839694,9.633117],[-83.839714,9.633021],[-83.839774,9.632884],[-83.839823,9.63278],[-83.839913,9.632613],[-83.839994,9.632466],[-83.840217,9.632033],[-83.840317,9.631788],[-83.840359,9.631597],[-83.840371,9.631482],[-83.840376,9.631364],[-83.840364,9.631227],[-83.840337,9.631115],[-83.840297,9.630987],[-83.840248,9.630875],[-83.840191,9.630771],[-83.840099,9.630648],[-83.840019,9.63056],[-83.839917,9.630475],[-83.839793,9.630389],[-83.839682,9.630329],[-83.839575,9.630287],[-83.839324,9.630209],[-83.838029,9.629902],[-83.83776,9.629838],[-83.837632,9.629792],[-83.837544,9.62975],[-83.837451,9.629679],[-83.837383,9.629606],[-83.837321,9.629476],[-83.837308,9.629354],[-83.837316,9.629278],[-83.837343,9.629187],[-83.837391,9.629103],[-83.837506,9.628971],[-83.837652,9.628833],[-83.837842,9.628665],[-83.83807,9.628465],[-83.838374,9.628203],[-83.838635,9.627979],[-83.838915,9.627738],[-83.839069,9.62759],[-83.839149,9.627497],[-83.839216,9.627407],[-83.839283,9.627293],[-83.839354,9.627126],[-83.83939,9.626993],[-83.83939,9.626655],[-83.839319,9.626401],[-83.839262,9.626289],[-83.839197,9.626184],[-83.839109,9.626078],[-83.839014,9.625991],[-83.838797,9.625854],[-83.83856,9.62577],[-83.838431,9.625745],[-83.838258,9.625732],[-83.837971,9.625732],[-83.837827,9.625734],[-83.837542,9.625718],[-83.837428,9.625695],[-83.837312,9.625652],[-83.837214,9.625597],[-83.837126,9.625521],[-83.83704,9.625432],[-83.836911,9.625281],[-83.83681,9.625162],[-83.836701,9.625035],[-83.83668,9.625011],[-83.8367,9.624993],[-83.836897,9.625031],[-83.836999,9.624991],[-83.837247,9.625263],[-83.837653,9.625208],[-83.837997,9.624961],[-83.838292,9.624632],[-83.838493,9.624846],[-83.838951,9.624965],[-83.83992,9.624654],[-83.840554,9.62472],[-83.841486,9.625303],[-83.841657,9.625341],[-83.843051,9.624947],[-83.844595,9.625913],[-83.844799,9.62579],[-83.844796,9.626108],[-83.845343,9.626113],[-83.847531,9.627635],[-83.847548,9.629758],[-83.848019,9.629651],[-83.848663,9.629899],[-83.848886,9.63003],[-83.849141,9.630187],[-83.849291,9.630384],[-83.849713,9.630401],[-83.850035,9.630289],[-83.850158,9.630174],[-83.850531,9.629927],[-83.850812,9.629798],[-83.850965,9.629787],[-83.851012,9.629801],[-83.85121,9.630334],[-83.849406,9.634368],[-83.848591,9.634959],[-83.84675,9.637067],[-83.844433,9.638777],[-83.842913,9.639621]]]]}},{"type":"Feature","properties":{"DISTRITO":"OROSI","CANTON":"PARAISO","PROVINCIA":"CARTAGO","CATEGORIA":"PARQUE NACIONAL","NOMBRE_ASP":"TAPANTI MACIZO DE LA MUERTE","AC":"ACC","PLANO":"300011831972","TIPO_ADQ":"COMPRA","DON_VEN":null,"AREA_M2":"2415772","PROPIET":"ESTADO","N_FINCA":"3-73055-000","PATRIMONIO":"2620799","ANO_INSCR":null,"IDENTIFIC":null,"VALOR":null,"EXPEDIENTE":"3-73055-000","Observac":null},"geometry":{"type":"MultiPolygon","coordinates":[[[[-83.883617,9.751021],[-83.883617,9.751021],[-83.882499,9.753789],[-83.881232,9.75406],[-83.880248,9.753617],[-83.879538,9.751709],[-83.877956,9.749299],[-83.877548,9.74906],[-83.877044,9.749246],[-83.875872,9.748681],[-83.874604,9.747663],[-83.874078,9.747513],[-83.872138,9.748146],[-83.871702,9.748691],[-83.870547,9.748989],[-83.870268,9.748946],[-83.868965,9.747986],[-83.868114,9.747784],[-83.866618,9.747235],[-83.865452,9.746941],[-83.865532,9.745814],[-83.864003,9.745007],[-83.861989,9.745854],[-83.860744,9.74466],[-83.860539,9.743779],[-83.862781,9.741914],[-83.863535,9.742542],[-83.866206,9.741883],[-83.865391,9.740683],[-83.868266,9.739532],[-83.871984,9.743632],[-83.873311,9.743538],[-83.874017,9.743122],[-83.874604,9.74337],[-83.874904,9.743908],[-83.875744,9.745034],[-83.875945,9.745031],[-83.875758,9.744257],[-83.876001,9.743919],[-83.876304,9.744066],[-83.876667,9.743944],[-83.876879,9.743684],[-83.876887,9.74325],[-83.877236,9.743144],[-83.877602,9.743413],[-83.878018,9.74346],[-83.878086,9.742986],[-83.878653,9.743549],[-83.87919,9.743648],[-83.879747,9.74305],[-83.880597,9.742523],[-83.880703,9.742925],[-83.880359,9.743045],[-83.880598,9.743776],[-83.88129,9.743031],[-83.882366,9.74323],[-83.883043,9.743498],[-83.883744,9.743299],[-83.883617,9.751021]]]]}},{"type":"Feature","properties":{"DISTRITO":"OROSI","CANTON":"PARAISO","PROVINCIA":"CARTAGO","CATEGORIA":"PARQUE NACIONAL","NOMBRE_ASP":"TAPANTI MACIZO DE LA MUERTE","AC":"ACC","PLANO":"C-0920396-1990","TIPO_ADQ":"COMPRA","DON_VEN":null,"AREA_M2":null,"PROPIET":null,"N_FINCA":"3-129516-000","PATRIMONIO":null,"ANO_INSCR":null,"IDENTIFIC":null,"VALOR":null,"EXPEDIENTE":null,"Observac":null},"geometry":{"type":"MultiPolygon","coordinates":[[[[-83.690358,9.553436],[-83.69013,9.554192],[-83.689874,9.554281],[-83.68981,9.553323],[-83.690358,9.553438],[-83.690358,9.553436]]]]}},{"type":"Feature","properties":{"DISTRITO":null,"CANTON":null,"PROVINCIA":null,"CATEGORIA":null,"NOMBRE_ASP":null,"AC":"ACC","PLANO":"C-825-1963","TIPO_ADQ":null,"DON_VEN":null,"AREA_M2":null,"PROPIET":null,"N_FINCA":"3-25001-000","PATRIMONIO":null,"ANO_INSCR":null,"IDENTIFIC":null,"VALOR":null,"EXPEDIENTE":"ACLA-P-PNE-P24-002-1975","Observac":null},"geometry":{"type":"MultiPolygon","coordinates":[[[[-83.801796,9.765655],[-83.795078,9.765651],[-83.79509,9.746889],[-83.800558,9.746892],[-83.806017,9.754635],[-83.802723,9.763597],[-83.803805,9.76462],[-83.804168,9.765395],[-83.803202,9.765378],[-83.802083,9.76585],[-83.801846,9.76609],[-83.801796,9.765655]]]]}}]}