{"type":"FeatureCollection","features":[{"type":"Feature","properties":{"id":"26","distrito":"PEJIBAYE","canton":"JIMENEZ","provincia":"CARTAGO","categoria":"PARQUE NACIONAL","nombre_asp":"TAPANTI_MACIZO_DE_LA_MUERTE","ac":"ACC","plano":"C-0007442-1968","tipo_adq":"REUNION_DE_FINCAS","don_ven":"NO_HAY_DATOS","area_m2":"299.272692177224","propiet":"ESTADO","n_finca":"3-0191676-000","patrimonio":"2620791","ano_inscr":"1978","identific":"30402019167600","valor":"¢14.434.166.850,00","expediente":"NO_HAY_DATOS","codigo_provincia":0,"codigo_canton":0,"codigo_distrito":0,"tramite_key":"Qy0wMDA3NDQyLTE5Njg6OjMtMDE5MTY3Ni0wMDA=","asp_id":0},"geometry":{"type":"MultiPolygon","coordinates":[[[[-83.702735,9.780594],[-83.693635,9.782062],[-83.69227,9.776896],[-83.68746,9.769805],[-83.687548,9.769765],[-83.687748,9.76985],[-83.688301,9.769083],[-83.689698,9.768809],[-83.689714,9.768304],[-83.689246,9.766948],[-83.683946,9.764977],[-83.683382,9.764378],[-83.68293,9.76414],[-83.682971,9.763352],[-83.683207,9.762968],[-83.682406,9.762551],[-83.682437,9.761949],[-83.682962,9.761374],[-83.68281,9.758972],[-83.685007,9.758947],[-83.685373,9.758815],[-83.686336,9.757011],[-83.687496,9.75671],[-83.689034,9.757278],[-83.695242,9.761667],[-83.698665,9.75868],[-83.697893,9.771281],[-83.702735,9.780594]]]]}},{"type":"Feature","properties":{"id":null,"distrito":null,"canton":null,"provincia":null,"categoria":null,"nombre_asp":null,"ac":null,"plano":"3-32012-1962","tipo_adq":null,"don_ven":null,"area_m2":"29.9999000000005","propiet":null,"n_finca":"3-70384-000","patrimonio":null,"ano_inscr":null,"identific":null,"valor":null,"expediente":"ACLA-P-PNE-P24-013-1973","codigo_provincia":0,"codigo_canton":0,"codigo_distrito":0,"tramite_key":"My0zMjAxMi0xOTYyOjozLTcwMzg0LTAwMA==","asp_id":0},"geometry":{"type":"MultiPolygon","coordinates":[[[[-83.704444,9.777543],[-83.712258,9.77755],[-83.712255,9.780714],[-83.704442,9.780708],[-83.704444,9.777543]]]]}},{"type":"Feature","properties":{"id":"12","distrito":"PEJIBAYE","canton":"JIMENEZ","provincia":"CARTAGO","categoria":"PARQUE NACIONAL","nombre_asp":"TAPANTI_MACIZO_DE_LA_MUERTE","ac":"ACC","plano":"C-0005546-1973","tipo_adq":"TRASLADO_DE_FINCA","don_ven":"NO_HAY_DATOS","area_m2":"9.99775928752557","propiet":"ESTADO","n_finca":"3-0052195-000","patrimonio":"2620787","ano_inscr":"1976","identific":"30403005219500","valor":"¢492.000.000,00","expediente":"NO_HAY_DATOS","codigo_provincia":0,"codigo_canton":0,"codigo_distrito":0,"tramite_key":"Qy0wMDA1NTQ2LTE5NzM6OjMtMDA1MjE5NS0wMDA=","asp_id":0},"geometry":{"type":"MultiPolygon","coordinates":[[[[-83.715976,9.76947],[-83.71233,9.769463],[-83.712335,9.767203],[-83.71598,9.76721],[-83.715976,9.76947]]]]}},{"type":"Feature","properties":{"id":null,"distrito":null,"canton":null,"provincia":null,"categoria":null,"nombre_asp":null,"ac":"ACC","plano":"3-32145-1962","tipo_adq":null,"don_ven":null,"area_m2":"7.71466210039207","propiet":null,"n_finca":"3-85067-000","patrimonio":null,"ano_inscr":null,"identific":null,"valor":null,"expediente":null,"codigo_provincia":0,"codigo_canton":0,"codigo_distrito":0,"tramite_key":"My0zMjE0NS0xOTYyOjozLTg1MDY3LTAwMA==","asp_id":0},"geometry":{"type":"MultiPolygon","coordinates":[[[[-83.712316,9.779027],[-83.712316,9.779027],[-83.71609,9.779031],[-83.716089,9.780495],[-83.715095,9.780624],[-83.713369,9.781082],[-83.712798,9.780692],[-83.712316,9.779968],[-83.712316,9.779027]]]]}},{"type":"Feature","properties":{"id":"4","distrito":"PEJIBAYE","canton":"JIMENEZ","provincia":"CARTAGO","categoria":"PARQUE NACIONAL","nombre_asp":"TAPANTI_MACIZO_DE_LA_MUERTE","ac":"ACC","plano":"C-0000605-1973","tipo_adq":"NO_HAY_DATOS","don_ven":"NO_HAY_DATOS","area_m2":"19.9808371118092","propiet":"ESTADO","n_finca":"3-0166471-000","patrimonio":"2620784","ano_inscr":"1998","identific":"30403016647100","valor":"¢5.584.200.000,00","expediente":"NO_HAY_DATOS","codigo_provincia":0,"codigo_canton":0,"codigo_distrito":0,"tramite_key":"Qy0wMDAwNjA1LTE5NzM6OjMtMDE2NjQ3MS0wMDA=","asp_id":0},"geometry":{"type":"MultiPolygon","coordinates":[[[[-83.716725,9.775317],[-83.716693,9.779027],[-83.712265,9.779012],[-83.712286,9.775295],[-83.716725,9.775317]]]]}},{"type":"Feature","properties":{"id":"6","distrito":"PEJIBAYE","canton":"JIMENEZ","provincia":"CARTAGO","categoria":"PARQUE NACIONAL","nombre_asp":"TAPANTI_MACIZO_DE_LA_MUERTE","ac":"ACC","plano":"C-0000605-1973","tipo_adq":"NO_HAY_DATOS","don_ven":"NO_HAY_DATOS","area_m2":"35.1254501477255","propiet":"ESTADO","n_finca":"3-0166471-000","patrimonio":"2620784","ano_inscr":"1998","identific":"30403016647100","valor":"¢5.584.200.000,00","expediente":"NO_HAY_DATOS","codigo_provincia":0,"codigo_canton":0,"codigo_distrito":0,"tramite_key":"Qy0wMDAwNjA1LTE5NzM6OjMtMDE2NjQ3MS0wMDA=","asp_id":0},"geometry":{"type":"MultiPolygon","coordinates":[[[[-83.712282,9.775293],[-83.712319,9.769417],[-83.715858,9.769426],[-83.715896,9.766235],[-83.716783,9.766243],[-83.716721,9.775305],[-83.712282,9.775293]]]]}},{"type":"Feature","properties":{"id":"23","distrito":"PEJIBAYE","canton":"JIMENEZ","provincia":"CARTAGO","categoria":"PARQUE NACIONAL","nombre_asp":"TAPANTI_MACIZO_DE_LA_MUERTE","ac":"ACC","plano":"C-0007198-1974","tipo_adq":"NO_HAY_DATOS","don_ven":"NO_HAY_DATOS","area_m2":"90.9814031394934","propiet":"ESTADO","n_finca":"3-0093285-000","patrimonio":"2620794","ano_inscr":"1976","identific":"30403009328500","valor":"¢2.460.088.412,4","expediente":"NO_HAY_DATOS","codigo_provincia":0,"codigo_canton":0,"codigo_distrito":0,"tramite_key":"Qy0wMDA3MTk4LTE5NzQ6OjMtMDA5MzI4NS0wMDA=","asp_id":0},"geometry":{"type":"MultiPolygon","coordinates":[[[[-83.717537,9.767375],[-83.723608,9.757271],[-83.729093,9.760479],[-83.723053,9.77058],[-83.717537,9.767375]]]]}},{"type":"Feature","properties":{"id":"32","distrito":"SANTA_TERESITA","canton":"TURRIALBA","provincia":"CARTAGO","categoria":"PARQUE NACIONAL","nombre_asp":"TAPANTI_MACIZO_DE_LA_MUERTE","ac":"ACC","plano":"C-0004174-1973","tipo_adq":"TRASLADO_DE_FINCA(OFICIO)","don_ven":"NO_HAY_DATOS","area_m2":"19.0768456409261","propiet":"ESTADO","n_finca":"40754","patrimonio":"NO_HAY_DATOS","ano_inscr":"1975","identific":"30402004075400","valor":"¢4.833.721.896","expediente":"NO_HAY_DATOS","codigo_provincia":0,"codigo_canton":0,"codigo_distrito":0,"tramite_key":"Qy0wMDA0MTc0LTE5NzM6OjQwNzU0","asp_id":0},"geometry":{"type":"MultiPolygon","coordinates":[[[[-83.745283,9.775388],[-83.745286,9.773806],[-83.743691,9.773803],[-83.743195,9.770864],[-83.74757,9.770872],[-83.747561,9.775392],[-83.745283,9.775388]]]]}},{"type":"Feature","properties":{"id":"23","distrito":"PEJIBAYE","canton":"JIMENEZ","provincia":"CARTAGO","categoria":"PARQUE NACIONAL","nombre_asp":"TAPANTI_MACIZO_DE_LA_MUERTE","ac":"ACC","plano":"C-0492564-1983","tipo_adq":"DONACION","don_ven":"NO_HAY_DATOS","area_m2":"0.736530288803977","propiet":"ESTADO","n_finca":"3-0137965-000","patrimonio":"2455445","ano_inscr":"2004","identific":"30403013796500","valor":"¢2.777.352.792","expediente":"NO_HAY_DATOS","codigo_provincia":0,"codigo_canton":0,"codigo_distrito":0,"tramite_key":"Qy0wNDkyNTY0LTE5ODM6OjMtMDEzNzk2NS0wMDA=","asp_id":0},"geometry":{"type":"MultiPolygon","coordinates":[[[[-83.77486,9.777586],[-83.774757,9.777381],[-83.774384,9.777172],[-83.774346,9.77713],[-83.773981,9.777051],[-83.773878,9.777017],[-83.77363,9.776802],[-83.773546,9.776697],[-83.773482,9.776527],[-83.773218,9.776216],[-83.773119,9.77606],[-83.773248,9.775831],[-83.773455,9.77607],[-83.773566,9.776208],[-83.773764,9.776482],[-83.773819,9.776744],[-83.774151,9.776934],[-83.774357,9.776962],[-83.774734,9.777257],[-83.775117,9.77726],[-83.775456,9.777574],[-83.775546,9.777749],[-83.775432,9.777629],[-83.775218,9.777533],[-83.775125,9.777574],[-83.77502,9.777581],[-83.77486,9.777586]]]]}},{"type":"Feature","properties":{"id":"0","distrito":"PEJIBAYE","canton":"JIMENEZ","provincia":"CARTAGO","categoria":"PARQUE NACIONAL","nombre_asp":"TAPANTI_MACIZO_DE_LA_MUERTE","ac":"ACC","plano":"3-32730-1963","tipo_adq":"DONACION","don_ven":null,"area_m2":"76.8832447188106","propiet":"EL ESTADO","n_finca":"3-74651-000","patrimonio":null,"ano_inscr":null,"identific":null,"valor":null,"expediente":null,"codigo_provincia":0,"codigo_canton":0,"codigo_distrito":0,"tramite_key":"My0zMjczMC0xOTYzOjozLTc0NjUxLTAwMA==","asp_id":0},"geometry":{"type":"MultiPolygon","coordinates":[[[[-83.777537,9.785212],[-83.772805,9.785209],[-83.772808,9.780591],[-83.771804,9.779362],[-83.771353,9.778821],[-83.771199,9.778664],[-83.770919,9.777971],[-83.77086,9.777592],[-83.770774,9.776753],[-83.769563,9.776675],[-83.769565,9.773799],[-83.770501,9.769624],[-83.774269,9.770988],[-83.773072,9.772504],[-83.773069,9.776971],[-83.776264,9.778176],[-83.776785,9.778598],[-83.778064,9.779129],[-83.777872,9.779407],[-83.777541,9.779718],[-83.777537,9.785212]]],[[[-83.777537,9.78524],[-83.777537,9.785212],[-83.777591,9.785212],[-83.777537,9.78524]]]]}},{"type":"Feature","properties":{"id":"44","distrito":"PEJIBAYE","canton":"JIMENEZ","provincia":"CARTAGO","categoria":"PARQUE NACIONAL","nombre_asp":"TAPANTI_MACIZO_DE_LA_MUERTE","ac":"ACC","plano":"C-0492564-1983","tipo_adq":"DONACION","don_ven":"NO_HAY_DATOS","area_m2":"32.2084951206133","propiet":"ESTADO","n_finca":"3-0137965-000","patrimonio":"2455445","ano_inscr":"2004","identific":"30403013796500","valor":"¢2.777.352.792","expediente":"NO_HAY_DATOS","codigo_provincia":0,"codigo_canton":0,"codigo_distrito":0,"tramite_key":"Qy0wNDkyNTY0LTE5ODM6OjMtMDEzNzk2NS0wMDA=","asp_id":0},"geometry":{"type":"MultiPolygon","coordinates":[[[[-83.773232,9.77569],[-83.773297,9.775557],[-83.77338,9.775389],[-83.77362,9.774743],[-83.773886,9.77399],[-83.774046,9.773408],[-83.774058,9.773366],[-83.774139,9.773131],[-83.774345,9.772534],[-83.774545,9.772085],[-83.774736,9.771531],[-83.774935,9.770832],[-83.774843,9.770451],[-83.774824,9.770082],[-83.77537,9.770454],[-83.775973,9.771135],[-83.776412,9.771592],[-83.777007,9.772278],[-83.777155,9.772416],[-83.777555,9.772568],[-83.777806,9.772725],[-83.77802,9.773087],[-83.778049,9.77366],[-83.778082,9.774232],[-83.779874,9.775893],[-83.780218,9.776429],[-83.780188,9.776632],[-83.780234,9.776773],[-83.780181,9.776855],[-83.779763,9.776907],[-83.77952,9.776838],[-83.77949,9.776765],[-83.779314,9.776735],[-83.779121,9.77673],[-83.77866,9.777282],[-83.77909,9.777476],[-83.779305,9.777665],[-83.779269,9.777805],[-83.779145,9.777842],[-83.778911,9.777642],[-83.778649,9.777605],[-83.77842,9.777542],[-83.778238,9.777411],[-83.778155,9.777408],[-83.777904,9.777488],[-83.77775,9.777381],[-83.777558,9.777081],[-83.777213,9.77689],[-83.776692,9.776926],[-83.776431,9.776726],[-83.77614,9.776683],[-83.77591,9.776762],[-83.775906,9.77686],[-83.77623,9.777022],[-83.776483,9.777326],[-83.776448,9.777377],[-83.775881,9.777083],[-83.77536,9.776971],[-83.775217,9.776978],[-83.77507,9.777116],[-83.774722,9.777132],[-83.774325,9.776843],[-83.774125,9.776814],[-83.773811,9.776633],[-83.773773,9.776385],[-83.773647,9.776192],[-83.773568,9.776105],[-83.773444,9.775957],[-83.773232,9.77569]]]]}},{"type":"Feature","properties":{"id":"63","distrito":"PEJIBAYE","canton":"JIMENEZ","provincia":"CARTAGO","categoria":"PARQUE NACIONAL","nombre_asp":"TAPANTI_MACIZO_DE_LA_MUERTE","ac":"ACC","plano":"C-0492564-1983","tipo_adq":"DONACION","don_ven":"NO_HAY_DATOS","area_m2":"23.1961596815039","propiet":"ESTADO","n_finca":"3-0137965-000","patrimonio":"2455445","ano_inscr":"2004","identific":"30403013796500","valor":"¢2.777.352.792","expediente":"NO_HAY_DATOS","codigo_provincia":0,"codigo_canton":0,"codigo_distrito":0,"tramite_key":"Qy0wNDkyNTY0LTE5ODM6OjMtMDEzNzk2NS0wMDA=","asp_id":0},"geometry":{"type":"MultiPolygon","coordinates":[[[[-83.781268,9.782237],[-83.780437,9.781691],[-83.780105,9.78147],[-83.779353,9.780185],[-83.779258,9.779731],[-83.779126,9.779267],[-83.778687,9.778824],[-83.778443,9.77872],[-83.778375,9.778633],[-83.777934,9.778615],[-83.777576,9.778344],[-83.777421,9.778177],[-83.777051,9.778125],[-83.776939,9.777765],[-83.7767,9.777691],[-83.776339,9.777505],[-83.776103,9.777468],[-83.775978,9.777536],[-83.775771,9.777745],[-83.775688,9.777783],[-83.77558,9.777511],[-83.775281,9.777231],[-83.775315,9.777094],[-83.775463,9.777065],[-83.775959,9.777159],[-83.776317,9.777379],[-83.776585,9.777503],[-83.776664,9.777505],[-83.776729,9.777389],[-83.776374,9.777027],[-83.776076,9.776861],[-83.776199,9.7768],[-83.776515,9.776809],[-83.776736,9.777035],[-83.777311,9.776975],[-83.777605,9.777147],[-83.777826,9.777457],[-83.77797,9.777569],[-83.778108,9.777603],[-83.778267,9.777484],[-83.778349,9.777507],[-83.778497,9.777608],[-83.778719,9.777687],[-83.778986,9.777703],[-83.779291,9.777951],[-83.779359,9.777953],[-83.779434,9.777896],[-83.779479,9.777816],[-83.779572,9.77764],[-83.779221,9.77741],[-83.778924,9.777288],[-83.779277,9.776876],[-83.779359,9.776827],[-83.779447,9.77683],[-83.779859,9.776957],[-83.779968,9.776954],[-83.780357,9.7769],[-83.780384,9.776757],[-83.780348,9.776505],[-83.780692,9.776785],[-83.78153,9.777511],[-83.781917,9.777919],[-83.783925,9.780035],[-83.781268,9.782237]]]]}},{"type":"Feature","properties":{"id":null,"distrito":"Orosi","canton":"Paraiso","provincia":"Cartago","categoria":"Parque Nacional","nombre_asp":"Tapanti MAcizo de la Muerte","ac":"ACLAP","plano":"301588111993","tipo_adq":"Compra","don_ven":"No indica","area_m2":"90.0353603871623","propiet":"El Estado","n_finca":"46315","patrimonio":"2455522","ano_inscr":"2000","identific":"30203004631500","valor":"₡8 859 481 293,60","expediente":"No hay","codigo_provincia":0,"codigo_canton":0,"codigo_distrito":0,"tramite_key":"MzAxNTg4MTExOTkzOjo0NjMxNQ==","asp_id":0},"geometry":{"type":"MultiPolygon","coordinates":[[[[-83.783079,9.740268],[-83.783179,9.740742],[-83.783529,9.741786],[-83.784044,9.742593],[-83.784396,9.743453],[-83.783056,9.743983],[-83.782195,9.745417],[-83.782078,9.747454],[-83.78219,9.749064],[-83.78289,9.750139],[-83.782959,9.751638],[-83.783658,9.752504],[-83.784342,9.753573],[-83.782993,9.753558],[-83.782086,9.753482],[-83.778677,9.75333],[-83.775817,9.752957],[-83.776031,9.750293],[-83.776054,9.749656],[-83.776876,9.749716],[-83.776976,9.748643],[-83.777039,9.745977],[-83.777218,9.745071],[-83.778461,9.745162],[-83.778574,9.744371],[-83.77869,9.742207],[-83.778855,9.739964],[-83.783079,9.740268]]]]}},{"type":"Feature","properties":{"id":null,"distrito":"Orosi","canton":"Paraiso","provincia":"Cartago","categoria":"Parque Nacional","nombre_asp":"Tapanti MAcizo de la Muerte","ac":"ACLAP","plano":"300301751956","tipo_adq":"No indica","don_ven":"No indica","area_m2":"19.6917851881715","propiet":"El Estado","n_finca":"76469","patrimonio":"219003319","ano_inscr":"1975","identific":"30203007646900","valor":"₡1 397 935 920,00","expediente":"No hay","codigo_provincia":0,"codigo_canton":0,"codigo_distrito":0,"tramite_key":"MzAwMzAxNzUxOTU2Ojo3NjQ2OQ==","asp_id":0},"geometry":{"type":"MultiPolygon","coordinates":[[[[-83.810292,9.734589],[-83.809724,9.734716],[-83.809031,9.734814],[-83.807834,9.734909],[-83.805136,9.730665],[-83.805323,9.730621],[-83.805938,9.730239],[-83.806933,9.730035],[-83.807871,9.729655],[-83.808657,9.729226],[-83.810292,9.734589]]]]}},{"type":"Feature","properties":{"id":"103","distrito":"COPEY","canton":"DOTA","provincia":"SON_JOSE","categoria":"NO HAY DATOS","nombre_asp":"NO_HAY_DATOS","ac":"ACC","plano":"SJ-1022660-2005","tipo_adq":"NO_HAY_DATOS","don_ven":"NO_HAY_DATOS","area_m2":"49.9309684281869","propiet":"ESTADO","n_finca":"1-0212139-000","patrimonio":"219008572","ano_inscr":"NO_HAY_DATOS","identific":"11703021213900","valor":"NO_HAY_DATOS","expediente":"NO_HAY_DATOS","codigo_provincia":0,"codigo_canton":0,"codigo_distrito":0,"tramite_key":"U0otMTAyMjY2MC0yMDA1OjoxLTAyMTIxMzktMDAw","asp_id":0},"geometry":{"type":"MultiPolygon","coordinates":[[[[-83.833726,9.590989],[-83.833264,9.591172],[-83.833224,9.591245],[-83.832621,9.591418],[-83.832457,9.591483],[-83.832332,9.59145],[-83.832031,9.591385],[-83.831889,9.591385],[-83.831588,9.591424],[-83.831493,9.591471],[-83.831159,9.59204],[-83.831083,9.59217],[-83.830903,9.592399],[-83.830702,9.592519],[-83.830615,9.592701],[-83.830782,9.592804],[-83.831048,9.592667],[-83.831465,9.592528],[-83.831612,9.592433],[-83.831823,9.592262],[-83.832037,9.59222],[-83.832533,9.592408],[-83.832628,9.592444],[-83.83239,9.59243],[-83.832239,9.592446],[-83.832029,9.592663],[-83.831959,9.59292],[-83.832218,9.593073],[-83.832331,9.593206],[-83.832331,9.593348],[-83.832064,9.593456],[-83.831976,9.593646],[-83.831548,9.593849],[-83.831423,9.593786],[-83.831127,9.593837],[-83.830188,9.594151],[-83.829602,9.594499],[-83.828821,9.594616],[-83.828495,9.594756],[-83.828468,9.594805],[-83.828353,9.594995],[-83.828173,9.595031],[-83.82799,9.595008],[-83.827016,9.595261],[-83.826471,9.595601],[-83.826107,9.596089],[-83.825435,9.59635],[-83.825098,9.596243],[-83.824774,9.596081],[-83.824481,9.595772],[-83.824129,9.595537],[-83.82402,9.595434],[-83.82675,9.588926],[-83.826823,9.588965],[-83.82713,9.588965],[-83.827366,9.589005],[-83.827504,9.589005],[-83.827864,9.588721],[-83.82812,9.588263],[-83.828166,9.58796],[-83.828759,9.588208],[-83.829235,9.588261],[-83.829982,9.588565],[-83.830461,9.588958],[-83.830611,9.589015],[-83.832251,9.590072],[-83.833411,9.590619],[-83.833642,9.590853],[-83.833726,9.590989]]]]}},{"type":"Feature","properties":{"id":"103","distrito":"COPEY","canton":"DOTA","provincia":"SAN_JOSE","categoria":"RESERVA FORESTAL","nombre_asp":"LOS_SANTOS","ac":"ACC","plano":"SJ-0446517-1997","tipo_adq":"INSCRIPCION_TERRENO_BALDIO","don_ven":"NO_HAY_DATOS","area_m2":"164.704164382181","propiet":"ESTADO","n_finca":"1-0510586-000","patrimonio":"2455526","ano_inscr":"2000","identific":"11703051058600","valor":"¢2.156.420.498,54","expediente":"RFLS001","codigo_provincia":0,"codigo_canton":0,"codigo_distrito":0,"tramite_key":"U0otMDQ0NjUxNy0xOTk3OjoxLTA1MTA1ODYtMDAw","asp_id":0},"geometry":{"type":"MultiPolygon","coordinates":[[[[-83.838036,9.597858],[-83.837805,9.598488],[-83.837781,9.598798],[-83.837414,9.599309],[-83.836947,9.600413],[-83.836706,9.60082],[-83.836379,9.601048],[-83.836198,9.601473],[-83.836108,9.601901],[-83.835483,9.602056],[-83.835358,9.602289],[-83.835137,9.603204],[-83.834193,9.604619],[-83.833976,9.60619],[-83.834038,9.606768],[-83.834112,9.607195],[-83.834046,9.607623],[-83.833419,9.609229],[-83.833036,9.609999],[-83.832417,9.609906],[-83.832277,9.610138],[-83.831801,9.610436],[-83.831285,9.610465],[-83.831074,9.610395],[-83.830734,9.610593],[-83.830243,9.610602],[-83.829664,9.610431],[-83.828801,9.611121],[-83.828291,9.611281],[-83.82795,9.611491],[-83.827761,9.611834],[-83.827659,9.612021],[-83.827423,9.612477],[-83.826121,9.613358],[-83.825375,9.613472],[-83.825126,9.61326],[-83.824243,9.613092],[-83.823852,9.613183],[-83.823331,9.613073],[-83.823082,9.612858],[-83.822929,9.612557],[-83.822391,9.612064],[-83.822478,9.611985],[-83.822727,9.611586],[-83.822858,9.610917],[-83.823076,9.610323],[-83.823363,9.609544],[-83.823328,9.609282],[-83.823102,9.609205],[-83.822954,9.608875],[-83.823248,9.608412],[-83.823152,9.607585],[-83.82298,9.607423],[-83.822634,9.606691],[-83.82245,9.606187],[-83.822478,9.605988],[-83.823345,9.606206],[-83.823811,9.606253],[-83.823768,9.60549],[-83.823884,9.60549],[-83.824652,9.606311],[-83.824866,9.606399],[-83.825229,9.606399],[-83.825395,9.606307],[-83.825436,9.605958],[-83.826264,9.60529],[-83.82656,9.60529],[-83.826776,9.604387],[-83.826731,9.604274],[-83.826467,9.604197],[-83.826454,9.604064],[-83.826788,9.603594],[-83.826859,9.603081],[-83.827247,9.602876],[-83.827306,9.602756],[-83.827528,9.602541],[-83.827528,9.602286],[-83.827676,9.60212],[-83.827774,9.60114],[-83.828031,9.600195],[-83.828293,9.599995],[-83.828528,9.600061],[-83.828768,9.600042],[-83.828846,9.599859],[-83.82875,9.599613],[-83.82882,9.599494],[-83.829179,9.599612],[-83.830018,9.599353],[-83.830502,9.599529],[-83.830994,9.599312],[-83.831333,9.598955],[-83.831688,9.598245],[-83.832275,9.597867],[-83.832411,9.597154],[-83.832392,9.596702],[-83.832263,9.596558],[-83.832027,9.596422],[-83.831372,9.596183],[-83.831351,9.596087],[-83.831625,9.595622],[-83.831451,9.594797],[-83.831451,9.594606],[-83.831718,9.594188],[-83.838036,9.597858]]]]}},{"type":"Feature","properties":{"id":null,"distrito":"COPEY","canton":"DOTA","provincia":"SAN JOSE","categoria":"PARQUE NACIONAL","nombre_asp":"LOS QUETZALES","ac":"ACC","plano":"122724812021","tipo_adq":"Baldio","don_ven":null,"area_m2":"1052864","propiet":"ESTADO MINAE","n_finca":"1-742958-000","patrimonio":null,"ano_inscr":"2024","identific":null,"valor":null,"expediente":null,"codigo_provincia":0,"codigo_canton":0,"codigo_distrito":0,"tramite_key":"MTIyNzI0ODEyMDIxOjoxLTc0Mjk1OC0wMDA=","asp_id":0},"geometry":{"type":"MultiPolygon","coordinates":[[[[-83.836593,9.624918],[-83.836461,9.624788],[-83.836264,9.624628],[-83.835997,9.624481],[-83.835669,9.624373],[-83.835346,9.624321],[-83.834958,9.624276],[-83.834587,9.624222],[-83.834327,9.624147],[-83.834103,9.624036],[-83.833894,9.623879],[-83.833706,9.623687],[-83.8335,9.623435],[-83.833295,9.623177],[-83.833042,9.62291],[-83.832719,9.622634],[-83.832425,9.622409],[-83.832154,9.622197],[-83.83188,9.621969],[-83.831699,9.621777],[-83.831576,9.621561],[-83.831491,9.621326],[-83.831499,9.621052],[-83.831557,9.620808],[-83.831655,9.620536],[-83.83179,9.620183],[-83.831902,9.619885],[-83.832007,9.619599],[-83.832088,9.619265],[-83.832095,9.619018],[-83.832062,9.618775],[-83.831988,9.618532],[-83.831873,9.61831],[-83.831722,9.618109],[-83.831531,9.617933],[-83.831316,9.617796],[-83.831095,9.617698],[-83.830903,9.617649],[-83.830721,9.617627],[-83.830392,9.617642],[-83.829996,9.617753],[-83.829574,9.617909],[-83.829246,9.618034],[-83.828864,9.618178],[-83.82845,9.618334],[-83.828077,9.618475],[-83.827611,9.618642],[-83.827353,9.618725],[-83.827089,9.618765],[-83.826839,9.618757],[-83.826601,9.618699],[-83.826358,9.618588],[-83.826113,9.618404],[-83.826019,9.618301],[-83.825933,9.618196],[-83.825719,9.617892],[-83.825497,9.617568],[-83.825286,9.617324],[-83.824986,9.617086],[-83.824789,9.616983],[-83.824473,9.616866],[-83.824191,9.616818],[-83.824021,9.616803],[-83.823616,9.616787],[-83.823134,9.616772],[-83.822728,9.616756],[-83.822431,9.616738],[-83.822042,9.616697],[-83.821691,9.616631],[-83.821324,9.616538],[-83.820719,9.616341],[-83.820425,9.616237],[-83.820079,9.616117],[-83.819636,9.615961],[-83.819225,9.615815],[-83.818729,9.61458],[-83.818273,9.614496],[-83.818095,9.614529],[-83.818019,9.614621],[-83.818047,9.614516],[-83.818022,9.614395],[-83.817963,9.614268],[-83.817884,9.614157],[-83.817766,9.614026],[-83.817592,9.613862],[-83.8176,9.61359],[-83.817664,9.613208],[-83.817714,9.612958],[-83.817726,9.612732],[-83.817677,9.612429],[-83.817859,9.611995],[-83.817914,9.611723],[-83.818114,9.61141],[-83.818341,9.611193],[-83.818759,9.610814],[-83.818893,9.610677],[-83.819004,9.610639],[-83.819103,9.610675],[-83.819476,9.611011],[-83.819572,9.611061],[-83.81977,9.611106],[-83.819861,9.611177],[-83.819928,9.611445],[-83.82005,9.611576],[-83.820528,9.611956],[-83.820898,9.612078],[-83.821263,9.612173],[-83.821763,9.612047],[-83.822163,9.611853],[-83.822341,9.612026],[-83.822766,9.612556],[-83.822974,9.612848],[-83.823257,9.613054],[-83.82378,9.613191],[-83.824136,9.61308],[-83.82503,9.613273],[-83.825315,9.613473],[-83.826013,9.613389],[-83.827371,9.612503],[-83.827627,9.612038],[-83.827644,9.611855],[-83.827911,9.611553],[-83.828258,9.611351],[-83.828755,9.611172],[-83.829641,9.610485],[-83.829668,9.610494],[-83.829796,9.610624],[-83.830305,9.611561],[-83.831038,9.612759],[-83.83122,9.613779],[-83.831521,9.615236],[-83.831964,9.616103],[-83.832629,9.617249],[-83.832864,9.618618],[-83.833267,9.619967],[-83.833409,9.620683],[-83.833525,9.621019],[-83.833897,9.620837],[-83.834679,9.620997],[-83.835163,9.621958],[-83.836048,9.622603],[-83.83678,9.622892],[-83.837812,9.624197],[-83.838186,9.624554],[-83.838182,9.624563],[-83.837911,9.624867],[-83.837604,9.625087],[-83.837296,9.625129],[-83.837034,9.624841],[-83.836885,9.624899],[-83.83666,9.624856],[-83.836593,9.624918]]]]}},{"type":"Feature","properties":{"id":null,"distrito":"COPEY","canton":"DOTA","provincia":"SAN JOSE","categoria":"PARQUE NACIONAL","nombre_asp":"LOS QUETZALES","ac":"ACC","plano":"122724812021","tipo_adq":"Baldio","don_ven":null,"area_m2":"1052864","propiet":"ESTADO MINAE","n_finca":"1-742958-000","patrimonio":null,"ano_inscr":"2024","identific":null,"valor":null,"expediente":null,"codigo_provincia":0,"codigo_canton":0,"codigo_distrito":0,"tramite_key":"MTIyNzI0ODEyMDIxOjoxLTc0Mjk1OC0wMDA=","asp_id":0},"geometry":{"type":"MultiPolygon","coordinates":[[[[-83.836593,9.624918],[-83.836461,9.624788],[-83.836264,9.624628],[-83.835997,9.624481],[-83.835669,9.624373],[-83.835346,9.624321],[-83.834958,9.624276],[-83.834587,9.624222],[-83.834327,9.624147],[-83.834103,9.624036],[-83.833894,9.623879],[-83.833706,9.623687],[-83.8335,9.623435],[-83.833295,9.623177],[-83.833042,9.62291],[-83.832719,9.622634],[-83.832425,9.622409],[-83.832154,9.622197],[-83.83188,9.621969],[-83.831699,9.621777],[-83.831576,9.621561],[-83.831491,9.621326],[-83.831499,9.621052],[-83.831557,9.620808],[-83.831655,9.620536],[-83.83179,9.620183],[-83.831902,9.619885],[-83.832007,9.619599],[-83.832088,9.619265],[-83.832095,9.619018],[-83.832062,9.618775],[-83.831988,9.618532],[-83.831873,9.61831],[-83.831722,9.618109],[-83.831531,9.617933],[-83.831316,9.617796],[-83.831095,9.617698],[-83.830903,9.617649],[-83.830721,9.617627],[-83.830392,9.617642],[-83.829996,9.617753],[-83.829574,9.617909],[-83.829246,9.618034],[-83.828864,9.618178],[-83.82845,9.618334],[-83.828077,9.618475],[-83.827611,9.618642],[-83.827353,9.618725],[-83.827089,9.618765],[-83.826839,9.618757],[-83.826601,9.618699],[-83.826358,9.618588],[-83.826113,9.618404],[-83.826019,9.618301],[-83.825933,9.618196],[-83.825719,9.617892],[-83.825497,9.617568],[-83.825286,9.617324],[-83.824986,9.617086],[-83.824789,9.616983],[-83.824473,9.616866],[-83.824191,9.616818],[-83.824021,9.616803],[-83.823616,9.616787],[-83.823134,9.616772],[-83.822728,9.616756],[-83.822431,9.616738],[-83.822042,9.616697],[-83.821691,9.616631],[-83.821324,9.616538],[-83.820719,9.616341],[-83.820425,9.616237],[-83.820079,9.616117],[-83.819636,9.615961],[-83.819225,9.615815],[-83.818729,9.61458],[-83.818273,9.614496],[-83.818095,9.614529],[-83.818019,9.614621],[-83.818047,9.614516],[-83.818022,9.614395],[-83.817963,9.614268],[-83.817884,9.614157],[-83.817766,9.614026],[-83.817592,9.613862],[-83.8176,9.61359],[-83.817664,9.613208],[-83.817714,9.612958],[-83.817726,9.612732],[-83.817677,9.612429],[-83.817859,9.611995],[-83.817914,9.611723],[-83.818114,9.61141],[-83.818341,9.611193],[-83.818759,9.610814],[-83.818893,9.610677],[-83.819004,9.610639],[-83.819103,9.610675],[-83.819476,9.611011],[-83.819572,9.611061],[-83.81977,9.611106],[-83.819861,9.611177],[-83.819928,9.611445],[-83.82005,9.611576],[-83.820528,9.611956],[-83.820898,9.612078],[-83.821263,9.612173],[-83.821763,9.612047],[-83.822163,9.611853],[-83.822341,9.612026],[-83.822766,9.612556],[-83.822974,9.612848],[-83.823257,9.613054],[-83.82378,9.613191],[-83.824136,9.61308],[-83.82503,9.613273],[-83.825315,9.613473],[-83.826013,9.613389],[-83.827371,9.612503],[-83.827627,9.612038],[-83.827644,9.611855],[-83.827911,9.611553],[-83.828258,9.611351],[-83.828755,9.611172],[-83.829641,9.610485],[-83.829668,9.610494],[-83.829796,9.610624],[-83.830305,9.611561],[-83.831038,9.612759],[-83.83122,9.613779],[-83.831521,9.615236],[-83.831964,9.616103],[-83.832629,9.617249],[-83.832864,9.618618],[-83.833267,9.619967],[-83.833409,9.620683],[-83.833525,9.621019],[-83.833897,9.620837],[-83.834679,9.620997],[-83.835163,9.621958],[-83.836048,9.622603],[-83.83678,9.622892],[-83.837812,9.624197],[-83.838186,9.624554],[-83.838182,9.624563],[-83.837911,9.624867],[-83.837604,9.625087],[-83.837296,9.625129],[-83.837034,9.624841],[-83.836885,9.624899],[-83.83666,9.624856],[-83.836593,9.624918]]]]}},{"type":"Feature","properties":{"id":null,"distrito":"COPEY","canton":"DOTA","provincia":"SAN JOSE","categoria":"RESERVA FORESTAL","nombre_asp":"LOS SANTO","ac":"ACC","plano":"1-291137-1995","tipo_adq":null,"don_ven":null,"area_m2":"150.428256375937","propiet":"EL ESTADO","n_finca":"1-501104-000","patrimonio":null,"ano_inscr":null,"identific":null,"valor":null,"expediente":null,"codigo_provincia":0,"codigo_canton":0,"codigo_distrito":0,"tramite_key":"MS0yOTExMzctMTk5NTo6MS01MDExMDQtMDAw","asp_id":0},"geometry":{"type":"MultiPolygon","coordinates":[[[[-83.833524,9.62102],[-83.833408,9.620683],[-83.833267,9.619967],[-83.832863,9.618619],[-83.832628,9.61725],[-83.831963,9.616104],[-83.83152,9.615237],[-83.83122,9.61378],[-83.831037,9.612759],[-83.830305,9.611562],[-83.829796,9.610625],[-83.82919,9.610007],[-83.828952,9.6094],[-83.82962,9.608732],[-83.830138,9.608493],[-83.830693,9.607859],[-83.831351,9.606701],[-83.831691,9.60616],[-83.832198,9.604812],[-83.832236,9.604767],[-83.832841,9.604992],[-83.832926,9.60617],[-83.83309,9.606937],[-83.833972,9.607723],[-83.834249,9.607849],[-83.834692,9.608481],[-83.836167,9.608845],[-83.836397,9.609706],[-83.837082,9.611038],[-83.836967,9.611796],[-83.837224,9.61259],[-83.838389,9.61396],[-83.838729,9.615121],[-83.838709,9.615833],[-83.838986,9.616602],[-83.839164,9.616669],[-83.839272,9.61726],[-83.839076,9.61822],[-83.83901,9.61898],[-83.839513,9.619273],[-83.840599,9.620338],[-83.841738,9.621064],[-83.843191,9.622164],[-83.846263,9.624902],[-83.844595,9.625914],[-83.84305,9.624947],[-83.841656,9.625341],[-83.841485,9.625304],[-83.840554,9.624721],[-83.839919,9.624654],[-83.83895,9.624966],[-83.838492,9.624847],[-83.837811,9.624198],[-83.83678,9.622893],[-83.836048,9.622603],[-83.835162,9.621959],[-83.834678,9.620998],[-83.833896,9.620838],[-83.833524,9.62102]]]]}},{"type":"Feature","properties":{"id":"89","distrito":"COPEY","canton":"DOTA","provincia":"SAN_JOSE","categoria":"RESERVA FORESTAL","nombre_asp":"LOS_SANTOS","ac":"ACC","plano":"SJ-0417101-1997","tipo_adq":"INSCRIPCION_TERRENO_BALDIO","don_ven":"NO_HAY_DATOS","area_m2":"127.068084169036","propiet":"ESTADO","n_finca":"1-0512182-000","patrimonio":"2455527","ano_inscr":"2001","identific":"11703051218200","valor":"¢1.626.404.709,93","expediente":"RFLS002","codigo_provincia":0,"codigo_canton":0,"codigo_distrito":0,"tramite_key":"U0otMDQxNzEwMS0xOTk3OjoxLTA1MTIxODItMDAw","asp_id":0},"geometry":{"type":"MultiPolygon","coordinates":[[[[-83.83225,9.594362],[-83.832537,9.593928],[-83.832912,9.593662],[-83.833015,9.593607],[-83.833103,9.59281],[-83.833005,9.59256],[-83.833464,9.592186],[-83.833801,9.592028],[-83.834029,9.591982],[-83.834136,9.592062],[-83.834281,9.592007],[-83.83485,9.591357],[-83.835034,9.591416],[-83.835272,9.591689],[-83.835311,9.592037],[-83.835397,9.592507],[-83.835704,9.593176],[-83.835865,9.593532],[-83.835865,9.593863],[-83.835853,9.594227],[-83.835916,9.594307],[-83.836081,9.594202],[-83.836585,9.592462],[-83.836629,9.592281],[-83.83693,9.591695],[-83.837389,9.590895],[-83.837389,9.590671],[-83.836798,9.590163],[-83.837011,9.589977],[-83.837058,9.589794],[-83.837025,9.589607],[-83.837129,9.589483],[-83.837555,9.58944],[-83.837814,9.589299],[-83.838026,9.58899],[-83.838148,9.588766],[-83.838589,9.588457],[-83.83853,9.588588],[-83.838426,9.588738],[-83.838283,9.589107],[-83.83832,9.589327],[-83.838287,9.58964],[-83.838283,9.590142],[-83.838676,9.590221],[-83.838967,9.590149],[-83.839145,9.589716],[-83.839416,9.589196],[-83.83964,9.589083],[-83.839877,9.588983],[-83.839992,9.588983],[-83.840098,9.588999],[-83.840633,9.589289],[-83.841038,9.589208],[-83.841741,9.589819],[-83.841832,9.590153],[-83.842239,9.591007],[-83.842568,9.591084],[-83.842898,9.591572],[-83.842917,9.592484],[-83.843256,9.592913],[-83.843595,9.593103],[-83.848112,9.593968],[-83.849403,9.594654],[-83.849752,9.594701],[-83.850062,9.594754],[-83.850031,9.594911],[-83.849774,9.595403],[-83.84863,9.596586],[-83.848468,9.59702],[-83.847738,9.598193],[-83.848281,9.599573],[-83.848266,9.599605],[-83.847916,9.600611],[-83.847508,9.601088],[-83.846375,9.60092],[-83.84626,9.600806],[-83.845763,9.600779],[-83.845532,9.600561],[-83.845114,9.600454],[-83.844837,9.600209],[-83.844545,9.600018],[-83.843895,9.599902],[-83.842733,9.59952],[-83.842541,9.59908],[-83.841061,9.598214],[-83.840551,9.598244],[-83.840266,9.598316],[-83.839451,9.597993],[-83.838533,9.598133],[-83.83225,9.594362]]]]}},{"type":"Feature","properties":{"id":null,"distrito":"COPEY","canton":"DOTA","provincia":"SAN JOSE","categoria":"PARQUE NACIONAL","nombre_asp":"LOS QUETZALES","ac":"ACC","plano":"3-2251046-2020","tipo_adq":"Baldio","don_ven":null,"area_m2":"1256659","propiet":"ESTADO MINAE","n_finca":"1-742907-000","patrimonio":null,"ano_inscr":"2024","identific":null,"valor":null,"expediente":null,"codigo_provincia":0,"codigo_canton":0,"codigo_distrito":0,"tramite_key":"My0yMjUxMDQ2LTIwMjA6OjEtNzQyOTA3LTAwMA==","asp_id":0},"geometry":{"type":"MultiPolygon","coordinates":[[[[-83.842913,9.639621],[-83.842825,9.639461],[-83.842774,9.639342],[-83.842736,9.639227],[-83.842697,9.639078],[-83.842671,9.638938],[-83.842652,9.638756],[-83.842647,9.638477],[-83.842648,9.638244],[-83.84265,9.638051],[-83.842653,9.637697],[-83.842648,9.637491],[-83.842632,9.637293],[-83.842625,9.637138],[-83.842607,9.636933],[-83.842583,9.636721],[-83.842569,9.636569],[-83.842543,9.636295],[-83.84253,9.636049],[-83.842533,9.635857],[-83.842556,9.635416],[-83.842605,9.635075],[-83.842638,9.63486],[-83.842777,9.634267],[-83.842857,9.633929],[-83.842872,9.633842],[-83.842854,9.63362],[-83.842823,9.633488],[-83.842796,9.633414],[-83.84276,9.633344],[-83.842713,9.633278],[-83.842668,9.633227],[-83.842621,9.63318],[-83.842562,9.63313],[-83.8425,9.633089],[-83.842431,9.633055],[-83.842361,9.633028],[-83.84229,9.63301],[-83.842221,9.632999],[-83.842137,9.632994],[-83.841889,9.633037],[-83.841681,9.633125],[-83.841288,9.633326],[-83.841037,9.633443],[-83.84079,9.633536],[-83.840532,9.633601],[-83.840233,9.633637],[-83.840128,9.633635],[-83.839985,9.63361],[-83.839899,9.633573],[-83.839854,9.633544],[-83.839782,9.633472],[-83.839738,9.633405],[-83.839703,9.633318],[-83.839686,9.633222],[-83.839694,9.633117],[-83.839714,9.633021],[-83.839774,9.632884],[-83.839823,9.63278],[-83.839913,9.632613],[-83.839994,9.632466],[-83.840217,9.632033],[-83.840317,9.631788],[-83.840359,9.631597],[-83.840371,9.631482],[-83.840376,9.631364],[-83.840364,9.631227],[-83.840337,9.631115],[-83.840297,9.630987],[-83.840248,9.630875],[-83.840191,9.630771],[-83.840099,9.630648],[-83.840019,9.63056],[-83.839917,9.630475],[-83.839793,9.630389],[-83.839682,9.630329],[-83.839575,9.630287],[-83.839324,9.630209],[-83.838029,9.629902],[-83.83776,9.629838],[-83.837632,9.629792],[-83.837544,9.62975],[-83.837451,9.629679],[-83.837383,9.629606],[-83.837321,9.629476],[-83.837308,9.629354],[-83.837316,9.629278],[-83.837343,9.629187],[-83.837391,9.629103],[-83.837506,9.628971],[-83.837652,9.628833],[-83.837842,9.628665],[-83.83807,9.628465],[-83.838374,9.628203],[-83.838635,9.627979],[-83.838915,9.627738],[-83.839069,9.62759],[-83.839149,9.627497],[-83.839216,9.627407],[-83.839283,9.627293],[-83.839354,9.627126],[-83.83939,9.626993],[-83.83939,9.626655],[-83.839319,9.626401],[-83.839262,9.626289],[-83.839197,9.626184],[-83.839109,9.626078],[-83.839014,9.625991],[-83.838797,9.625854],[-83.83856,9.62577],[-83.838431,9.625745],[-83.838258,9.625732],[-83.837971,9.625732],[-83.837827,9.625734],[-83.837542,9.625718],[-83.837428,9.625695],[-83.837312,9.625652],[-83.837214,9.625597],[-83.837126,9.625521],[-83.83704,9.625432],[-83.836911,9.625281],[-83.83681,9.625162],[-83.836701,9.625035],[-83.83668,9.625011],[-83.8367,9.624993],[-83.836897,9.625031],[-83.836999,9.624991],[-83.837247,9.625263],[-83.837653,9.625208],[-83.837997,9.624961],[-83.838292,9.624632],[-83.838493,9.624846],[-83.838951,9.624965],[-83.83992,9.624654],[-83.840554,9.62472],[-83.841486,9.625303],[-83.841657,9.625341],[-83.843051,9.624947],[-83.844595,9.625913],[-83.844799,9.62579],[-83.844796,9.626108],[-83.845343,9.626113],[-83.847531,9.627635],[-83.847548,9.629758],[-83.848019,9.629651],[-83.848663,9.629899],[-83.848886,9.63003],[-83.849141,9.630187],[-83.849291,9.630384],[-83.849713,9.630401],[-83.850035,9.630289],[-83.850158,9.630174],[-83.850531,9.629927],[-83.850812,9.629798],[-83.850965,9.629787],[-83.851012,9.629801],[-83.85121,9.630334],[-83.849406,9.634368],[-83.848591,9.634959],[-83.84675,9.637067],[-83.844433,9.638777],[-83.842913,9.639621]]]]}},{"type":"Feature","properties":{"id":null,"distrito":"COPEY","canton":"DOTA","provincia":"SAN JOSE","categoria":"PARQUE NACIONAL","nombre_asp":"LOS QUETZALES","ac":"ACC","plano":"3-2251046-2020","tipo_adq":"Baldio","don_ven":null,"area_m2":"1256659","propiet":"ESTADO MINAE","n_finca":"1-742907-000","patrimonio":null,"ano_inscr":"2024","identific":null,"valor":null,"expediente":null,"codigo_provincia":0,"codigo_canton":0,"codigo_distrito":0,"tramite_key":"My0yMjUxMDQ2LTIwMjA6OjEtNzQyOTA3LTAwMA==","asp_id":0},"geometry":{"type":"MultiPolygon","coordinates":[[[[-83.842913,9.639621],[-83.842825,9.639461],[-83.842774,9.639342],[-83.842736,9.639227],[-83.842697,9.639078],[-83.842671,9.638938],[-83.842652,9.638756],[-83.842647,9.638477],[-83.842648,9.638244],[-83.84265,9.638051],[-83.842653,9.637697],[-83.842648,9.637491],[-83.842632,9.637293],[-83.842625,9.637138],[-83.842607,9.636933],[-83.842583,9.636721],[-83.842569,9.636569],[-83.842543,9.636295],[-83.84253,9.636049],[-83.842533,9.635857],[-83.842556,9.635416],[-83.842605,9.635075],[-83.842638,9.63486],[-83.842777,9.634267],[-83.842857,9.633929],[-83.842872,9.633842],[-83.842854,9.63362],[-83.842823,9.633488],[-83.842796,9.633414],[-83.84276,9.633344],[-83.842713,9.633278],[-83.842668,9.633227],[-83.842621,9.63318],[-83.842562,9.63313],[-83.8425,9.633089],[-83.842431,9.633055],[-83.842361,9.633028],[-83.84229,9.63301],[-83.842221,9.632999],[-83.842137,9.632994],[-83.841889,9.633037],[-83.841681,9.633125],[-83.841288,9.633326],[-83.841037,9.633443],[-83.84079,9.633536],[-83.840532,9.633601],[-83.840233,9.633637],[-83.840128,9.633635],[-83.839985,9.63361],[-83.839899,9.633573],[-83.839854,9.633544],[-83.839782,9.633472],[-83.839738,9.633405],[-83.839703,9.633318],[-83.839686,9.633222],[-83.839694,9.633117],[-83.839714,9.633021],[-83.839774,9.632884],[-83.839823,9.63278],[-83.839913,9.632613],[-83.839994,9.632466],[-83.840217,9.632033],[-83.840317,9.631788],[-83.840359,9.631597],[-83.840371,9.631482],[-83.840376,9.631364],[-83.840364,9.631227],[-83.840337,9.631115],[-83.840297,9.630987],[-83.840248,9.630875],[-83.840191,9.630771],[-83.840099,9.630648],[-83.840019,9.63056],[-83.839917,9.630475],[-83.839793,9.630389],[-83.839682,9.630329],[-83.839575,9.630287],[-83.839324,9.630209],[-83.838029,9.629902],[-83.83776,9.629838],[-83.837632,9.629792],[-83.837544,9.62975],[-83.837451,9.629679],[-83.837383,9.629606],[-83.837321,9.629476],[-83.837308,9.629354],[-83.837316,9.629278],[-83.837343,9.629187],[-83.837391,9.629103],[-83.837506,9.628971],[-83.837652,9.628833],[-83.837842,9.628665],[-83.83807,9.628465],[-83.838374,9.628203],[-83.838635,9.627979],[-83.838915,9.627738],[-83.839069,9.62759],[-83.839149,9.627497],[-83.839216,9.627407],[-83.839283,9.627293],[-83.839354,9.627126],[-83.83939,9.626993],[-83.83939,9.626655],[-83.839319,9.626401],[-83.839262,9.626289],[-83.839197,9.626184],[-83.839109,9.626078],[-83.839014,9.625991],[-83.838797,9.625854],[-83.83856,9.62577],[-83.838431,9.625745],[-83.838258,9.625732],[-83.837971,9.625732],[-83.837827,9.625734],[-83.837542,9.625718],[-83.837428,9.625695],[-83.837312,9.625652],[-83.837214,9.625597],[-83.837126,9.625521],[-83.83704,9.625432],[-83.836911,9.625281],[-83.83681,9.625162],[-83.836701,9.625035],[-83.83668,9.625011],[-83.8367,9.624993],[-83.836897,9.625031],[-83.836999,9.624991],[-83.837247,9.625263],[-83.837653,9.625208],[-83.837997,9.624961],[-83.838292,9.624632],[-83.838493,9.624846],[-83.838951,9.624965],[-83.83992,9.624654],[-83.840554,9.62472],[-83.841486,9.625303],[-83.841657,9.625341],[-83.843051,9.624947],[-83.844595,9.625913],[-83.844799,9.62579],[-83.844796,9.626108],[-83.845343,9.626113],[-83.847531,9.627635],[-83.847548,9.629758],[-83.848019,9.629651],[-83.848663,9.629899],[-83.848886,9.63003],[-83.849141,9.630187],[-83.849291,9.630384],[-83.849713,9.630401],[-83.850035,9.630289],[-83.850158,9.630174],[-83.850531,9.629927],[-83.850812,9.629798],[-83.850965,9.629787],[-83.851012,9.629801],[-83.85121,9.630334],[-83.849406,9.634368],[-83.848591,9.634959],[-83.84675,9.637067],[-83.844433,9.638777],[-83.842913,9.639621]]]]}},{"type":"Feature","properties":{"id":null,"distrito":"COPEY","canton":"DOTA","provincia":"SAN JOSE","categoria":"RESERVA FORESTAL","nombre_asp":"LOS SANTO","ac":"ACC","plano":"1-286024-1995","tipo_adq":null,"don_ven":null,"area_m2":"293.693748529056","propiet":"EL ESTADO","n_finca":"1-495882-000","patrimonio":null,"ano_inscr":null,"identific":null,"valor":null,"expediente":null,"codigo_provincia":0,"codigo_canton":0,"codigo_distrito":0,"tramite_key":"MS0yODYwMjQtMTk5NTo6MS00OTU4ODItMDAw","asp_id":0},"geometry":{"type":"MultiPolygon","coordinates":[[[[-83.852522,9.62194],[-83.851166,9.623022],[-83.849802,9.622929],[-83.84824,9.624853],[-83.847842,9.625082],[-83.847388,9.625045],[-83.846783,9.624781],[-83.846263,9.624902],[-83.843191,9.622164],[-83.841738,9.621064],[-83.840599,9.620338],[-83.839513,9.619273],[-83.83901,9.61898],[-83.839076,9.61822],[-83.839272,9.61726],[-83.839164,9.616669],[-83.838986,9.616602],[-83.838709,9.615833],[-83.838729,9.615121],[-83.838389,9.61396],[-83.837671,9.61311],[-83.837225,9.612589],[-83.836967,9.611796],[-83.837082,9.611038],[-83.836397,9.609706],[-83.836167,9.608845],[-83.834693,9.608481],[-83.834249,9.607849],[-83.833972,9.607723],[-83.833091,9.606937],[-83.832926,9.60617],[-83.832841,9.604992],[-83.832919,9.604053],[-83.832498,9.603279],[-83.833303,9.602863],[-83.833527,9.602226],[-83.834041,9.601268],[-83.834592,9.599928],[-83.834804,9.59908],[-83.835105,9.598377],[-83.835687,9.598944],[-83.836797,9.599162],[-83.837836,9.599489],[-83.838685,9.599903],[-83.839162,9.600864],[-83.839394,9.601031],[-83.841288,9.601339],[-83.84229,9.602061],[-83.843268,9.602733],[-83.844262,9.603441],[-83.844987,9.604012],[-83.845468,9.60423],[-83.845914,9.604751],[-83.846742,9.60501],[-83.847185,9.605895],[-83.847444,9.607265],[-83.847812,9.608934],[-83.847442,9.609402],[-83.846355,9.609798],[-83.846259,9.610686],[-83.846309,9.611237],[-83.846761,9.61268],[-83.847412,9.613932],[-83.847896,9.615714],[-83.847982,9.61715],[-83.848131,9.617696],[-83.849416,9.619612],[-83.850184,9.620522],[-83.85091,9.620787],[-83.852522,9.62194]]]]}},{"type":"Feature","properties":{"id":null,"distrito":"COPEY","canton":"DOTA","provincia":"SAN JOSE","categoria":"RESERVA FORESTAL","nombre_asp":"LOS SANTO","ac":"ACC","plano":"1-279335-1995","tipo_adq":null,"don_ven":null,"area_m2":"191.374594816667","propiet":"EL ESTADO","n_finca":"1-438409-000","patrimonio":null,"ano_inscr":null,"identific":null,"valor":null,"expediente":null,"codigo_provincia":0,"codigo_canton":0,"codigo_distrito":0,"tramite_key":"MS0yNzkzMzUtMTk5NTo6MS00Mzg0MDktMDAw","asp_id":0},"geometry":{"type":"MultiPolygon","coordinates":[[[[-83.856621,9.61979],[-83.855432,9.620148],[-83.855179,9.620614],[-83.855192,9.620898],[-83.854764,9.621036],[-83.854664,9.620965],[-83.8543,9.620463],[-83.854159,9.620445],[-83.853763,9.620738],[-83.853476,9.620894],[-83.853104,9.621338],[-83.852942,9.621685],[-83.852793,9.621894],[-83.851416,9.62101],[-83.851063,9.620721],[-83.850334,9.620466],[-83.849553,9.619568],[-83.848082,9.617126],[-83.848096,9.616858],[-83.847466,9.613917],[-83.846435,9.611844],[-83.846354,9.611405],[-83.846292,9.611054],[-83.846327,9.60992],[-83.846382,9.609676],[-83.84743,9.609386],[-83.847643,9.609213],[-83.847889,9.608375],[-83.847895,9.607458],[-83.847769,9.606474],[-83.848096,9.605766],[-83.848115,9.604932],[-83.848306,9.604617],[-83.848518,9.604009],[-83.848727,9.603265],[-83.848805,9.60281],[-83.848629,9.602189],[-83.84847,9.601864],[-83.847321,9.600662],[-83.847397,9.600424],[-83.84767,9.600183],[-83.848303,9.599177],[-83.848602,9.598904],[-83.849814,9.598374],[-83.849998,9.598185],[-83.85056,9.598202],[-83.851027,9.598363],[-83.851239,9.598395],[-83.851655,9.598239],[-83.852506,9.59776],[-83.852714,9.597773],[-83.853103,9.598037],[-83.856621,9.61979]]]]}},{"type":"Feature","properties":{"id":null,"distrito":"COPEY","canton":"DOTA","provincia":"SAN JOSE","categoria":"RESERVA FORESTAL","nombre_asp":"LOS SANTOS","ac":"ACC","plano":"1-423450-1997","tipo_adq":null,"don_ven":null,"area_m2":"198.605656843129","propiet":"EL ESTADO","n_finca":"1-507087-000","patrimonio":null,"ano_inscr":null,"identific":null,"valor":null,"expediente":null,"codigo_provincia":0,"codigo_canton":0,"codigo_distrito":0,"tramite_key":"MS00MjM0NTAtMTk5Nzo6MS01MDcwODctMDAw","asp_id":0},"geometry":{"type":"MultiPolygon","coordinates":[[[[-83.860821,9.605697],[-83.859953,9.604731],[-83.859196,9.604286],[-83.858026,9.602313],[-83.857321,9.601686],[-83.857017,9.601074],[-83.855954,9.599705],[-83.855418,9.598881],[-83.854176,9.597994],[-83.853913,9.598027],[-83.852674,9.598675],[-83.851952,9.598429],[-83.851387,9.598474],[-83.84999,9.599147],[-83.84912,9.600448],[-83.848793,9.600671],[-83.848772,9.600936],[-83.84919,9.602018],[-83.8481,9.601602],[-83.847326,9.601234],[-83.847693,9.600778],[-83.848052,9.599748],[-83.847529,9.59839],[-83.84823,9.59729],[-83.848397,9.596817],[-83.849551,9.595692],[-83.849781,9.595174],[-83.849799,9.595015],[-83.849794,9.593937],[-83.849826,9.593483],[-83.848774,9.591839],[-83.848733,9.591301],[-83.848972,9.590804],[-83.849285,9.589586],[-83.849221,9.588992],[-83.849061,9.58873],[-83.849111,9.588003],[-83.849407,9.58751],[-83.850607,9.586676],[-83.857621,9.585172],[-83.859837,9.586159],[-83.860821,9.605697]]]]}},{"type":"Feature","properties":{"id":null,"distrito":"COPEY","canton":"DOTA","provincia":"SAN JOSE","categoria":"RESERVA FORESTAL","nombre_asp":"LOS SANTOS","ac":"ACC","plano":"1-423450-1997","tipo_adq":null,"don_ven":null,"area_m2":"198.605656843129","propiet":"EL ESTADO","n_finca":"1-507087-000","patrimonio":null,"ano_inscr":null,"identific":null,"valor":null,"expediente":null,"codigo_provincia":0,"codigo_canton":0,"codigo_distrito":0,"tramite_key":"MS00MjM0NTAtMTk5Nzo6MS01MDcwODctMDAw","asp_id":0},"geometry":{"type":"MultiPolygon","coordinates":[[[[-83.860821,9.605697],[-83.859953,9.604731],[-83.859196,9.604286],[-83.858026,9.602313],[-83.857321,9.601686],[-83.857017,9.601074],[-83.855954,9.599705],[-83.855418,9.598881],[-83.854176,9.597994],[-83.853913,9.598027],[-83.852674,9.598675],[-83.851952,9.598429],[-83.851387,9.598474],[-83.84999,9.599147],[-83.84912,9.600448],[-83.848793,9.600671],[-83.848772,9.600936],[-83.84919,9.602018],[-83.8481,9.601602],[-83.847326,9.601234],[-83.847693,9.600778],[-83.848052,9.599748],[-83.847529,9.59839],[-83.84823,9.59729],[-83.848397,9.596817],[-83.849551,9.595692],[-83.849781,9.595174],[-83.849799,9.595015],[-83.849794,9.593937],[-83.849826,9.593483],[-83.848774,9.591839],[-83.848733,9.591301],[-83.848972,9.590804],[-83.849285,9.589586],[-83.849221,9.588992],[-83.849061,9.58873],[-83.849111,9.588003],[-83.849407,9.58751],[-83.850607,9.586676],[-83.857621,9.585172],[-83.859837,9.586159],[-83.860821,9.605697]]]]}},{"type":"Feature","properties":{"id":null,"distrito":"COPEY","canton":"DOTA","provincia":"SAN JOSE","categoria":"RESERVA FORESTAL","nombre_asp":"LOS SANTO","ac":"ACC","plano":"1-279333-1995","tipo_adq":null,"don_ven":null,"area_m2":"185.390721173169","propiet":"EL ESTADO","n_finca":"1-447527-000","patrimonio":null,"ano_inscr":null,"identific":null,"valor":null,"expediente":null,"codigo_provincia":0,"codigo_canton":0,"codigo_distrito":0,"tramite_key":"MS0yNzkzMzMtMTk5NTo6MS00NDc1MjctMDAw","asp_id":0},"geometry":{"type":"MultiPolygon","coordinates":[[[[-83.867347,9.615073],[-83.866464,9.615472],[-83.866143,9.615691],[-83.865768,9.615824],[-83.865626,9.615937],[-83.865351,9.616026],[-83.86499,9.616187],[-83.864424,9.616373],[-83.860482,9.618353],[-83.860089,9.61868],[-83.859617,9.618731],[-83.858685,9.61877],[-83.858523,9.618872],[-83.858129,9.61916],[-83.857543,9.619201],[-83.857289,9.619452],[-83.856721,9.619776],[-83.853203,9.598023],[-83.854018,9.598574],[-83.85418,9.598759],[-83.854589,9.599517],[-83.855079,9.599976],[-83.855648,9.600834],[-83.85594,9.601424],[-83.856676,9.602073],[-83.857275,9.603213],[-83.857784,9.60404],[-83.858559,9.604488],[-83.859221,9.605149],[-83.85946,9.605539],[-83.859816,9.605738],[-83.860824,9.605487],[-83.861744,9.605557],[-83.862058,9.605607],[-83.862242,9.606025],[-83.862297,9.606377],[-83.862641,9.607133],[-83.863327,9.607731],[-83.864021,9.608176],[-83.864497,9.60812],[-83.864989,9.607745],[-83.865211,9.607652],[-83.865728,9.60759],[-83.866534,9.607813],[-83.867167,9.607649],[-83.867678,9.607721],[-83.867347,9.615073]]]]}},{"type":"Feature","properties":{"id":null,"distrito":"COPEY","canton":"DOTA","provincia":"SAN JOSE","categoria":"RESERVA FORESTAL","nombre_asp":"LOS SANTOS","ac":"ACC","plano":"1-420636-1997","tipo_adq":null,"don_ven":null,"area_m2":"293.609287355055","propiet":"EL ESTADO","n_finca":"1-517282-000","patrimonio":null,"ano_inscr":null,"identific":null,"valor":null,"expediente":null,"codigo_provincia":0,"codigo_canton":0,"codigo_distrito":0,"tramite_key":"MS00MjA2MzYtMTk5Nzo6MS01MTcyODItMDAw","asp_id":0},"geometry":{"type":"MultiPolygon","coordinates":[[[[-83.859836,9.586159],[-83.860088,9.581886],[-83.860572,9.579599],[-83.862405,9.577687],[-83.865538,9.579522],[-83.865571,9.580668],[-83.866781,9.583019],[-83.867195,9.5867],[-83.867994,9.588065],[-83.867797,9.589489],[-83.868012,9.590532],[-83.86892,9.591285],[-83.86959,9.591916],[-83.869957,9.594021],[-83.869884,9.594951],[-83.87009,9.595969],[-83.870184,9.59744],[-83.870152,9.597896],[-83.870406,9.598463],[-83.870157,9.599556],[-83.870155,9.599979],[-83.869976,9.600494],[-83.870242,9.601463],[-83.870275,9.602144],[-83.870048,9.603221],[-83.870518,9.603947],[-83.870672,9.604587],[-83.870614,9.605213],[-83.870967,9.606201],[-83.870802,9.607206],[-83.870498,9.60797],[-83.870041,9.608466],[-83.86968,9.607906],[-83.869068,9.607833],[-83.867864,9.607799],[-83.867055,9.607677],[-83.866511,9.607795],[-83.86579,9.608249],[-83.865331,9.608329],[-83.864629,9.607914],[-83.864036,9.60736],[-83.863552,9.606564],[-83.863383,9.605779],[-83.862128,9.605635],[-83.861112,9.605866],[-83.860821,9.605697],[-83.859836,9.586159]]]]}},{"type":"Feature","properties":{"id":null,"distrito":"COPEY","canton":"DOTA","provincia":"SAN JOSE","categoria":"RESERVA FORESTAL","nombre_asp":"LOS SANTOS","ac":"ACC","plano":"1-420636-1997","tipo_adq":null,"don_ven":null,"area_m2":"293.609287355055","propiet":"EL ESTADO","n_finca":"1-517282-000","patrimonio":null,"ano_inscr":null,"identific":null,"valor":null,"expediente":null,"codigo_provincia":0,"codigo_canton":0,"codigo_distrito":0,"tramite_key":"MS00MjA2MzYtMTk5Nzo6MS01MTcyODItMDAw","asp_id":0},"geometry":{"type":"MultiPolygon","coordinates":[[[[-83.859836,9.586159],[-83.860088,9.581886],[-83.860572,9.579599],[-83.862405,9.577687],[-83.865538,9.579522],[-83.865571,9.580668],[-83.866781,9.583019],[-83.867195,9.5867],[-83.867994,9.588065],[-83.867797,9.589489],[-83.868012,9.590532],[-83.86892,9.591285],[-83.86959,9.591916],[-83.869957,9.594021],[-83.869884,9.594951],[-83.87009,9.595969],[-83.870184,9.59744],[-83.870152,9.597896],[-83.870406,9.598463],[-83.870157,9.599556],[-83.870155,9.599979],[-83.869976,9.600494],[-83.870242,9.601463],[-83.870275,9.602144],[-83.870048,9.603221],[-83.870518,9.603947],[-83.870672,9.604587],[-83.870614,9.605213],[-83.870967,9.606201],[-83.870802,9.607206],[-83.870498,9.60797],[-83.870041,9.608466],[-83.86968,9.607906],[-83.869068,9.607833],[-83.867864,9.607799],[-83.867055,9.607677],[-83.866511,9.607795],[-83.86579,9.608249],[-83.865331,9.608329],[-83.864629,9.607914],[-83.864036,9.60736],[-83.863552,9.606564],[-83.863383,9.605779],[-83.862128,9.605635],[-83.861112,9.605866],[-83.860821,9.605697],[-83.859836,9.586159]]]]}},{"type":"Feature","properties":{"id":null,"distrito":"COPEY","canton":"DOTA","provincia":"SAN JOSE","categoria":"RESERVA FORESTAL","nombre_asp":"LOS SANTO","ac":"ACC","plano":"1-279331-1995","tipo_adq":null,"don_ven":null,"area_m2":"187.348357409881","propiet":"EL ESTADO","n_finca":"1-447023-000","patrimonio":null,"ano_inscr":null,"identific":null,"valor":null,"expediente":null,"codigo_provincia":0,"codigo_canton":0,"codigo_distrito":0,"tramite_key":"MS0yNzkzMzEtMTk5NTo6MS00NDcwMjMtMDAw","asp_id":0},"geometry":{"type":"MultiPolygon","coordinates":[[[[-83.877292,9.621357],[-83.877142,9.62128],[-83.87661,9.621483],[-83.876174,9.621419],[-83.875735,9.621522],[-83.875106,9.621484],[-83.875251,9.621152],[-83.875152,9.620683],[-83.874808,9.620286],[-83.874435,9.62],[-83.874234,9.619947],[-83.873792,9.62019],[-83.873583,9.620045],[-83.873155,9.619947],[-83.872659,9.619999],[-83.872515,9.619855],[-83.872529,9.619671],[-83.872368,9.619443],[-83.872013,9.619374],[-83.871799,9.619107],[-83.871808,9.618808],[-83.871662,9.618653],[-83.871679,9.618524],[-83.871383,9.618341],[-83.870925,9.618217],[-83.870898,9.618088],[-83.870995,9.617724],[-83.870829,9.617263],[-83.870291,9.61689],[-83.869732,9.61675],[-83.86914,9.616192],[-83.868935,9.616127],[-83.867955,9.615505],[-83.867448,9.615537],[-83.867791,9.607865],[-83.868183,9.607846],[-83.868301,9.607903],[-83.868549,9.60838],[-83.868612,9.608614],[-83.869244,9.60913],[-83.869542,9.609251],[-83.870055,9.609184],[-83.870544,9.609298],[-83.871055,9.60905],[-83.87134,9.609036],[-83.871735,9.609212],[-83.8723,9.609313],[-83.872626,9.609144],[-83.872855,9.608619],[-83.873719,9.607749],[-83.874314,9.607744],[-83.875505,9.606968],[-83.876671,9.606843],[-83.87808,9.60597],[-83.878364,9.605749],[-83.878601,9.60569],[-83.879515,9.605314],[-83.880951,9.604539],[-83.881209,9.604396],[-83.881513,9.604127],[-83.881792,9.604414],[-83.881892,9.607204],[-83.881601,9.6075],[-83.881566,9.607796],[-83.881673,9.608049],[-83.882005,9.608514],[-83.881947,9.608881],[-83.882113,9.609187],[-83.881979,9.609829],[-83.881781,9.610014],[-83.881592,9.610462],[-83.881573,9.610765],[-83.88164,9.611226],[-83.881846,9.611788],[-83.881878,9.61219],[-83.881511,9.613015],[-83.881342,9.614025],[-83.881204,9.614485],[-83.880691,9.614824],[-83.879217,9.617362],[-83.878902,9.617919],[-83.878573,9.618175],[-83.878387,9.618187],[-83.878111,9.618401],[-83.877434,9.619121],[-83.877237,9.619546],[-83.877178,9.620333],[-83.877275,9.620956],[-83.877205,9.621349],[-83.877292,9.621357]]]]}},{"type":"Feature","properties":{"id":null,"distrito":"02","canton":"08","provincia":"3","categoria":"FUERA ASP","nombre_asp":"FUERA ASP","ac":"ACC","plano":"307313582001","tipo_adq":null,"don_ven":"DONACION","area_m2":"2.91241634534567","propiet":null,"n_finca":"3-156079-000","patrimonio":"2620762","ano_inscr":"1996","identific":null,"valor":null,"expediente":null,"codigo_provincia":0,"codigo_canton":0,"codigo_distrito":0,"tramite_key":"MzA3MzEzNTgyMDAxOjozLTE1NjA3OS0wMDA=","asp_id":0},"geometry":{"type":"MultiPolygon","coordinates":[[[[-83.897038,9.702821],[-83.897034,9.702821],[-83.897095,9.702556],[-83.897234,9.702253],[-83.897207,9.701937],[-83.897207,9.700594],[-83.897214,9.700068],[-83.897245,9.699848],[-83.897343,9.699143],[-83.897359,9.699033],[-83.897388,9.698587],[-83.897389,9.69856],[-83.897958,9.698603],[-83.897763,9.700091],[-83.897758,9.700133],[-83.897764,9.700596],[-83.897788,9.70228],[-83.897788,9.702285],[-83.897612,9.702873],[-83.897093,9.702826],[-83.897038,9.702821]]]]}},{"type":"Feature","properties":{"id":"16","distrito":"SAN_FRANCISCO","canton":"CARTAGO","provincia":"CARTAGO","categoria":"PARQUE NACIONAL","nombre_asp":"TAPANTI_MACIZO_DE_LA_MUERTE","ac":"ACC","plano":"3-0002250-1973","tipo_adq":"NO_HAY_DATOS","don_ven":"NO_HAY_DATOS","area_m2":"15.7094108282943","propiet":"ESTADO","n_finca":"3-0072791-000","patrimonio":"2620799","ano_inscr":"1973","identific":"30802007279100","valor":"¢23.771.196.480,00","expediente":"NO_HAY_DATOS","codigo_provincia":0,"codigo_canton":0,"codigo_distrito":0,"tramite_key":"My0wMDAyMjUwLTE5NzM6OjMtMDA3Mjc5MS0wMDA=","asp_id":0},"geometry":{"type":"MultiPolygon","coordinates":[[[[-83.913615,9.737058],[-83.913082,9.743001],[-83.910829,9.743838],[-83.911361,9.737895],[-83.913615,9.737058]]]]}},{"type":"Feature","properties":{"id":"62","distrito":"TOBOSI","canton":"GUARCO","provincia":"CARTAGO","categoria":"FUERA ASP","nombre_asp":"FUERA_ASP","ac":"ACC","plano":"3-1676082-2013","tipo_adq":"DONACION","don_ven":"INDER","area_m2":"45.6169767694444","propiet":"ESTADO-MINAE","n_finca":"3-0253648-000","patrimonio":"908012241","ano_inscr":"2016","identific":"30803025364800","valor":"¢375.851.603,00","expediente":"3019","codigo_provincia":0,"codigo_canton":0,"codigo_distrito":0,"tramite_key":"My0xNjc2MDgyLTIwMTM6OjMtMDI1MzY0OC0wMDA=","asp_id":0},"geometry":{"type":"MultiPolygon","coordinates":[[[[-83.986259,9.802683],[-83.985768,9.80225],[-83.985428,9.80253],[-83.985134,9.802699],[-83.985012,9.802789],[-83.984884,9.802853],[-83.984704,9.802899],[-83.983023,9.803329],[-83.982165,9.802321],[-83.981871,9.802713],[-83.981579,9.802935],[-83.981317,9.80332],[-83.981213,9.803366],[-83.980942,9.803448],[-83.980639,9.803597],[-83.980507,9.803565],[-83.980139,9.803511],[-83.980084,9.803373],[-83.980084,9.803311],[-83.980108,9.803184],[-83.980046,9.803005],[-83.97993,9.802758],[-83.979925,9.802612],[-83.979893,9.802571],[-83.979974,9.802279],[-83.980076,9.801959],[-83.980171,9.801657],[-83.980166,9.801391],[-83.98013,9.801224],[-83.980093,9.801052],[-83.98007,9.80063],[-83.980068,9.800489],[-83.980116,9.80041],[-83.980425,9.800065],[-83.9806,9.799826],[-83.98052,9.799805],[-83.980359,9.799386],[-83.980403,9.798765],[-83.980506,9.798607],[-83.980638,9.798432],[-83.980896,9.798235],[-83.981132,9.798096],[-83.981609,9.797735],[-83.981846,9.797672],[-83.982161,9.797672],[-83.982413,9.797672],[-83.982413,9.797423],[-83.982486,9.797594],[-83.983872,9.799838],[-83.985272,9.798684],[-83.985456,9.798532],[-83.986291,9.798422],[-83.986385,9.798409],[-83.986649,9.798875],[-83.986766,9.79895],[-83.986902,9.799072],[-83.987384,9.79939],[-83.987493,9.799437],[-83.987646,9.799549],[-83.98799,9.800106],[-83.987965,9.800266],[-83.988346,9.800707],[-83.988485,9.800971],[-83.988625,9.800991],[-83.988801,9.801009],[-83.988899,9.800985],[-83.989229,9.801056],[-83.989287,9.801378],[-83.98934,9.801611],[-83.986259,9.802683]]]]}}]}