{"type":"FeatureCollection","features":[{"type":"Feature","properties":{"fid_regist":1226,"formulario":6549,"nom_hum":"German Reyes","per_m":105.239957454,"area_m2":631.006192195,"area_ha":0.06310061922,"fecha":"2017-10-20","nom_func":"Oscar Fonseca - Mario Castro - Nestor Veas","poblado":"Alto Pacuare","nom_pro":"Cartago","nom_cant":"Turrialba","nom_dist":"Chirripo","nombre_ac":"Central","regmplan":"Central","asp":"Dentro","cat_manejo":"Reserva Forestal","nombre_asp":"Rio Macho","nom_cuenc":"Pacuare","nom_cb":"Fueras CB","tipo_hum":"Lacustre","clase_hum":"Laguna","nat_art":"Natural","unid_drena":"Caribe","unid_ecolo":"Sierra Volcánica Central"},"geometry":{"type":"MultiPolygon","coordinates":[[[[-83.507111,9.763728],[-83.507098,9.763705],[-83.507094,9.763686],[-83.507092,9.763661],[-83.507104,9.763644],[-83.507113,9.763633],[-83.507142,9.763623],[-83.507152,9.763614],[-83.507179,9.763623],[-83.507194,9.763635],[-83.507214,9.763658],[-83.507223,9.763671],[-83.507233,9.763694],[-83.507246,9.763702],[-83.507266,9.763706],[-83.507289,9.763706],[-83.507308,9.763708],[-83.507329,9.763708],[-83.507354,9.763715],[-83.507366,9.763725],[-83.507383,9.763742],[-83.507399,9.763758],[-83.507418,9.763784],[-83.50743,9.763807],[-83.507424,9.763832],[-83.50742,9.763849],[-83.507412,9.763867],[-83.507387,9.763884],[-83.50736,9.763897],[-83.507335,9.763897],[-83.507312,9.763895],[-83.507265,9.763888],[-83.507235,9.763866],[-83.507206,9.763832],[-83.507188,9.763813],[-83.507161,9.763784],[-83.507133,9.763755],[-83.507111,9.763728]]]]}},{"type":"Feature","properties":{"fid_regist":1232,"formulario":6556,"nom_hum":"Alto Pacuare","per_m":93.3411337594,"area_m2":503.486140812,"area_ha":0.05034861408,"fecha":"2017-10-20","nom_func":"Oscar Fonseca - Mario Castro - Nestor Veas","poblado":"Alto Pacuare","nom_pro":"Cartago","nom_cant":"Turrialba","nom_dist":"Chirripo","nombre_ac":"Central","regmplan":"Central","asp":"Dentro","cat_manejo":"Reserva Forestal","nombre_asp":"Rio Macho","nom_cuenc":"Pacuare","nom_cb":"Fueras CB","tipo_hum":"Palustre","clase_hum":"Pantano herbaceo","nat_art":"Natural","unid_drena":"Llanuras de San Carlos","unid_ecolo":"Sierra Volcánica Central"},"geometry":{"type":"MultiPolygon","coordinates":[[[[-83.51924,9.74805],[-83.519207,9.748002],[-83.519171,9.747948],[-83.519159,9.747912],[-83.519171,9.747873],[-83.519177,9.747837],[-83.519189,9.747819],[-83.51921,9.747819],[-83.519231,9.747816],[-83.519255,9.747811],[-83.51927,9.747808],[-83.519301,9.747817],[-83.519316,9.747846],[-83.519325,9.7479],[-83.519349,9.747942],[-83.519391,9.74799],[-83.519403,9.748023],[-83.519388,9.748062],[-83.519379,9.74808],[-83.519336,9.74805],[-83.519312,9.748059],[-83.519294,9.748083],[-83.519279,9.748086],[-83.51924,9.74805]]]]}},{"type":"Feature","properties":{"fid_regist":1227,"formulario":6550,"nom_hum":"Alvaro Leiva","per_m":179.916563786,"area_m2":2054.25295834,"area_ha":0.20542529583,"fecha":"2017-10-20","nom_func":"Oscar Fonseca - Mario Castro - Nestor Veas","poblado":"Alto Pacuare","nom_pro":"Cartago","nom_cant":"Turrialba","nom_dist":"Chirripo","nombre_ac":"Central","regmplan":"Central","asp":"Dentro","cat_manejo":"Reserva Forestal","nombre_asp":"Rio Macho","nom_cuenc":"Pacuare","nom_cb":"Fueras CB","tipo_hum":"Palustre","clase_hum":"Pantano herbaceo","nat_art":"Natural","unid_drena":"Caribe","unid_ecolo":"Sierra Volcánica Central"},"geometry":{"type":"MultiPolygon","coordinates":[[[[-83.530963,9.743368],[-83.531014,9.743365],[-83.531062,9.743398],[-83.531101,9.74344],[-83.531128,9.743464],[-83.531158,9.7435],[-83.531176,9.743538],[-83.531216,9.743562],[-83.531225,9.743619],[-83.53123,9.743706],[-83.531221,9.743769],[-83.531197,9.743826],[-83.531164,9.743882],[-83.531134,9.743918],[-83.531095,9.743918],[-83.531049,9.743891],[-83.53101,9.743852],[-83.530965,9.743807],[-83.530938,9.743741],[-83.530905,9.743706],[-83.530851,9.743688],[-83.530793,9.743646],[-83.530791,9.743598],[-83.530776,9.743541],[-83.530745,9.743508],[-83.530739,9.743457],[-83.530764,9.743421],[-83.530839,9.743409],[-83.530893,9.743395],[-83.530963,9.743368]]]]}},{"type":"Feature","properties":{"fid_regist":1228,"formulario":6551,"nom_hum":"Paco Vargas","per_m":265.182156218,"area_m2":3252.37156125,"area_ha":0.32523715613,"fecha":"2017-10-20","nom_func":"Oscar Fonseca - Mario Castro - Nestor Veas","poblado":"Alto Pacuare","nom_pro":"Cartago","nom_cant":"Turrialba","nom_dist":"Chirripo","nombre_ac":"Central","regmplan":"Central","asp":"Dentro","cat_manejo":"Reserva Forestal","nombre_asp":"Rio Macho","nom_cuenc":"Pacuare","nom_cb":"Fueras CB","tipo_hum":"Palustre","clase_hum":"Pantano herbaceo","nat_art":"Natural","unid_drena":"Caribe","unid_ecolo":"Sierra Volcánica Central"},"geometry":{"type":"MultiPolygon","coordinates":[[[[-83.532135,9.74124],[-83.532186,9.741225],[-83.53225,9.741231],[-83.532298,9.741279],[-83.532304,9.741366],[-83.532319,9.741432],[-83.532325,9.741492],[-83.532304,9.741578],[-83.532258,9.741641],[-83.532186,9.741695],[-83.532135,9.741731],[-83.532071,9.741802],[-83.532032,9.74185],[-83.531968,9.74191],[-83.531905,9.741961],[-83.531827,9.742014],[-83.531721,9.742068],[-83.531661,9.742095],[-83.531625,9.742083],[-83.531613,9.742044],[-83.531613,9.741987],[-83.531643,9.741927],[-83.531697,9.741891],[-83.531755,9.741841],[-83.531773,9.74179],[-83.531788,9.741733],[-83.531806,9.741679],[-83.531821,9.741629],[-83.531854,9.741581],[-83.531879,9.741545],[-83.531924,9.741509],[-83.53196,9.74147],[-83.531972,9.741425],[-83.53199,9.741384],[-83.532008,9.741342],[-83.532048,9.741297],[-83.532084,9.741264],[-83.532135,9.74124]]]]}},{"type":"Feature","properties":{"fid_regist":1231,"formulario":6554,"nom_hum":"Hugo Elizondo 3","per_m":94.712460232,"area_m2":314.039717472,"area_ha":0.03140397175,"fecha":"2017-10-20","nom_func":"Oscar Fonseca - Mario Castro - Nestor Veas","poblado":"Alto Pacuare","nom_pro":"Cartago","nom_cant":"Turrialba","nom_dist":"Chirripo","nombre_ac":"Central","regmplan":"Central","asp":"Dentro","cat_manejo":"Reserva Forestal","nombre_asp":"Rio Macho","nom_cuenc":"Pacuare","nom_cb":"Fueras CB","tipo_hum":"Palustre","clase_hum":"Pantano herbaceo","nat_art":"Natural","unid_drena":"Caribe","unid_ecolo":"Sierra Volcánica Central"},"geometry":{"type":"MultiPolygon","coordinates":[[[[-83.532136,9.733764],[-83.532165,9.73374],[-83.532204,9.733744],[-83.532247,9.733754],[-83.532266,9.733802],[-83.532237,9.73384],[-83.532189,9.73385],[-83.53216,9.733816],[-83.532141,9.733807],[-83.532136,9.733764]]],[[[-83.532609,9.733582],[-83.532672,9.733578],[-83.532696,9.733597],[-83.532691,9.733659],[-83.532657,9.733702],[-83.532609,9.73375],[-83.53257,9.733721],[-83.532561,9.733702],[-83.532575,9.733625],[-83.532609,9.733582]]]]}},{"type":"Feature","properties":{"fid_regist":1229,"formulario":6552,"nom_hum":"Hugo Elizondo 1","per_m":847.213066299,"area_m2":15960.4439877,"area_ha":1.59604439877,"fecha":"2017-10-20","nom_func":"Oscar Fonseca - Mario Castro - Nestor Veas","poblado":"Alto Pacuare","nom_pro":"Cartago","nom_cant":"Turrialba","nom_dist":"Chirripo","nombre_ac":"Central","regmplan":"Central","asp":"Dentro","cat_manejo":"Reserva Forestal","nombre_asp":"Rio Macho","nom_cuenc":"Pacuare","nom_cb":"Fueras CB","tipo_hum":"Palustre","clase_hum":"Pantano herbaceo","nat_art":"Natural","unid_drena":"Caribe","unid_ecolo":"Sierra Volcánica Central"},"geometry":{"type":"MultiPolygon","coordinates":[[[[-83.534058,9.73801],[-83.53396,9.737927],[-83.533931,9.737913],[-83.533852,9.737862],[-83.533783,9.737801],[-83.533758,9.73774],[-83.533762,9.737629],[-83.53378,9.737532],[-83.533784,9.737435],[-83.533755,9.737342],[-83.533704,9.737285],[-83.533657,9.737256],[-83.533585,9.737202],[-83.533625,9.737137],[-83.533665,9.737141],[-83.533733,9.737181],[-83.533806,9.737202],[-83.533911,9.737202],[-83.534001,9.737195],[-83.534102,9.737235],[-83.534171,9.737253],[-83.534316,9.737296],[-83.534403,9.737303],[-83.534507,9.737293],[-83.534569,9.737296],[-83.534594,9.737297],[-83.534659,9.737307],[-83.534685,9.737307],[-83.534757,9.73729],[-83.534775,9.73725],[-83.534826,9.73715],[-83.534927,9.737107],[-83.535,9.737103],[-83.535065,9.737085],[-83.535155,9.737071],[-83.535191,9.737143],[-83.535188,9.737233],[-83.535184,9.737333],[-83.535155,9.737398],[-83.535158,9.737466],[-83.535169,9.737527],[-83.535158,9.737581],[-83.535126,9.737624],[-83.535057,9.737638],[-83.534999,9.737627],[-83.534909,9.737602],[-83.534836,9.737602],[-83.53476,9.737616],[-83.534717,9.737648],[-83.534695,9.737691],[-83.534702,9.737742],[-83.534745,9.737803],[-83.534825,9.737814],[-83.534919,9.737828],[-83.535009,9.737814],[-83.535111,9.737814],[-83.535248,9.737811],[-83.535353,9.737829],[-83.535342,9.737897],[-83.535284,9.737961],[-83.53523,9.737994],[-83.535147,9.737997],[-83.535045,9.737993],[-83.534966,9.73799],[-83.534872,9.737975],[-83.534767,9.737975],[-83.534702,9.737978],[-83.534626,9.738011],[-83.534579,9.738075],[-83.534582,9.738136],[-83.534593,9.738212],[-83.534672,9.738301],[-83.534777,9.738348],[-83.534871,9.738363],[-83.53494,9.738399],[-83.534925,9.738539],[-83.534864,9.738596],[-83.534831,9.738682],[-83.534773,9.73879],[-83.534715,9.73885],[-83.534643,9.738843],[-83.534614,9.738775],[-83.53461,9.738653],[-83.534589,9.738549],[-83.534524,9.738484],[-83.534484,9.738427],[-83.534462,9.738402],[-83.534415,9.738373],[-83.53435,9.738333],[-83.534293,9.738297],[-83.534217,9.73824],[-83.534173,9.7382],[-83.534123,9.738107],[-83.534058,9.73801]]]]}},{"type":"Feature","properties":{"fid_regist":1230,"formulario":6553,"nom_hum":"Hugo Elizondo 2","per_m":677.052733171,"area_m2":9554.79208332,"area_ha":0.95547920833,"fecha":"2017-10-20","nom_func":"Oscar Fonseca - Mario Castro - Nestor Veas","poblado":"Alto Pacuare","nom_pro":"Cartago","nom_cant":"Turrialba","nom_dist":"Chirripo","nombre_ac":"Central","regmplan":"Central","asp":"Dentro","cat_manejo":"Reserva Forestal","nombre_asp":"Rio Macho","nom_cuenc":"Pacuare","nom_cb":"Fueras CB","tipo_hum":"Palustre","clase_hum":"Pantano herbaceo","nat_art":"Natural","unid_drena":"Caribe","unid_ecolo":"Sierra Volcánica Central"},"geometry":{"type":"MultiPolygon","coordinates":[[[[-83.536684,9.73374],[-83.536669,9.733663],[-83.536602,9.733677],[-83.536578,9.73373],[-83.536534,9.733806],[-83.536467,9.73383],[-83.536428,9.733854],[-83.536365,9.733811],[-83.536351,9.733792],[-83.536327,9.73372],[-83.536346,9.733648],[-83.536395,9.73361],[-83.536453,9.733534],[-83.536501,9.733505],[-83.536564,9.733438],[-83.536617,9.733352],[-83.53666,9.733299],[-83.536752,9.7333],[-83.536853,9.733319],[-83.536964,9.733319],[-83.537075,9.733329],[-83.537118,9.733381],[-83.537118,9.733477],[-83.537162,9.733554],[-83.537248,9.733496],[-83.537282,9.733449],[-83.537292,9.733295],[-83.537307,9.733181],[-83.53736,9.733162],[-83.537442,9.733162],[-83.53748,9.733147],[-83.537509,9.733167],[-83.537572,9.7332],[-83.537659,9.733258],[-83.53775,9.733248],[-83.53776,9.73321],[-83.537823,9.733067],[-83.537958,9.733009],[-83.538079,9.733029],[-83.53818,9.733029],[-83.538272,9.733],[-83.53832,9.733019],[-83.538315,9.733105],[-83.538238,9.733148],[-83.53817,9.733201],[-83.538194,9.733311],[-83.538213,9.73344],[-83.53817,9.733493],[-83.538083,9.733483],[-83.537996,9.73344],[-83.537929,9.733397],[-83.537851,9.733397],[-83.537842,9.733464],[-83.537793,9.733535],[-83.537678,9.733554],[-83.537567,9.733516],[-83.537504,9.733449],[-83.537388,9.733473],[-83.537364,9.73352],[-83.53733,9.733602],[-83.537316,9.733693],[-83.537311,9.733822],[-83.537296,9.733913],[-83.537224,9.733932],[-83.537171,9.733975],[-83.537079,9.733979],[-83.537012,9.73396],[-83.536963,9.733936],[-83.536901,9.733898],[-83.536809,9.733879],[-83.536761,9.733859],[-83.536684,9.733826],[-83.536674,9.733802],[-83.536684,9.73374]]]]}},{"type":"Feature","properties":{"fid_regist":637,"formulario":516,"nom_hum":"Cuerici 12","per_m":52.2069374228,"area_m2":167.339829141,"area_ha":0.01673398291,"fecha":"2016-12-13","nom_func":"Frank Gonzalez","poblado":"N/A - Sin Informacion","nom_pro":"San Jose","nom_cant":"Perez Zeledon","nom_dist":"Rivas","nombre_ac":"La Amistad - Pacifico","regmplan":"Brunca","asp":"Dentro","cat_manejo":"Parque Nacional","nombre_asp":"Chirripo","nom_cuenc":"Rio Grande de Terraba","nom_cb":"Fueras CB","tipo_hum":"Palustre","clase_hum":"Humedales de altura","nat_art":"Natural","unid_drena":"Terraba","unid_ecolo":"Alta Talamanca"},"geometry":{"type":"MultiPolygon","coordinates":[[[[-83.635958,9.57915],[-83.635951,9.57914],[-83.635941,9.57914],[-83.63592,9.579138],[-83.635917,9.579125],[-83.63592,9.579112],[-83.635927,9.579097],[-83.635934,9.57909],[-83.635943,9.579075],[-83.635955,9.579064],[-83.635965,9.579055],[-83.635978,9.579051],[-83.635988,9.579049],[-83.635999,9.579038],[-83.636006,9.579027],[-83.636017,9.579019],[-83.636031,9.579022],[-83.636039,9.579031],[-83.636052,9.579038],[-83.63606,9.579043],[-83.636064,9.579049],[-83.636069,9.579061],[-83.636076,9.579072],[-83.636087,9.579075],[-83.636093,9.579087],[-83.636074,9.579095],[-83.636066,9.579106],[-83.636055,9.579123],[-83.636036,9.579135],[-83.636021,9.579142],[-83.636006,9.579145],[-83.635991,9.579147],[-83.635976,9.579151],[-83.635958,9.57915]]]]}},{"type":"Feature","properties":{"fid_regist":640,"formulario":519,"nom_hum":"Cuerici 15","per_m":25.153088926,"area_m2":20.9838289951,"area_ha":0.0020983829,"fecha":"2016-12-13","nom_func":"Frank Gonzalez","poblado":"N/A - Sin Informacion","nom_pro":"San Jose","nom_cant":"Perez Zeledon","nom_dist":"Rivas","nombre_ac":"La Amistad - Pacifico","regmplan":"Brunca","asp":"Dentro","cat_manejo":"Parque Nacional","nombre_asp":"Chirripo","nom_cuenc":"Rio Grande de Terraba","nom_cb":"Fueras CB","tipo_hum":"Palustre","clase_hum":"Humedales de altura","nat_art":"Natural","unid_drena":"Terraba","unid_ecolo":"Alta Talamanca"},"geometry":{"type":"MultiPolygon","coordinates":[[[[-83.636256,9.581169],[-83.636274,9.581162],[-83.636284,9.58117],[-83.636278,9.58118],[-83.636268,9.58119],[-83.636265,9.581205],[-83.636269,9.581214],[-83.636293,9.581222],[-83.636274,9.58123],[-83.636262,9.581232],[-83.636251,9.581235],[-83.636249,9.581223],[-83.636252,9.581212],[-83.63625,9.5812],[-83.636242,9.581184],[-83.636244,9.581174],[-83.636256,9.581169]]]]}},{"type":"Feature","properties":{"fid_regist":639,"formulario":518,"nom_hum":"Cuerici 14","per_m":19.0009312962,"area_m2":16.3755775564,"area_ha":0.00163755776,"fecha":"2016-12-13","nom_func":"Frank Gonzalez","poblado":"N/A - Sin Informacion","nom_pro":"San Jose","nom_cant":"Perez Zeledon","nom_dist":"Rivas","nombre_ac":"La Amistad - Pacifico","regmplan":"Brunca","asp":"Dentro","cat_manejo":"Parque Nacional","nombre_asp":"Chirripo","nom_cuenc":"Rio Grande de Terraba","nom_cb":"Fueras CB","tipo_hum":"Palustre","clase_hum":"Humedales de altura","nat_art":"Natural","unid_drena":"Terraba","unid_ecolo":"Alta Talamanca"},"geometry":{"type":"MultiPolygon","coordinates":[[[[-83.636873,9.57974],[-83.636864,9.579737],[-83.636852,9.57974],[-83.636831,9.579744],[-83.636831,9.579735],[-83.636848,9.579719],[-83.636865,9.579714],[-83.636898,9.579727],[-83.636887,9.579746],[-83.636879,9.57975],[-83.636873,9.57974]]]]}},{"type":"Feature","properties":{"fid_regist":638,"formulario":517,"nom_hum":"Cuerici 13","per_m":52.7730605026,"area_m2":112.903455083,"area_ha":0.01129034551,"fecha":"2016-12-13","nom_func":"Frank Gonzalez","poblado":"N/A - Sin Informacion","nom_pro":"San Jose","nom_cant":"Perez Zeledon","nom_dist":"Rivas","nombre_ac":"La Amistad - Pacifico","regmplan":"Brunca","asp":"Dentro","cat_manejo":"Parque Nacional","nombre_asp":"Chirripo","nom_cuenc":"Rio Grande de Terraba","nom_cb":"Fueras CB","tipo_hum":"Palustre","clase_hum":"Humedales de altura","nat_art":"Natural","unid_drena":"Terraba","unid_ecolo":"Alta Talamanca"},"geometry":{"type":"MultiPolygon","coordinates":[[[[-83.637302,9.579398],[-83.637311,9.579383],[-83.637317,9.579364],[-83.637315,9.579349],[-83.637313,9.579331],[-83.637315,9.579322],[-83.637325,9.579303],[-83.637333,9.579287],[-83.637331,9.579274],[-83.637336,9.579259],[-83.637352,9.579249],[-83.637363,9.579243],[-83.637379,9.579249],[-83.637381,9.579268],[-83.637385,9.579293],[-83.6374,9.579308],[-83.637415,9.579331],[-83.637392,9.579335],[-83.637371,9.579335],[-83.637371,9.579347],[-83.637375,9.57937],[-83.637375,9.579396],[-83.637356,9.579398],[-83.637334,9.579389],[-83.637323,9.579402],[-83.637302,9.579398]]]]}},{"type":"Feature","properties":{"fid_regist":636,"formulario":505,"nom_hum":"Cuerici 1","per_m":763.455662167,"area_m2":2404.55826159,"area_ha":0.24045582616,"fecha":"2016-12-13","nom_func":"Frank Gonzalez","poblado":"N/A - Sin Informacion","nom_pro":"San Jose","nom_cant":"Perez Zeledon","nom_dist":"Rivas","nombre_ac":"La Amistad - Pacifico","regmplan":"Brunca","asp":"Dentro","cat_manejo":"Parque Nacional","nombre_asp":"Chirripo","nom_cuenc":"Rio Grande de Terraba","nom_cb":"Fueras CB","tipo_hum":"Palustre","clase_hum":"Humedales de altura","nat_art":"Natural","unid_drena":"Terraba","unid_ecolo":"Alta Talamanca"},"geometry":{"type":"MultiPolygon","coordinates":[[[[-83.636655,9.58166],[-83.636684,9.581643],[-83.636722,9.581648],[-83.636747,9.581655],[-83.636761,9.581643],[-83.636785,9.581651],[-83.636804,9.581665],[-83.636831,9.581672],[-83.636838,9.581691],[-83.63686,9.581706],[-83.636869,9.581732],[-83.636874,9.581763],[-83.636862,9.581789],[-83.636836,9.581799],[-83.636804,9.581792],[-83.636773,9.58178],[-83.636734,9.58177],[-83.636718,9.581765],[-83.636686,9.581741],[-83.636684,9.58171],[-83.636669,9.581684],[-83.636655,9.58166]]],[[[-83.63722,9.581661],[-83.63723,9.581647],[-83.637233,9.581634],[-83.637245,9.581629],[-83.637265,9.581628],[-83.637277,9.581623],[-83.637296,9.581616],[-83.637318,9.581606],[-83.637339,9.581596],[-83.637356,9.581586],[-83.637368,9.581582],[-83.63739,9.581577],[-83.637418,9.581564],[-83.637436,9.581554],[-83.637456,9.581543],[-83.637467,9.581535],[-83.637486,9.581539],[-83.637503,9.581543],[-83.637527,9.581561],[-83.637533,9.581581],[-83.637526,9.5816],[-83.637516,9.581616],[-83.637502,9.581629],[-83.637486,9.581638],[-83.637468,9.581651],[-83.637445,9.581664],[-83.637425,9.581665],[-83.637399,9.581661],[-83.637383,9.581656],[-83.637364,9.581653],[-83.637349,9.581651],[-83.637331,9.581651],[-83.637314,9.58165],[-83.637298,9.581661],[-83.637296,9.581673],[-83.637297,9.581686],[-83.637301,9.581696],[-83.637294,9.581709],[-83.637277,9.581713],[-83.637255,9.581715],[-83.63724,9.581718],[-83.637221,9.581718],[-83.637201,9.581727],[-83.637183,9.581743],[-83.637171,9.581753],[-83.637148,9.581764],[-83.637144,9.581741],[-83.637161,9.58172],[-83.63717,9.5817],[-83.63719,9.581686],[-83.637206,9.581676],[-83.63722,9.581661]]],[[[-83.637029,9.581644],[-83.637033,9.581622],[-83.637048,9.581605],[-83.637065,9.581603],[-83.637084,9.581605],[-83.637108,9.581606],[-83.637125,9.581601],[-83.637142,9.581594],[-83.637161,9.581572],[-83.637181,9.581567],[-83.637202,9.581565],[-83.637222,9.581546],[-83.637246,9.581524],[-83.637272,9.581498],[-83.637299,9.5815],[-83.63732,9.581508],[-83.63734,9.581522],[-83.63734,9.581536],[-83.637332,9.581558],[-83.637311,9.581575],[-83.637289,9.581596],[-83.637265,9.581603],[-83.637246,9.581598],[-83.637229,9.581596],[-83.637207,9.581606],[-83.637202,9.581618],[-83.63719,9.581637],[-83.63718,9.581632],[-83.637166,9.581627],[-83.637154,9.581639],[-83.63712,9.581651],[-83.637106,9.581637],[-83.637089,9.581634],[-83.63707,9.581627],[-83.637053,9.581639],[-83.637055,9.581658],[-83.637033,9.58168],[-83.637029,9.58167],[-83.637029,9.581644]]],[[[-83.63652,9.581536],[-83.636537,9.581521],[-83.636554,9.581538],[-83.636568,9.58156],[-83.636554,9.581576],[-83.636551,9.5816],[-83.636547,9.581624],[-83.636527,9.581636],[-83.636513,9.581624],[-83.636486,9.581619],[-83.636489,9.5816],[-83.636494,9.581586],[-83.636506,9.581567],[-83.63652,9.581536]]],[[[-83.637647,9.58157],[-83.637639,9.581557],[-83.637638,9.581532],[-83.637639,9.581523],[-83.637647,9.581515],[-83.637655,9.581504],[-83.637659,9.58149],[-83.637666,9.581476],[-83.63767,9.581464],[-83.637688,9.581451],[-83.637698,9.581438],[-83.637707,9.581423],[-83.637721,9.581421],[-83.637736,9.581425],[-83.63775,9.58143],[-83.637762,9.581442],[-83.637764,9.581457],[-83.637765,9.581476],[-83.637767,9.581498],[-83.637772,9.581519],[-83.637778,9.581536],[-83.637792,9.581551],[-83.637809,9.581568],[-83.637786,9.581575],[-83.637769,9.581569],[-83.637759,9.581573],[-83.637758,9.581581],[-83.637751,9.581596],[-83.637737,9.581612],[-83.637713,9.581615],[-83.637699,9.581605],[-83.63769,9.581588],[-83.637684,9.581585],[-83.63767,9.581584],[-83.637657,9.581578],[-83.637647,9.58157]]],[[[-83.637029,9.581503],[-83.637009,9.581491],[-83.63699,9.581491],[-83.636978,9.581507],[-83.636954,9.581505],[-83.636956,9.581481],[-83.636966,9.581469],[-83.636981,9.581464],[-83.636985,9.581438],[-83.63699,9.581412],[-83.637017,9.58139],[-83.637041,9.581376],[-83.637067,9.581359],[-83.637084,9.58134],[-83.637096,9.58133],[-83.637116,9.581318],[-83.637133,9.581309],[-83.637149,9.581318],[-83.637178,9.581345],[-83.637198,9.581369],[-83.637198,9.581393],[-83.637195,9.581412],[-83.637181,9.581436],[-83.637181,9.581455],[-83.637185,9.581479],[-83.637176,9.581498],[-83.637156,9.581515],[-83.637135,9.581543],[-83.637108,9.581558],[-83.637077,9.581572],[-83.637055,9.581591],[-83.637033,9.581577],[-83.637036,9.581555],[-83.637043,9.581527],[-83.637029,9.581503]]],[[[-83.636673,9.581563],[-83.636655,9.581556],[-83.636642,9.581556],[-83.63662,9.581556],[-83.636615,9.581557],[-83.63661,9.581545],[-83.636614,9.581535],[-83.636628,9.581534],[-83.63664,9.581536],[-83.636649,9.58154],[-83.636666,9.581542],[-83.636674,9.581534],[-83.636675,9.581523],[-83.636671,9.581511],[-83.63668,9.5815],[-83.636688,9.581488],[-83.636703,9.581484],[-83.636716,9.581492],[-83.636732,9.581496],[-83.636738,9.581488],[-83.636752,9.581485],[-83.636755,9.581499],[-83.636744,9.581516],[-83.636731,9.581537],[-83.636725,9.58155],[-83.636703,9.581557],[-83.63669,9.581564],[-83.636684,9.581565],[-83.636673,9.581563]]],[[[-83.636851,9.581459],[-83.636865,9.581453],[-83.636873,9.581459],[-83.636887,9.58147],[-83.636896,9.581479],[-83.636899,9.581491],[-83.636897,9.581502],[-83.63688,9.581512],[-83.636875,9.581522],[-83.636862,9.581537],[-83.636847,9.581544],[-83.636838,9.581553],[-83.636827,9.581554],[-83.636818,9.58155],[-83.636811,9.581537],[-83.636811,9.581531],[-83.636806,9.581517],[-83.636806,9.581504],[-83.636819,9.581482],[-83.636841,9.581467],[-83.636851,9.581459]]],[[[-83.6372,9.581338],[-83.637202,9.581316],[-83.637239,9.581321],[-83.637263,9.581328],[-83.637292,9.581328],[-83.637309,9.581316],[-83.637342,9.581314],[-83.637378,9.581314],[-83.637403,9.581319],[-83.637419,9.58134],[-83.637419,9.581369],[-83.637417,9.581388],[-83.637383,9.581398],[-83.637349,9.581405],[-83.637328,9.581412],[-83.637294,9.581412],[-83.637275,9.581419],[-83.63726,9.581429],[-83.637239,9.581436],[-83.637231,9.581414],[-83.637234,9.581388],[-83.637239,9.581374],[-83.637231,9.581357],[-83.63721,9.581345],[-83.6372,9.581338]]],[[[-83.636846,9.581245],[-83.636863,9.581238],[-83.636869,9.581226],[-83.636868,9.581209],[-83.636863,9.581193],[-83.636853,9.58118],[-83.636845,9.581165],[-83.636854,9.581154],[-83.636863,9.581145],[-83.63688,9.581135],[-83.636893,9.581131],[-83.636906,9.581121],[-83.636913,9.581109],[-83.636915,9.581095],[-83.636927,9.581088],[-83.636948,9.581099],[-83.636954,9.581108],[-83.636963,9.581126],[-83.636972,9.581144],[-83.636976,9.581164],[-83.636973,9.581181],[-83.636958,9.581192],[-83.636947,9.581202],[-83.636931,9.581209],[-83.636921,9.581223],[-83.636924,9.581241],[-83.636916,9.581258],[-83.636901,9.581255],[-83.636888,9.581239],[-83.636879,9.581253],[-83.636881,9.581264],[-83.636871,9.581264],[-83.636854,9.581267],[-83.636839,9.58128],[-83.636821,9.581284],[-83.636821,9.58127],[-83.636829,9.581256],[-83.636846,9.581245]]],[[[-83.637113,9.581128],[-83.637105,9.581105],[-83.637096,9.581086],[-83.637091,9.58107],[-83.637104,9.581054],[-83.637112,9.581034],[-83.637129,9.581024],[-83.637147,9.581037],[-83.637155,9.581048],[-83.63716,9.581063],[-83.637158,9.581081],[-83.637169,9.581097],[-83.63718,9.5811],[-83.637193,9.581098],[-83.637208,9.581096],[-83.637223,9.581092],[-83.637237,9.581086],[-83.63725,9.581072],[-83.637266,9.581059],[-83.637284,9.581051],[-83.637299,9.581045],[-83.637309,9.581043],[-83.637319,9.581047],[-83.637329,9.581054],[-83.637346,9.581065],[-83.637353,9.581068],[-83.637365,9.581065],[-83.637378,9.581064],[-83.637396,9.581069],[-83.637403,9.581091],[-83.637393,9.581114],[-83.637378,9.581124],[-83.637356,9.581119],[-83.637341,9.581115],[-83.63732,9.581121],[-83.637297,9.581134],[-83.637285,9.581144],[-83.637266,9.581151],[-83.637247,9.581154],[-83.637234,9.581155],[-83.63721,9.581167],[-83.637202,9.581169],[-83.637188,9.58117],[-83.637164,9.58116],[-83.637142,9.581154],[-83.637123,9.581141],[-83.637113,9.581128]]]]}},{"type":"Feature","properties":{"fid_regist":1185,"formulario":2305,"nom_hum":"Humedales cerro Vueltas 2","per_m":79.7393162749,"area_m2":271.989286748,"area_ha":0.02719892867,"fecha":"2016-04-09","nom_func":"Rigoberto Granados - Abel Cordero - Paulina Vargas","poblado":"N/A - Sin Informacion","nom_pro":"Cartago","nom_cant":"El Guarco","nom_dist":"San Isidro","nombre_ac":"Central","regmplan":"Central","asp":"Dentro","cat_manejo":"Reserva Forestal","nombre_asp":"Rio Macho","nom_cuenc":"Reventazon - Parismina","nom_cb":"Fueras CB","tipo_hum":"Palustre","clase_hum":"Pantano herbaceo","nat_art":"Natural","unid_drena":"Caribe","unid_ecolo":"Alta Talamanca"},"geometry":{"type":"MultiPolygon","coordinates":[[[[-83.757238,9.57313],[-83.757221,9.573116],[-83.757202,9.573116],[-83.757171,9.57313],[-83.757148,9.57313],[-83.757131,9.573121],[-83.75711,9.573104],[-83.757095,9.573097],[-83.757072,9.5731],[-83.757048,9.573109],[-83.757017,9.573104],[-83.756993,9.573086],[-83.756969,9.573076],[-83.756953,9.573067],[-83.75696,9.573046],[-83.756981,9.573034],[-83.756991,9.573027],[-83.757012,9.573015],[-83.757026,9.573004],[-83.757041,9.573001],[-83.757062,9.573001],[-83.757088,9.573006],[-83.757107,9.573015],[-83.757122,9.57302],[-83.757133,9.573022],[-83.757148,9.573027],[-83.757157,9.573034],[-83.757171,9.573039],[-83.757183,9.573046],[-83.757195,9.573065],[-83.757214,9.573076],[-83.757228,9.573086],[-83.757243,9.5731],[-83.757255,9.573118],[-83.757259,9.573133],[-83.75725,9.573135],[-83.757238,9.57313]]]]}},{"type":"Feature","properties":{"fid_regist":627,"formulario":2078,"nom_hum":"Humedales cerro Vueltas","per_m":79.7393162749,"area_m2":271.989286748,"area_ha":0.02719892867,"fecha":"2016-07-15","nom_func":"Nestor Veas","poblado":"N/A - Sin Informacion","nom_pro":"San Jose","nom_cant":"Perez Zeledon","nom_dist":"Paramo","nombre_ac":"La Amistad - Pacifico","regmplan":"Brunca","asp":"Dentro","cat_manejo":"Parque Nacional","nombre_asp":"Tapanti - Macizo Cerro de la Muerte","nom_cuenc":"Costero Caribeno","nom_cb":"Fueras CB","tipo_hum":"Palustre","clase_hum":"Humedales de altura","nat_art":"Natural","unid_drena":"Sixaola","unid_ecolo":"Alta Talamanca"},"geometry":{"type":"MultiPolygon","coordinates":[[[[-83.757238,9.57313],[-83.757221,9.573116],[-83.757202,9.573116],[-83.757171,9.57313],[-83.757148,9.57313],[-83.757131,9.573121],[-83.75711,9.573104],[-83.757095,9.573097],[-83.757072,9.5731],[-83.757048,9.573109],[-83.757017,9.573104],[-83.756993,9.573086],[-83.756969,9.573076],[-83.756953,9.573067],[-83.75696,9.573046],[-83.756981,9.573034],[-83.756991,9.573027],[-83.757012,9.573015],[-83.757026,9.573004],[-83.757041,9.573001],[-83.757062,9.573001],[-83.757088,9.573006],[-83.757107,9.573015],[-83.757122,9.57302],[-83.757133,9.573022],[-83.757148,9.573027],[-83.757157,9.573034],[-83.757171,9.573039],[-83.757183,9.573046],[-83.757195,9.573065],[-83.757214,9.573076],[-83.757228,9.573086],[-83.757243,9.5731],[-83.757255,9.573118],[-83.757259,9.573133],[-83.75725,9.573135],[-83.757238,9.57313]]]]}},{"type":"Feature","properties":{"fid_regist":1191,"formulario":109,"nom_hum":"Tajo Jaboncillo","per_m":220.941831806,"area_m2":3410.15278971,"area_ha":0.34101527897,"fecha":"2016-04-09","nom_func":"Rigoberto Granados - Abel Cordero - Nestor Veas","poblado":"San Gerardo de Dota","nom_pro":"San Jose","nom_cant":"Dota","nom_dist":"Copey","nombre_ac":"Central","regmplan":"Central","asp":"Parcialmente","cat_manejo":"Parque Nacional","nombre_asp":"Tapanti - Macizo Cerro de la Muerte","nom_cuenc":"Savegre","nom_cb":"Fueras CB","tipo_hum":"Lacustre","clase_hum":"Laguna","nat_art":"Artificial","unid_drena":"Tarcoles","unid_ecolo":"Sierra Volcánica Central"},"geometry":{"type":"MultiPolygon","coordinates":[[[[-83.787623,9.602543],[-83.787659,9.602543],[-83.787684,9.60255],[-83.787709,9.602554],[-83.787752,9.602568],[-83.78778,9.602586],[-83.787812,9.602603],[-83.787848,9.602624],[-83.78788,9.602656],[-83.787941,9.602698],[-83.787973,9.602733],[-83.787998,9.602761],[-83.788037,9.602793],[-83.788069,9.602832],[-83.788112,9.602867],[-83.788119,9.602891],[-83.788137,9.60293],[-83.788133,9.602958],[-83.788126,9.602986],[-83.788119,9.603007],[-83.788101,9.603039],[-83.788083,9.60305],[-83.788058,9.603078],[-83.788044,9.603085],[-83.788019,9.603085],[-83.787991,9.603109],[-83.787923,9.603123],[-83.787873,9.603141],[-83.787827,9.603159],[-83.787773,9.603173],[-83.78773,9.603159],[-83.787698,9.603134],[-83.78767,9.603099],[-83.787648,9.603064],[-83.787609,9.603036],[-83.787581,9.603],[-83.787566,9.602983],[-83.787552,9.602951],[-83.787531,9.602916],[-83.787502,9.602884],[-83.787477,9.602853],[-83.787463,9.602818],[-83.787452,9.602779],[-83.787467,9.602737],[-83.787474,9.602709],[-83.787467,9.602673],[-83.787488,9.602635],[-83.787509,9.60261],[-83.78752,9.602582],[-83.787559,9.602554],[-83.787595,9.602547],[-83.787623,9.602543]]]]}},{"type":"Feature","properties":{"fid_regist":1190,"formulario":108,"nom_hum":"Turbera Jaboncillo","per_m":333.975683548,"area_m2":3680.803903,"area_ha":0.3680803903,"fecha":"2016-04-09","nom_func":"Rigoberto Granados - Abel Cordero - Nestor Veas","poblado":"San Gerardo de Dota","nom_pro":"Cartago","nom_cant":"Cartago","nom_dist":"Aguacaliente","nombre_ac":"Central","regmplan":"Central","asp":"Dentro","cat_manejo":"Parque Nacional","nombre_asp":"Tapanti - Macizo Cerro de la Muerte","nom_cuenc":"Reventazon - Parismina","nom_cb":"Fueras CB","tipo_hum":"Palustre","clase_hum":"Humedales de altura","nat_art":"Natural","unid_drena":"Caribe","unid_ecolo":"Sierra Volcánica Central"},"geometry":{"type":"MultiPolygon","coordinates":[[[[-83.788874,9.612699],[-83.788955,9.612681],[-83.789003,9.612662],[-83.78906,9.612624],[-83.789117,9.612577],[-83.789155,9.612521],[-83.789188,9.612484],[-83.789255,9.612493],[-83.789321,9.612502],[-83.789388,9.612465],[-83.789416,9.612432],[-83.789454,9.612404],[-83.789483,9.612409],[-83.78954,9.612418],[-83.789573,9.612367],[-83.789554,9.612343],[-83.789545,9.612315],[-83.789568,9.612301],[-83.78963,9.61232],[-83.789673,9.612343],[-83.789711,9.612395],[-83.789706,9.612451],[-83.789721,9.612498],[-83.78974,9.612559],[-83.789763,9.61261],[-83.789778,9.61269],[-83.789759,9.612746],[-83.789716,9.612784],[-83.789659,9.61277],[-83.789578,9.612723],[-83.789454,9.612695],[-83.789317,9.612746],[-83.789264,9.612779],[-83.789202,9.612802],[-83.789155,9.612821],[-83.789117,9.612845],[-83.789031,9.612892],[-83.78897,9.612924],[-83.788922,9.612938],[-83.788841,9.612966],[-83.788775,9.61299],[-83.788699,9.612995],[-83.788656,9.612938],[-83.78868,9.612887],[-83.788708,9.612845],[-83.788727,9.612807],[-83.788779,9.61277],[-83.788851,9.612723],[-83.788874,9.612699]]]]}},{"type":"Feature","properties":{"fid_regist":1257,"formulario":8561,"nom_hum":"Estanque El Trogon","per_m":56.4526500094,"area_m2":230.571671148,"area_ha":0.02305716711,"fecha":"2017-12-14","nom_func":"Priscilla Castro  - Edwim Jimenez - Francini  Acuna","poblado":"San Gerardo","nom_pro":"San Jose","nom_cant":"Dota","nom_dist":"Copey","nombre_ac":"Central","regmplan":"Central","asp":"Dentro","cat_manejo":"Reserva Forestal","nombre_asp":"Los Santos","nom_cuenc":"Savegre","nom_cb":"Fueras CB","tipo_hum":"Lacustre","clase_hum":"Laguna","nat_art":"Artificial","unid_drena":"Tarcoles","unid_ecolo":"Alta Talamanca"},"geometry":{"type":"MultiPolygon","coordinates":[[[[-83.800441,9.576891],[-83.800451,9.576888],[-83.800477,9.576892],[-83.800513,9.576918],[-83.800543,9.57696],[-83.800547,9.576986],[-83.800542,9.577026],[-83.800526,9.577048],[-83.800505,9.577064],[-83.800484,9.577071],[-83.800451,9.577071],[-83.800428,9.577059],[-83.800412,9.577037],[-83.800416,9.576989],[-83.80042,9.576949],[-83.800426,9.576931],[-83.800429,9.576915],[-83.800433,9.576902],[-83.800441,9.576891]]]]}},{"type":"Feature","properties":{"fid_regist":1258,"formulario":8563,"nom_hum":"Estanque Uilises Monge 1","per_m":114.239212996,"area_m2":310.839515716,"area_ha":0.03108395157,"fecha":"2017-12-14","nom_func":"Priscilla Castro  - Edwim Jimenez - Francini  Acuna","poblado":"San Gerardo","nom_pro":"San Jose","nom_cant":"Dota","nom_dist":"Copey","nombre_ac":"Central","regmplan":"Central","asp":"Dentro","cat_manejo":"Reserva Forestal","nombre_asp":"Los Santos","nom_cuenc":"Savegre","nom_cb":"Fueras CB","tipo_hum":"Lacustre","clase_hum":"Laguna","nat_art":"Artificial","unid_drena":"Tarcoles","unid_ecolo":"Alta Talamanca"},"geometry":{"type":"MultiPolygon","coordinates":[[[[-83.801368,9.565556],[-83.801399,9.565544],[-83.801429,9.565548],[-83.801454,9.565557],[-83.801462,9.565576],[-83.801468,9.565604],[-83.801467,9.56563],[-83.801467,9.565647],[-83.801452,9.565659],[-83.801432,9.565671],[-83.801412,9.565677],[-83.80139,9.565678],[-83.80137,9.56567],[-83.801352,9.565661],[-83.801338,9.565645],[-83.801335,9.565627],[-83.801336,9.56561],[-83.801351,9.565584],[-83.801368,9.565556]]],[[[-83.801588,9.565417],[-83.801617,9.565376],[-83.801683,9.565418],[-83.801656,9.565455],[-83.80161,9.565429],[-83.801588,9.565417]]],[[[-83.801351,9.565186],[-83.801401,9.565103],[-83.801465,9.565134],[-83.801431,9.565227],[-83.801351,9.565186]]]]}},{"type":"Feature","properties":{"fid_regist":1254,"formulario":8458,"nom_hum":"Humedal Los Quetzales 1","per_m":4029.3817444,"area_m2":93103.4581802,"area_ha":9.31034581802,"fecha":"2017-12-13","nom_func":"Edwim Jimenez - Alexis Mafrigal -  Francini  Acuna","poblado":"Salsipuedes","nom_pro":"San Jose","nom_cant":"Dota","nom_dist":"Copey","nombre_ac":"Central","regmplan":"Central","asp":"Dentro","cat_manejo":"Parque Nacional","nombre_asp":"Los Quetzales","nom_cuenc":"Savegre","nom_cb":"Fueras CB","tipo_hum":"Palustre","clase_hum":"Humedales de altura","nat_art":"Natural","unid_drena":"Tarcoles","unid_ecolo":"Alta Talamanca"},"geometry":{"type":"MultiPolygon","coordinates":[[[[-83.805367,9.612022],[-83.805316,9.612007],[-83.805285,9.612022],[-83.805253,9.612058],[-83.805215,9.612089],[-83.805152,9.612113],[-83.805094,9.612115],[-83.805036,9.612098],[-83.804991,9.612053],[-83.804952,9.61199],[-83.804928,9.611928],[-83.804889,9.61184],[-83.804861,9.611749],[-83.804841,9.611696],[-83.80481,9.611655],[-83.804767,9.611619],[-83.804702,9.611605],[-83.804665,9.611586],[-83.804632,9.611528],[-83.804615,9.611469],[-83.804622,9.611423],[-83.804649,9.611416],[-83.804682,9.611433],[-83.804738,9.611462],[-83.804788,9.611519],[-83.80487,9.611579],[-83.804906,9.61162],[-83.804933,9.611667],[-83.804947,9.611727],[-83.804981,9.611782],[-83.805017,9.611792],[-83.80509,9.61179],[-83.805133,9.611763],[-83.805186,9.611715],[-83.805213,9.611636],[-83.80521,9.611596],[-83.805201,9.611567],[-83.80521,9.611517],[-83.805198,9.611459],[-83.80515,9.611412],[-83.805095,9.611412],[-83.805025,9.611411],[-83.804979,9.611428],[-83.804926,9.611431],[-83.804873,9.611404],[-83.804841,9.611376],[-83.804774,9.611337],[-83.804694,9.611313],[-83.804593,9.611272],[-83.804485,9.611225],[-83.804441,9.611193],[-83.804384,9.611146],[-83.80435,9.611091],[-83.804338,9.611043],[-83.804345,9.610992],[-83.804381,9.610952],[-83.804415,9.610942],[-83.804456,9.610921],[-83.804478,9.610882],[-83.804475,9.61083],[-83.804442,9.610746],[-83.804439,9.610684],[-83.804447,9.610586],[-83.804449,9.610512],[-83.804449,9.610454],[-83.804437,9.610375],[-83.804418,9.610308],[-83.804415,9.61026],[-83.80443,9.61022],[-83.804476,9.610198],[-83.804529,9.610208],[-83.804589,9.610258],[-83.804671,9.610316],[-83.804823,9.610409],[-83.804914,9.61044],[-83.804958,9.610457],[-83.804977,9.610483],[-83.804977,9.610517],[-83.80496,9.610526],[-83.804926,9.610541],[-83.804905,9.610579],[-83.804902,9.610641],[-83.804905,9.610696],[-83.804943,9.610732],[-83.804991,9.61077],[-83.805037,9.610823],[-83.805083,9.610892],[-83.805107,9.610983],[-83.805117,9.610998],[-83.805157,9.611005],[-83.805206,9.611017],[-83.805285,9.611041],[-83.805372,9.611072],[-83.805403,9.611067],[-83.805452,9.61106],[-83.805495,9.611077],[-83.805526,9.611132],[-83.805531,9.61117],[-83.805509,9.611211],[-83.80549,9.611247],[-83.805478,9.61128],[-83.80548,9.61134],[-83.805497,9.611371],[-83.805524,9.611393],[-83.80555,9.611405],[-83.805569,9.611431],[-83.805574,9.61146],[-83.805574,9.611486],[-83.805565,9.611498],[-83.805569,9.611517],[-83.805569,9.611522],[-83.805589,9.611524],[-83.805651,9.61156],[-83.805685,9.611603],[-83.805678,9.611668],[-83.805675,9.611716],[-83.805675,9.611773],[-83.805697,9.611831],[-83.805709,9.611878],[-83.80575,9.611931],[-83.805803,9.611969],[-83.805844,9.612008],[-83.805856,9.612044],[-83.805854,9.612087],[-83.80581,9.612113],[-83.805757,9.612132],[-83.805697,9.612146],[-83.805639,9.612153],[-83.805593,9.612137],[-83.80554,9.612113],[-83.80548,9.612091],[-83.805417,9.612043],[-83.805367,9.612022]]],[[[-83.803691,9.61111],[-83.803667,9.611095],[-83.803619,9.611098],[-83.80358,9.611104],[-83.803507,9.611119],[-83.803447,9.611104],[-83.803378,9.611074],[-83.803357,9.611038],[-83.80333,9.611005],[-83.803302,9.610999],[-83.803263,9.610976],[-83.803248,9.610934],[-83.803239,9.610865],[-83.803242,9.610802],[-83.80326,9.610775],[-83.803287,9.610757],[-83.803318,9.610742],[-83.803312,9.610697],[-83.803291,9.610656],[-83.803242,9.610629],[-83.803203,9.610629],[-83.803149,9.610623],[-83.803107,9.61062],[-83.803071,9.610572],[-83.803059,9.610515],[-83.803059,9.610452],[-83.803092,9.610389],[-83.803128,9.610327],[-83.80314,9.610255],[-83.803125,9.610165],[-83.803089,9.610105],[-83.803038,9.61006],[-83.802996,9.610024],[-83.802929,9.610003],[-83.802872,9.610002],[-83.802767,9.609987],[-83.802709,9.609984],[-83.802622,9.60998],[-83.802517,9.609977],[-83.802427,9.609966],[-83.802351,9.609919],[-83.80229,9.609865],[-83.802138,9.609775],[-83.801997,9.609678],[-83.801809,9.609603],[-83.801672,9.60951],[-83.801534,9.609481],[-83.801372,9.609466],[-83.80123,9.609502],[-83.801122,9.60961],[-83.800992,9.609746],[-83.80088,9.609818],[-83.800778,9.609839],[-83.800626,9.609814],[-83.800543,9.609764],[-83.800529,9.609599],[-83.800536,9.609419],[-83.800569,9.609272],[-83.800569,9.609197],[-83.800526,9.609114],[-83.80049,9.609032],[-83.800388,9.608924],[-83.800267,9.608822],[-83.80005,9.60872],[-83.799683,9.6086],[-83.799357,9.608427],[-83.798954,9.608211],[-83.798707,9.607912],[-83.798701,9.607661],[-83.798719,9.607523],[-83.798834,9.607446],[-83.798972,9.60744],[-83.799189,9.607452],[-83.79937,9.60747],[-83.799509,9.607374],[-83.799569,9.607189],[-83.799593,9.607003],[-83.799599,9.606734],[-83.799509,9.606543],[-83.799341,9.606429],[-83.799202,9.606333],[-83.799082,9.606172],[-83.799015,9.606004],[-83.798913,9.605944],[-83.798841,9.606022],[-83.798804,9.606124],[-83.798726,9.606333],[-83.798659,9.606572],[-83.798659,9.606955],[-83.798659,9.607158],[-83.798647,9.607278],[-83.798599,9.60735],[-83.798508,9.607314],[-83.798424,9.60717],[-83.798358,9.607015],[-83.798286,9.606799],[-83.798274,9.60656],[-83.798256,9.606291],[-83.798262,9.606016],[-83.798347,9.605813],[-83.798491,9.605645],[-83.79869,9.605484],[-83.798829,9.605388],[-83.798913,9.605251],[-83.799088,9.60494],[-83.799239,9.604748],[-83.79933,9.604623],[-83.799348,9.604509],[-83.799348,9.604348],[-83.799372,9.604121],[-83.79939,9.603899],[-83.799414,9.603732],[-83.799505,9.603642],[-83.799662,9.603678],[-83.799788,9.603828],[-83.799848,9.603947],[-83.799896,9.604097],[-83.799908,9.6043],[-83.799872,9.604516],[-83.799787,9.604719],[-83.799673,9.604898],[-83.799607,9.604946],[-83.799456,9.605119],[-83.799281,9.605454],[-83.799305,9.605705],[-83.799401,9.605843],[-83.79954,9.605915],[-83.799654,9.605933],[-83.799708,9.605909],[-83.799775,9.605861],[-83.799883,9.605849],[-83.799986,9.605885],[-83.8001,9.605933],[-83.800245,9.606053],[-83.800305,9.606232],[-83.800311,9.606442],[-83.800172,9.606687],[-83.800051,9.606914],[-83.799973,9.607099],[-83.799882,9.607339],[-83.799882,9.607482],[-83.799912,9.607668],[-83.799973,9.607763],[-83.79996,9.607919],[-83.799936,9.60811],[-83.799942,9.608313],[-83.80005,9.608451],[-83.800141,9.608535],[-83.800261,9.608595],[-83.800328,9.608667],[-83.800502,9.608792],[-83.800627,9.608906],[-83.800696,9.608913],[-83.800761,9.608956],[-83.800782,9.609028],[-83.800808,9.609107],[-83.800894,9.609186],[-83.801032,9.609247],[-83.801213,9.609312],[-83.80135,9.609348],[-83.801455,9.609359],[-83.80157,9.609359],[-83.801672,9.609355],[-83.801737,9.609334],[-83.801784,9.609291],[-83.801863,9.609294],[-83.801952,9.609324],[-83.802048,9.609412],[-83.802088,9.609456],[-83.802142,9.609493],[-83.802218,9.609554],[-83.802333,9.609619],[-83.802449,9.609667],[-83.802557,9.609682],[-83.802669,9.609682],[-83.802783,9.609681],[-83.802862,9.609669],[-83.802939,9.609663],[-83.802989,9.609677],[-83.80301,9.609707],[-83.80312,9.609776],[-83.803236,9.609782],[-83.803332,9.609803],[-83.803508,9.609861],[-83.80361,9.609911],[-83.803718,9.609962],[-83.803818,9.610018],[-83.803884,9.610068],[-83.803945,9.610095],[-83.804005,9.610091],[-83.804063,9.610091],[-83.804169,9.610146],[-83.804271,9.610256],[-83.804327,9.610407],[-83.804351,9.610498],[-83.804327,9.610551],[-83.804246,9.610629],[-83.80417,9.610671],[-83.804101,9.610752],[-83.804062,9.61085],[-83.804017,9.610928],[-83.804029,9.61103],[-83.804032,9.611102],[-83.804035,9.6112],[-83.804053,9.611254],[-83.804062,9.611317],[-83.804056,9.611374],[-83.804046,9.611425],[-83.803995,9.611454],[-83.803941,9.611401],[-83.803872,9.611362],[-83.80379,9.611317],[-83.803724,9.611281],[-83.803667,9.611245],[-83.803676,9.611203],[-83.803697,9.611176],[-83.8037,9.611149],[-83.803691,9.61111]]]]}},{"type":"Feature","properties":{"fid_regist":1259,"formulario":8566,"nom_hum":"Estanque Chacon 1","per_m":62.5860856264,"area_m2":108.06205457,"area_ha":0.01080620546,"fecha":"2017-12-14","nom_func":"Priscilla Castro  - Edwim Jimenez - Francini  Acuna","poblado":"San Gerardo","nom_pro":"San Jose","nom_cant":"Dota","nom_dist":"Copey","nombre_ac":"Central","regmplan":"Central","asp":"Dentro","cat_manejo":"Reserva Forestal","nombre_asp":"Los Santos","nom_cuenc":"Savegre","nom_cb":"Fueras CB","tipo_hum":"Lacustre","clase_hum":"Laguna","nat_art":"Artificial","unid_drena":"Tarcoles","unid_ecolo":"Alta Talamanca"},"geometry":{"type":"MultiPolygon","coordinates":[[[[-83.806197,9.555776],[-83.806252,9.555709],[-83.806287,9.555729],[-83.806235,9.555805],[-83.806197,9.555776]]],[[[-83.806274,9.555653],[-83.806325,9.555563],[-83.806369,9.55559],[-83.806317,9.555674],[-83.806274,9.555653]]]]}},{"type":"Feature","properties":{"fid_regist":1253,"formulario":8456,"nom_hum":"Estanque Incopesca 1","per_m":274.322426706,"area_m2":1960.25019182,"area_ha":0.19602501918,"fecha":"2017-12-13","nom_func":"Edwim Jimenez - Alexis Mafrigal -  Francini  Acuna","poblado":"Salsipuedes","nom_pro":"San Jose","nom_cant":"Dota","nom_dist":"Copey","nombre_ac":"Central","regmplan":"Central","asp":"Dentro","cat_manejo":"Parque Nacional","nombre_asp":"Los Quetzales","nom_cuenc":"Savegre","nom_cb":"Fueras CB","tipo_hum":"Lacustre","clase_hum":"Laguna","nat_art":"Artificial","unid_drena":"Tarcoles","unid_ecolo":"Alta Talamanca"},"geometry":{"type":"MultiPolygon","coordinates":[[[[-83.806317,9.612476],[-83.806341,9.612399],[-83.806361,9.61235],[-83.806368,9.612337],[-83.806399,9.612346],[-83.806431,9.612355],[-83.806455,9.61236],[-83.806471,9.612357],[-83.806483,9.612341],[-83.806499,9.612328],[-83.806533,9.612327],[-83.80657,9.612337],[-83.806602,9.612342],[-83.806624,9.612339],[-83.806645,9.612325],[-83.806659,9.612309],[-83.806663,9.612288],[-83.80667,9.612271],[-83.80668,9.612264],[-83.806689,9.612263],[-83.806728,9.61224],[-83.806762,9.612238],[-83.806792,9.612246],[-83.806795,9.612265],[-83.806785,9.612284],[-83.806766,9.612296],[-83.806736,9.612307],[-83.80672,9.612341],[-83.806728,9.612362],[-83.806754,9.612381],[-83.806782,9.612396],[-83.806825,9.6124],[-83.80685,9.6124],[-83.80686,9.612407],[-83.806864,9.612427],[-83.80686,9.612434],[-83.806835,9.612449],[-83.806811,9.612462],[-83.806779,9.612493],[-83.80674,9.612522],[-83.806712,9.612538],[-83.806682,9.612566],[-83.806679,9.612598],[-83.806665,9.612634],[-83.806653,9.612652],[-83.806633,9.612665],[-83.806597,9.612671],[-83.806559,9.612671],[-83.806523,9.612662],[-83.806489,9.612639],[-83.806465,9.612618],[-83.806455,9.612585],[-83.806446,9.61256],[-83.806424,9.612549],[-83.806383,9.612545],[-83.806355,9.612543],[-83.806329,9.61252],[-83.806317,9.612476]]],[[[-83.805984,9.612301],[-83.806014,9.612296],[-83.806029,9.612299],[-83.806207,9.612375],[-83.806154,9.612522],[-83.805938,9.612423],[-83.805984,9.612301]]]]}},{"type":"Feature","properties":{"fid_regist":1260,"formulario":8568,"nom_hum":"Estanque Carlos Chacon 1","per_m":149.879574907,"area_m2":825.082572887,"area_ha":0.08250825729,"fecha":"2017-12-14","nom_func":"Priscilla Castro  - Edwim Jimenez - Francini  Acuna","poblado":"San Gerardo","nom_pro":"San Jose","nom_cant":"Dota","nom_dist":"Copey","nombre_ac":"Central","regmplan":"Central","asp":"Dentro","cat_manejo":"Reserva Forestal","nombre_asp":"Los Santos","nom_cuenc":"Savegre","nom_cb":"Fueras CB","tipo_hum":"Lacustre","clase_hum":"Laguna","nat_art":"Artificial","unid_drena":"Tarcoles","unid_ecolo":"Alta Talamanca"},"geometry":{"type":"MultiPolygon","coordinates":[[[[-83.807772,9.552127],[-83.807818,9.552127],[-83.807871,9.552159],[-83.807875,9.552189],[-83.807875,9.552225],[-83.807856,9.552249],[-83.807825,9.552283],[-83.807742,9.552292],[-83.807705,9.552279],[-83.80769,9.552264],[-83.807691,9.552255],[-83.807692,9.552214],[-83.807713,9.552182],[-83.807738,9.552154],[-83.807772,9.552127]]],[[[-83.80797,9.551979],[-83.808034,9.551972],[-83.808107,9.551983],[-83.80815,9.552017],[-83.808166,9.552069],[-83.808124,9.552112],[-83.808013,9.5522],[-83.807974,9.552191],[-83.807939,9.552154],[-83.807899,9.552099],[-83.80788,9.55206],[-83.807869,9.552037],[-83.807901,9.552002],[-83.80797,9.551979]]]]}},{"type":"Feature","properties":{"fid_regist":1261,"formulario":8571,"nom_hum":"Estanque Jardin Laureceas 1","per_m":126.342194828,"area_m2":530.488694903,"area_ha":0.05304886949,"fecha":"2017-12-14","nom_func":"Priscilla Castro  - Edwim Jimenez - Francini  Acuna","poblado":"San Gerardo","nom_pro":"San Jose","nom_cant":"Dota","nom_dist":"Copey","nombre_ac":"Central","regmplan":"Central","asp":"Dentro","cat_manejo":"Reserva Forestal","nombre_asp":"Los Santos","nom_cuenc":"Savegre","nom_cb":"Fueras CB","tipo_hum":"Lacustre","clase_hum":"Laguna","nat_art":"Artificial","unid_drena":"Tarcoles","unid_ecolo":"Alta Talamanca"},"geometry":{"type":"MultiPolygon","coordinates":[[[[-83.811127,9.547368],[-83.811169,9.547279],[-83.811284,9.547327],[-83.811245,9.547444],[-83.811164,9.547392],[-83.811127,9.547368]]],[[[-83.811244,9.54708],[-83.811281,9.547072],[-83.81134,9.547087],[-83.811359,9.547113],[-83.811352,9.547138],[-83.811333,9.547186],[-83.811333,9.547231],[-83.811333,9.547264],[-83.811325,9.547284],[-83.811317,9.547301],[-83.811302,9.547307],[-83.811275,9.547305],[-83.811243,9.547292],[-83.811215,9.54727],[-83.811197,9.547247],[-83.811182,9.547213],[-83.811181,9.547181],[-83.8112,9.547156],[-83.811222,9.547122],[-83.811244,9.54708]]]]}},{"type":"Feature","properties":{"fid_regist":1183,"formulario":2303,"nom_hum":"Sabanas El Indio","per_m":6320.37117513,"area_m2":226729.134253,"area_ha":22.6729134253,"fecha":"2016-03-22","nom_func":"Paulina Vargas","poblado":"N/A - Sin Informacion","nom_pro":"Cartago","nom_cant":"Cartago","nom_dist":"Aguacaliente","nombre_ac":"Central","regmplan":"Central","asp":"Dentro","cat_manejo":"Parque Nacional","nombre_asp":"Tapanti - Macizo Cerro de la Muerte","nom_cuenc":"Reventazon - Parismina","nom_cb":"Fueras CB","tipo_hum":"Palustre","clase_hum":"Pantano herbaceo","nat_art":"Natural","unid_drena":"Caribe","unid_ecolo":"Alta Talamanca"},"geometry":{"type":"MultiPolygon","coordinates":[[[[-83.818995,9.667974],[-83.81897,9.667926],[-83.818916,9.667926],[-83.818874,9.667944],[-83.818844,9.667914],[-83.818754,9.66789],[-83.818705,9.667878],[-83.818657,9.66786],[-83.818621,9.667878],[-83.818615,9.667896],[-83.818555,9.667944],[-83.8185,9.66801],[-83.818506,9.668064],[-83.818518,9.668129],[-83.81847,9.668165],[-83.818416,9.668165],[-83.818331,9.668171],[-83.818289,9.668189],[-83.818229,9.668201],[-83.818205,9.668225],[-83.818157,9.668303],[-83.818078,9.668327],[-83.818036,9.668327],[-83.81797,9.668338],[-83.817921,9.668386],[-83.817903,9.668458],[-83.817885,9.668548],[-83.817837,9.668614],[-83.817801,9.668691],[-83.817734,9.668739],[-83.817692,9.668733],[-83.817644,9.668679],[-83.817608,9.668625],[-83.81756,9.668583],[-83.817469,9.668548],[-83.817391,9.668488],[-83.817415,9.668452],[-83.817463,9.66844],[-83.817487,9.668374],[-83.817475,9.668272],[-83.817403,9.668254],[-83.817355,9.668225],[-83.817319,9.668159],[-83.817343,9.668117],[-83.817397,9.668081],[-83.817427,9.668051],[-83.817427,9.667985],[-83.817421,9.667896],[-83.817488,9.66786],[-83.81759,9.667878],[-83.817687,9.667866],[-83.817777,9.667842],[-83.817837,9.667782],[-83.817831,9.667692],[-83.817795,9.667686],[-83.817783,9.667645],[-83.817771,9.667591],[-83.817753,9.667501],[-83.817711,9.667447],[-83.817717,9.667387],[-83.817741,9.667322],[-83.817735,9.66722],[-83.817699,9.667178],[-83.817663,9.667136],[-83.817597,9.66713],[-83.817554,9.667142],[-83.817482,9.667196],[-83.817428,9.667208],[-83.817404,9.667172],[-83.817356,9.667112],[-83.817307,9.667064],[-83.817253,9.666992],[-83.817241,9.666915],[-83.817145,9.666843],[-83.817103,9.666849],[-83.817036,9.666915],[-83.816988,9.667004],[-83.816976,9.667076],[-83.816946,9.66716],[-83.816873,9.667166],[-83.816867,9.667112],[-83.816885,9.66701],[-83.816898,9.666914],[-83.816904,9.666843],[-83.816898,9.666759],[-83.816837,9.666741],[-83.816813,9.666681],[-83.816795,9.666627],[-83.816705,9.666561],[-83.816675,9.666502],[-83.816639,9.666466],[-83.816596,9.666412],[-83.816566,9.666376],[-83.816542,9.666328],[-83.81653,9.666256],[-83.816536,9.666173],[-83.816548,9.666059],[-83.816476,9.665969],[-83.81638,9.665969],[-83.816319,9.666023],[-83.816265,9.666023],[-83.816211,9.665963],[-83.816133,9.665903],[-83.816012,9.665855],[-83.815928,9.665855],[-83.815825,9.665897],[-83.815801,9.665963],[-83.815843,9.666053],[-83.815861,9.666142],[-83.815825,9.66619],[-83.815771,9.666196],[-83.815741,9.666202],[-83.815686,9.666238],[-83.815608,9.666268],[-83.815554,9.666226],[-83.815542,9.666154],[-83.815548,9.666106],[-83.815578,9.666011],[-83.81562,9.665957],[-83.815711,9.665891],[-83.815747,9.665849],[-83.815765,9.665783],[-83.815735,9.6657],[-83.815681,9.665658],[-83.815645,9.665628],[-83.815596,9.66561],[-83.815566,9.665586],[-83.815529,9.665608],[-83.815505,9.665615],[-83.815469,9.665632],[-83.815435,9.665656],[-83.815409,9.66567],[-83.815343,9.665723],[-83.815295,9.665747],[-83.815223,9.665747],[-83.815126,9.665771],[-83.815066,9.665813],[-83.814999,9.665867],[-83.814963,9.665909],[-83.814993,9.666004],[-83.815023,9.666166],[-83.815023,9.666268],[-83.815023,9.666333],[-83.814993,9.666417],[-83.814933,9.666453],[-83.814903,9.666513],[-83.814915,9.666566],[-83.814951,9.666638],[-83.814878,9.666662],[-83.814818,9.666674],[-83.81474,9.666674],[-83.814692,9.66668],[-83.814619,9.66668],[-83.814547,9.66668],[-83.814487,9.666668],[-83.814475,9.666614],[-83.814493,9.666566],[-83.814535,9.666471],[-83.814601,9.666411],[-83.814631,9.666393],[-83.814668,9.666369],[-83.81471,9.666297],[-83.81471,9.666255],[-83.814644,9.666202],[-83.81462,9.666178],[-83.814529,9.666142],[-83.814427,9.666112],[-83.8143,9.666088],[-83.81424,9.666088],[-83.814168,9.666094],[-83.814095,9.666123],[-83.814071,9.666177],[-83.814047,9.666303],[-83.814041,9.666434],[-83.81398,9.666566],[-83.813854,9.66665],[-83.813787,9.666703],[-83.813733,9.666721],[-83.813667,9.666703],[-83.813703,9.666638],[-83.813751,9.666596],[-83.813794,9.66653],[-83.813848,9.666446],[-83.81386,9.66641],[-83.813902,9.666303],[-83.813926,9.666243],[-83.813926,9.666165],[-83.813945,9.666052],[-83.813902,9.665956],[-83.81386,9.665914],[-83.813854,9.66586],[-83.813927,9.665818],[-83.813951,9.665747],[-83.813945,9.665699],[-83.813929,9.665671],[-83.813867,9.665666],[-83.813809,9.665642],[-83.813717,9.66558],[-83.81364,9.665508],[-83.813597,9.665455],[-83.813525,9.665398],[-83.813341,9.665359],[-83.813327,9.665359],[-83.81323,9.665297],[-83.813153,9.665235],[-83.81312,9.665197],[-83.813062,9.665125],[-83.81299,9.665039],[-83.812888,9.664933],[-83.812758,9.664862],[-83.812628,9.664833],[-83.812551,9.664804],[-83.812464,9.66477],[-83.812295,9.664742],[-83.812209,9.664713],[-83.812131,9.664665],[-83.812078,9.664617],[-83.812045,9.664574],[-83.811987,9.664536],[-83.811934,9.664588],[-83.811958,9.664694],[-83.812016,9.664808],[-83.811977,9.664909],[-83.811929,9.664966],[-83.811842,9.664961],[-83.81177,9.664823],[-83.81177,9.664741],[-83.811765,9.66466],[-83.811751,9.664583],[-83.811736,9.664502],[-83.811726,9.664454],[-83.811702,9.664402],[-83.811717,9.664359],[-83.811746,9.664296],[-83.811775,9.664201],[-83.811785,9.664091],[-83.811746,9.663985],[-83.811703,9.663894],[-83.811587,9.663799],[-83.811505,9.663708],[-83.811433,9.663636],[-83.81137,9.663526],[-83.81138,9.663421],[-83.811443,9.663344],[-83.811505,9.663239],[-83.811549,9.663167],[-83.811568,9.663105],[-83.811602,9.663033],[-83.811665,9.662961],[-83.811694,9.662866],[-83.811742,9.662765],[-83.811756,9.662665],[-83.811747,9.662622],[-83.811747,9.662526],[-83.811732,9.662426],[-83.811757,9.662335],[-83.811747,9.662182],[-83.811733,9.662076],[-83.811709,9.661952],[-83.811651,9.661885],[-83.811588,9.661842],[-83.811492,9.661794],[-83.81139,9.661779],[-83.811352,9.661779],[-83.811251,9.66176],[-83.811164,9.661755],[-83.811043,9.661746],[-83.810952,9.661736],[-83.810874,9.661731],[-83.810768,9.661784],[-83.810682,9.661841],[-83.810624,9.661875],[-83.810551,9.661946],[-83.810474,9.661985],[-83.810392,9.662037],[-83.810305,9.662095],[-83.810233,9.662166],[-83.810189,9.662272],[-83.810194,9.662329],[-83.810228,9.662401],[-83.810291,9.662415],[-83.810358,9.662343],[-83.810435,9.662367],[-83.810445,9.66243],[-83.810368,9.662497],[-83.810286,9.662511],[-83.810165,9.662496],[-83.810078,9.662444],[-83.810016,9.662386],[-83.809992,9.662315],[-83.81003,9.662224],[-83.810079,9.662109],[-83.810093,9.662004],[-83.810088,9.661917],[-83.810127,9.661855],[-83.810166,9.661803],[-83.810243,9.661803],[-83.810339,9.661784],[-83.81045,9.661745],[-83.810527,9.661702],[-83.81059,9.661655],[-83.810629,9.661621],[-83.81073,9.661592],[-83.810831,9.661631],[-83.810899,9.661621],[-83.810957,9.661602],[-83.811087,9.661602],[-83.811217,9.661602],[-83.811313,9.661593],[-83.811434,9.661636],[-83.811521,9.661684],[-83.811612,9.661708],[-83.811699,9.661665],[-83.811771,9.661579],[-83.811791,9.661526],[-83.811868,9.661483],[-83.811969,9.66145],[-83.812075,9.661421],[-83.812133,9.661459],[-83.812167,9.661541],[-83.812205,9.661641],[-83.81221,9.661746],[-83.8122,9.661842],[-83.8122,9.661928],[-83.812196,9.661986],[-83.812167,9.662029],[-83.812167,9.662076],[-83.812196,9.66212],[-83.812292,9.662105],[-83.812331,9.66212],[-83.812364,9.662153],[-83.812384,9.662206],[-83.812388,9.662263],[-83.812408,9.662325],[-83.812422,9.662388],[-83.812456,9.662426],[-83.812518,9.662469],[-83.812528,9.662546],[-83.812523,9.662632],[-83.81248,9.662723],[-83.812412,9.662804],[-83.812374,9.662871],[-83.812311,9.662923],[-83.812253,9.662943],[-83.812185,9.662976],[-83.812195,9.663043],[-83.812243,9.663096],[-83.812229,9.663158],[-83.8122,9.663239],[-83.812118,9.663311],[-83.812089,9.663387],[-83.812031,9.663454],[-83.812002,9.663512],[-83.811973,9.663617],[-83.811997,9.663703],[-83.812031,9.663737],[-83.812064,9.663785],[-83.812026,9.663852],[-83.811992,9.663885],[-83.811987,9.663971],[-83.811973,9.664019],[-83.811963,9.664091],[-83.811977,9.664167],[-83.812006,9.664215],[-83.81205,9.664277],[-83.812103,9.664316],[-83.812194,9.664349],[-83.812257,9.664388],[-83.812295,9.664455],[-83.8123,9.664536],[-83.812334,9.664584],[-83.812392,9.664603],[-83.81245,9.664617],[-83.812503,9.664617],[-83.81259,9.664613],[-83.812681,9.664641],[-83.812758,9.664689],[-83.812845,9.664747],[-83.812975,9.664847],[-83.813033,9.664881],[-83.813091,9.664924],[-83.813158,9.66501],[-83.813226,9.665068],[-83.813279,9.665111],[-83.813332,9.66513],[-83.813409,9.665163],[-83.813476,9.665235],[-83.813549,9.665293],[-83.813674,9.665269],[-83.81378,9.665269],[-83.813853,9.665298],[-83.81393,9.665369],[-83.813983,9.665379],[-83.814026,9.665384],[-83.814017,9.665448],[-83.814084,9.665352],[-83.81409,9.665322],[-83.814132,9.665256],[-83.814192,9.665167],[-83.814234,9.665113],[-83.814313,9.665053],[-83.814355,9.665017],[-83.814385,9.664987],[-83.814476,9.664933],[-83.814536,9.664904],[-83.81459,9.664844],[-83.81462,9.66479],[-83.814675,9.66473],[-83.814693,9.664652],[-83.814735,9.664581],[-83.814753,9.664515],[-83.814813,9.664443],[-83.81488,9.664389],[-83.814934,9.664342],[-83.815036,9.664222],[-83.815073,9.664192],[-83.815115,9.664096],[-83.815109,9.664019],[-83.815115,9.663941],[-83.815121,9.663875],[-83.815133,9.663785],[-83.815193,9.663738],[-83.815218,9.66369],[-83.815206,9.663576],[-83.815188,9.663504],[-83.815176,9.663445],[-83.815139,9.663391],[-83.815139,9.663349],[-83.815152,9.663271],[-83.815152,9.663181],[-83.815152,9.663086],[-83.815164,9.662996],[-83.815176,9.662966],[-83.815242,9.662972],[-83.815314,9.663008],[-83.815387,9.662984],[-83.815441,9.662948],[-83.815459,9.662918],[-83.815507,9.662871],[-83.815519,9.662793],[-83.815495,9.662715],[-83.815526,9.662679],[-83.815568,9.66259],[-83.815592,9.662596],[-83.815616,9.662625],[-83.815634,9.662697],[-83.815658,9.662775],[-83.815676,9.662853],[-83.815755,9.662859],[-83.815833,9.662823],[-83.815887,9.662805],[-83.815972,9.662727],[-83.816008,9.662679],[-83.816044,9.662614],[-83.816116,9.662506],[-83.816165,9.662434],[-83.816231,9.662321],[-83.816273,9.662255],[-83.816358,9.662207],[-83.816514,9.662207],[-83.816551,9.662165],[-83.816563,9.662088],[-83.816502,9.662052],[-83.816394,9.661992],[-83.816352,9.661878],[-83.816376,9.66183],[-83.816442,9.661878],[-83.816472,9.661854],[-83.816527,9.661813],[-83.816563,9.661741],[-83.816671,9.661687],[-83.816774,9.661693],[-83.816882,9.661741],[-83.816906,9.661825],[-83.816894,9.661867],[-83.81684,9.661956],[-83.816828,9.662052],[-83.816816,9.66213],[-83.816864,9.662148],[-83.81693,9.662142],[-83.817009,9.662124],[-83.817141,9.662118],[-83.817202,9.662118],[-83.817286,9.6621],[-83.817376,9.662094],[-83.817455,9.662064],[-83.817551,9.662046],[-83.817654,9.662028],[-83.817756,9.662046],[-83.817883,9.662052],[-83.818003,9.662076],[-83.818118,9.662088],[-83.81822,9.662089],[-83.818268,9.662089],[-83.818299,9.662089],[-83.818431,9.662041],[-83.818425,9.661999],[-83.818479,9.661903],[-83.818552,9.661915],[-83.818546,9.662017],[-83.8186,9.662023],[-83.818684,9.661963],[-83.818775,9.661957],[-83.818835,9.662059],[-83.818847,9.662173],[-83.818793,9.66222],[-83.818684,9.662208],[-83.818534,9.662244],[-83.818467,9.66228],[-83.818395,9.662292],[-83.818292,9.662322],[-83.818322,9.662376],[-83.818407,9.662412],[-83.818564,9.662424],[-83.818654,9.662454],[-83.81872,9.662472],[-83.818768,9.662484],[-83.818835,9.662412],[-83.818877,9.662448],[-83.818973,9.662555],[-83.818973,9.662639],[-83.818985,9.662699],[-83.819052,9.662717],[-83.819112,9.662783],[-83.819178,9.662813],[-83.819275,9.662849],[-83.819323,9.662891],[-83.819401,9.662891],[-83.819461,9.662831],[-83.819516,9.662837],[-83.81951,9.66295],[-83.819558,9.663052],[-83.8196,9.66313],[-83.819594,9.663214],[-83.819528,9.663261],[-83.819455,9.663309],[-83.819425,9.663303],[-83.819335,9.663273],[-83.819238,9.663267],[-83.819154,9.663279],[-83.819057,9.663309],[-83.819069,9.663345],[-83.819063,9.663411],[-83.819033,9.663459],[-83.818997,9.663524],[-83.818961,9.663584],[-83.818876,9.663614],[-83.818792,9.663608],[-83.818708,9.663536],[-83.818617,9.663494],[-83.818527,9.66344],[-83.818485,9.663393],[-83.818406,9.663285],[-83.818316,9.663285],[-83.818268,9.663327],[-83.818226,9.663357],[-83.818159,9.663398],[-83.818117,9.663428],[-83.818093,9.663434],[-83.817984,9.663464],[-83.817888,9.663494],[-83.817797,9.663536],[-83.817749,9.663578],[-83.817749,9.663649],[-83.817797,9.663751],[-83.817815,9.663883],[-83.817858,9.66393],[-83.817845,9.664008],[-83.817773,9.663996],[-83.817677,9.663996],[-83.817586,9.664014],[-83.817538,9.664044],[-83.817496,9.664146],[-83.81755,9.66417],[-83.817586,9.664211],[-83.817598,9.664271],[-83.81749,9.664313],[-83.817387,9.664325],[-83.817339,9.664385],[-83.817315,9.66448],[-83.817297,9.664546],[-83.817242,9.664624],[-83.817182,9.664702],[-83.817122,9.664761],[-83.817122,9.664803],[-83.81717,9.664821],[-83.817218,9.664863],[-83.817296,9.664899],[-83.817357,9.664917],[-83.817399,9.664935],[-83.817417,9.665049],[-83.817375,9.665091],[-83.817326,9.665174],[-83.817308,9.665288],[-83.817278,9.665413],[-83.817356,9.665467],[-83.817453,9.665491],[-83.817513,9.665521],[-83.817573,9.665545],[-83.817591,9.665551],[-83.817652,9.665551],[-83.817688,9.665521],[-83.817784,9.665491],[-83.817893,9.665468],[-83.817995,9.665402],[-83.818068,9.665354],[-83.81817,9.6653],[-83.818321,9.665306],[-83.818441,9.665312],[-83.818502,9.665324],[-83.818556,9.665366],[-83.818592,9.665384],[-83.818652,9.665396],[-83.818695,9.665408],[-83.818755,9.66542],[-83.818809,9.665432],[-83.818887,9.665402],[-83.818936,9.665426],[-83.819008,9.665492],[-83.819044,9.665576],[-83.819038,9.665654],[-83.818972,9.665713],[-83.818875,9.665719],[-83.818767,9.665725],[-83.818676,9.665731],[-83.818598,9.665761],[-83.818399,9.665809],[-83.818321,9.665809],[-83.818158,9.665833],[-83.818037,9.665892],[-83.817929,9.665958],[-83.81782,9.666018],[-83.817742,9.666125],[-83.817694,9.666227],[-83.817706,9.666317],[-83.817814,9.666395],[-83.81791,9.66646],[-83.817941,9.666466],[-83.817977,9.666538],[-83.818001,9.666604],[-83.818031,9.666694],[-83.818049,9.666795],[-83.818073,9.666879],[-83.818097,9.666903],[-83.818121,9.666915],[-83.818163,9.666963],[-83.818218,9.667011],[-83.818242,9.667041],[-83.818302,9.667095],[-83.818374,9.667154],[-83.818428,9.667256],[-83.818513,9.667286],[-83.818561,9.667286],[-83.818694,9.667274],[-83.818748,9.667364],[-83.818772,9.667454],[-83.818808,9.667537],[-83.81885,9.667573],[-83.818947,9.667645],[-83.819001,9.667639],[-83.819085,9.667615],[-83.819145,9.667615],[-83.819212,9.667633],[-83.819272,9.667657],[-83.81935,9.667693],[-83.819429,9.667681],[-83.819471,9.667777],[-83.819549,9.667837],[-83.819573,9.667885],[-83.819591,9.667992],[-83.819501,9.66798],[-83.819447,9.667897],[-83.819405,9.667879],[-83.819254,9.667903],[-83.819224,9.667998],[-83.819193,9.668094],[-83.819133,9.668202],[-83.819127,9.668255],[-83.819097,9.668345],[-83.819115,9.668411],[-83.819127,9.668477],[-83.819139,9.668548],[-83.819145,9.668578],[-83.819151,9.66865],[-83.819139,9.668716],[-83.819121,9.668746],[-83.819042,9.668746],[-83.81897,9.66877],[-83.818892,9.668799],[-83.818856,9.668793],[-83.818831,9.668752],[-83.818819,9.668692],[-83.818838,9.668602],[-83.81885,9.668524],[-83.818868,9.668435],[-83.818886,9.668345],[-83.818928,9.668237],[-83.818946,9.668178],[-83.818964,9.668124],[-83.819001,9.668058],[-83.818995,9.667974]]]]}},{"type":"Feature","properties":{"fid_regist":1184,"formulario":2304,"nom_hum":"Humedales cerro Vueltas 1","per_m":1731.52838836,"area_m2":35774.10356770001,"area_ha":3.57741035677,"fecha":"2016-04-09","nom_func":"Rigoberto Granados - Abel Cordero - Paulina Vargas","poblado":"N/A - Sin Informacion","nom_pro":"Cartago","nom_cant":"Cartago","nom_dist":"Aguacaliente","nombre_ac":"Central","regmplan":"Central","asp":"Dentro","cat_manejo":"Parque Nacional","nombre_asp":"Tapanti - Macizo Cerro de la Muerte","nom_cuenc":"Reventazon - Parismina","nom_cb":"Fueras CB","tipo_hum":"Palustre","clase_hum":"Pantano herbaceo","nat_art":"Natural","unid_drena":"Caribe","unid_ecolo":"Alta Talamanca"},"geometry":{"type":"MultiPolygon","coordinates":[[[[-83.823209,9.662167],[-83.823112,9.662161],[-83.82304,9.662161],[-83.82298,9.662149],[-83.822931,9.662101],[-83.822925,9.662011],[-83.822956,9.661976],[-83.823022,9.661886],[-83.823046,9.661826],[-83.823058,9.661724],[-83.823052,9.661665],[-83.823022,9.661641],[-83.822986,9.661575],[-83.822956,9.661539],[-83.822884,9.661467],[-83.822841,9.661395],[-83.822799,9.661336],[-83.822872,9.661288],[-83.822908,9.66121],[-83.82295,9.661126],[-83.822986,9.661061],[-83.823028,9.661055],[-83.823077,9.661073],[-83.823113,9.661091],[-83.823197,9.661114],[-83.8233,9.661109],[-83.823396,9.661061],[-83.823499,9.661055],[-83.823583,9.661013],[-83.823655,9.660977],[-83.823698,9.660941],[-83.823788,9.660894],[-83.823878,9.660834],[-83.823921,9.660792],[-83.823951,9.660738],[-83.823981,9.660714],[-83.824029,9.660654],[-83.824114,9.660595],[-83.824198,9.660583],[-83.824307,9.660541],[-83.824343,9.660529],[-83.824385,9.660565],[-83.824391,9.660625],[-83.824403,9.660673],[-83.824427,9.660726],[-83.824463,9.66078],[-83.824379,9.660942],[-83.824348,9.661031],[-83.824306,9.661115],[-83.824252,9.661181],[-83.824168,9.661193],[-83.824125,9.661193],[-83.824047,9.661151],[-83.823963,9.661091],[-83.823896,9.661025],[-83.823788,9.661031],[-83.823691,9.661121],[-83.823637,9.661181],[-83.823613,9.66127],[-83.823607,9.66133],[-83.823619,9.661396],[-83.823655,9.661438],[-83.823685,9.661498],[-83.823721,9.661551],[-83.823727,9.661599],[-83.823625,9.661623],[-83.823553,9.661611],[-83.823492,9.661587],[-83.823396,9.661575],[-83.82336,9.661629],[-83.823305,9.661731],[-83.823317,9.66179],[-83.823378,9.661838],[-83.823372,9.661922],[-83.823341,9.662],[-83.823359,9.662072],[-83.823414,9.662101],[-83.82345,9.662119],[-83.823504,9.662084],[-83.823564,9.662102],[-83.823588,9.662167],[-83.823588,9.662245],[-83.82354,9.662329],[-83.823492,9.662365],[-83.823383,9.662436],[-83.823365,9.662389],[-83.823347,9.662287],[-83.823329,9.662221],[-83.823209,9.662167]]],[[[-83.830428,9.659729],[-83.830392,9.659616],[-83.830278,9.659669],[-83.830193,9.659693],[-83.830121,9.659693],[-83.830031,9.659675],[-83.82994,9.659645],[-83.829832,9.65958],[-83.829747,9.659538],[-83.829705,9.659478],[-83.829585,9.659412],[-83.829518,9.659406],[-83.829428,9.659352],[-83.82938,9.65931],[-83.829368,9.659268],[-83.829308,9.659185],[-83.829308,9.659143],[-83.829271,9.659071],[-83.829235,9.659029],[-83.829145,9.658963],[-83.829127,9.658873],[-83.829133,9.658826],[-83.829235,9.65876],[-83.829374,9.65876],[-83.829501,9.658742],[-83.829573,9.658724],[-83.829645,9.65876],[-83.829687,9.658862],[-83.829699,9.658916],[-83.829766,9.658796],[-83.829838,9.658766],[-83.829874,9.658736],[-83.829953,9.658712],[-83.830043,9.658683],[-83.830091,9.658653],[-83.83014,9.658629],[-83.830182,9.658617],[-83.830272,9.658617],[-83.830284,9.658617],[-83.830369,9.658695],[-83.830429,9.65876],[-83.830543,9.658808],[-83.830598,9.658826],[-83.830628,9.65891],[-83.830652,9.658952],[-83.830724,9.658982],[-83.830778,9.658982],[-83.830851,9.658958],[-83.830923,9.65891],[-83.830983,9.658904],[-83.831068,9.658904],[-83.831134,9.658856],[-83.831206,9.658851],[-83.831273,9.658803],[-83.831267,9.658749],[-83.831206,9.658707],[-83.83108,9.658683],[-83.83105,9.658557],[-83.83105,9.658492],[-83.831044,9.658414],[-83.83105,9.65836],[-83.83108,9.658288],[-83.83111,9.658234],[-83.831159,9.658181],[-83.831279,9.658115],[-83.83137,9.658091],[-83.831478,9.658049],[-83.83158,9.658043],[-83.831647,9.658037],[-83.831683,9.658103],[-83.831659,9.658157],[-83.831641,9.658217],[-83.831647,9.658253],[-83.831713,9.658265],[-83.831785,9.658277],[-83.831809,9.658325],[-83.831779,9.658402],[-83.831731,9.658486],[-83.831707,9.658546],[-83.831731,9.65863],[-83.831755,9.658683],[-83.831743,9.658737],[-83.831725,9.658815],[-83.831719,9.658899],[-83.831701,9.658929],[-83.83161,9.658928],[-83.831538,9.658911],[-83.831447,9.658916],[-83.831369,9.65894],[-83.831315,9.658964],[-83.83123,9.65912],[-83.83117,9.659173],[-83.831116,9.659215],[-83.831037,9.659269],[-83.830995,9.659335],[-83.830887,9.659371],[-83.83082,9.659395],[-83.830778,9.659484],[-83.830748,9.65955],[-83.83073,9.659634],[-83.830718,9.659747],[-83.830694,9.659801],[-83.830651,9.659867],[-83.830579,9.659909],[-83.830495,9.659909],[-83.830428,9.659795],[-83.830428,9.659729]]]]}},{"type":"Feature","properties":{"fid_regist":1186,"formulario":110,"nom_hum":"3 de Junio km 71","per_m":266.515828896,"area_m2":3120.61674441,"area_ha":0.31206167444,"fecha":"2016-04-09","nom_func":"Rigoberto Granados - Abel Cordero - Nestor Veas","poblado":"3 de Junio","nom_pro":"Cartago","nom_cant":"El Guarco","nom_dist":"San Isidro","nombre_ac":"Central","regmplan":"Central","asp":"Dentro","cat_manejo":"Reserva Forestal","nombre_asp":"Rio Macho","nom_cuenc":"Reventazon - Parismina","nom_cb":"Fueras CB","tipo_hum":"Palustre","clase_hum":"Humedales de altura","nat_art":"Natural","unid_drena":"Caribe","unid_ecolo":"Alta Talamanca"},"geometry":{"type":"MultiPolygon","coordinates":[[[[-83.84384,9.642254],[-83.843778,9.642241],[-83.843753,9.642248],[-83.84373,9.642247],[-83.843684,9.642241],[-83.843661,9.642239],[-83.843615,9.642218],[-83.843582,9.64221],[-83.843559,9.642202],[-83.843539,9.642197],[-83.843524,9.642187],[-83.843491,9.642174],[-83.843464,9.64216],[-83.843437,9.642155],[-83.843424,9.642147],[-83.843404,9.642118],[-83.843404,9.642084],[-83.843426,9.642042],[-83.843456,9.642011],[-83.843476,9.642007],[-83.843499,9.642005],[-83.843518,9.641986],[-83.843516,9.641965],[-83.84352,9.64195],[-83.843543,9.641931],[-83.843561,9.641933],[-83.843572,9.641944],[-83.843593,9.641946],[-83.843611,9.641936],[-83.843617,9.641906],[-83.843632,9.641889],[-83.843671,9.641868],[-83.843684,9.641833],[-83.843715,9.641808],[-83.843759,9.641787],[-83.843777,9.64176],[-83.84379,9.641724],[-83.843813,9.64168],[-83.84384,9.641669],[-83.843875,9.641621],[-83.8439,9.641619],[-83.843927,9.641653],[-83.843918,9.641707],[-83.843912,9.641724],[-83.843914,9.641745],[-83.843921,9.641762],[-83.843925,9.641778],[-83.843939,9.641808],[-83.843968,9.64182],[-83.843997,9.641801],[-83.844,9.64178],[-83.844012,9.641759],[-83.844039,9.641736],[-83.844049,9.641734],[-83.84407,9.641749],[-83.844081,9.641768],[-83.844114,9.641791],[-83.844135,9.641789],[-83.844162,9.641807],[-83.844161,9.64182],[-83.844155,9.641843],[-83.844143,9.641858],[-83.844132,9.641872],[-83.844116,9.641898],[-83.844105,9.641918],[-83.844091,9.641927],[-83.844074,9.641939],[-83.844056,9.641954],[-83.844054,9.641963],[-83.84406,9.641979],[-83.844079,9.642],[-83.844085,9.642015],[-83.844087,9.642032],[-83.844077,9.642053],[-83.844056,9.642069],[-83.84405,9.642086],[-83.84405,9.642096],[-83.844045,9.642117],[-83.844021,9.64213],[-83.844002,9.642145],[-83.843989,9.642149],[-83.843956,9.642168],[-83.84395,9.642184],[-83.843939,9.642212],[-83.843929,9.642241],[-83.843896,9.642254],[-83.843863,9.642256],[-83.84384,9.642254]]]]}},{"type":"Feature","properties":{"fid_regist":1185,"formulario":2305,"nom_hum":"Humedales cerro Vueltas 2","per_m":1528.91002854,"area_m2":23696.1971996,"area_ha":2.36961971996,"fecha":"2016-04-09","nom_func":"Rigoberto Granados - Abel Cordero - Paulina Vargas","poblado":"N/A - Sin Informacion","nom_pro":"Cartago","nom_cant":"El Guarco","nom_dist":"San Isidro","nombre_ac":"Central","regmplan":"Central","asp":"Dentro","cat_manejo":"Reserva Forestal","nombre_asp":"Rio Macho","nom_cuenc":"Reventazon - Parismina","nom_cb":"Fueras CB","tipo_hum":"Palustre","clase_hum":"Pantano herbaceo","nat_art":"Natural","unid_drena":"Caribe","unid_ecolo":"Alta Talamanca"},"geometry":{"type":"MultiPolygon","coordinates":[[[[-83.844975,9.654192],[-83.844903,9.654162],[-83.844788,9.65418],[-83.844746,9.65418],[-83.84471,9.65418],[-83.844668,9.654126],[-83.844644,9.654066],[-83.844577,9.654048],[-83.844541,9.653976],[-83.844547,9.653887],[-83.844602,9.653785],[-83.844674,9.653719],[-83.844746,9.653654],[-83.844801,9.6536],[-83.844915,9.653558],[-83.845024,9.653546],[-83.845078,9.653516],[-83.845168,9.653522],[-83.845156,9.65357],[-83.845168,9.653606],[-83.845192,9.653636],[-83.845235,9.65366],[-83.845283,9.653684],[-83.845301,9.65369],[-83.845325,9.653767],[-83.845301,9.653809],[-83.84521,9.653881],[-83.845144,9.653935],[-83.84515,9.653953],[-83.845156,9.654001],[-83.845168,9.654048],[-83.84518,9.654114],[-83.845162,9.654186],[-83.84515,9.654264],[-83.845096,9.654282],[-83.845005,9.654234],[-83.844987,9.654216],[-83.844975,9.654192]]],[[[-83.842829,9.648978],[-83.842775,9.648949],[-83.842735,9.648956],[-83.842692,9.648971],[-83.842649,9.648963],[-83.842667,9.648924],[-83.842721,9.64892],[-83.842761,9.648924],[-83.842801,9.64892],[-83.842855,9.64891],[-83.842916,9.648885],[-83.842963,9.648917],[-83.842974,9.648938],[-83.84301,9.648935],[-83.843036,9.648928],[-83.843083,9.648924],[-83.843101,9.648928],[-83.843108,9.648953],[-83.843101,9.648989],[-83.843075,9.649003],[-83.843061,9.649021],[-83.843043,9.649057],[-83.843003,9.649086],[-83.84296,9.649103],[-83.842923,9.649089],[-83.842902,9.649086],[-83.842873,9.649046],[-83.842847,9.649017],[-83.842829,9.648978]]],[[[-83.845148,9.6482],[-83.845112,9.648171],[-83.845065,9.648139],[-83.845021,9.648103],[-83.845083,9.648103],[-83.845003,9.648035],[-83.844917,9.647999],[-83.844898,9.647956],[-83.844873,9.647859],[-83.844851,9.64782],[-83.844801,9.647762],[-83.844743,9.647744],[-83.844682,9.647748],[-83.844616,9.647751],[-83.844519,9.647748],[-83.844465,9.647741],[-83.844443,9.647733],[-83.844389,9.647719],[-83.844316,9.647719],[-83.844255,9.647701],[-83.844204,9.647658],[-83.84419,9.647586],[-83.844208,9.647511],[-83.844212,9.647468],[-83.84423,9.647439],[-83.84432,9.647378],[-83.844364,9.647321],[-83.844458,9.647296],[-83.844526,9.647274],[-83.844566,9.647278],[-83.84462,9.647306],[-83.844638,9.647339],[-83.844674,9.6474],[-83.844671,9.647454],[-83.844693,9.647504],[-83.844747,9.647568],[-83.844826,9.64764],[-83.844902,9.647662],[-83.844938,9.647622],[-83.844996,9.647594],[-83.845051,9.647565],[-83.845105,9.647583],[-83.845148,9.647594],[-83.84517,9.647543],[-83.845213,9.647533],[-83.84522,9.647601],[-83.845282,9.647676],[-83.845318,9.647694],[-83.845336,9.647698],[-83.845354,9.647759],[-83.845401,9.647827],[-83.845419,9.647917],[-83.845441,9.647981],[-83.845437,9.648035],[-83.84547,9.648078],[-83.84551,9.648111],[-83.845553,9.648129],[-83.845538,9.648175],[-83.845509,9.648204],[-83.845491,9.648215],[-83.845426,9.648222],[-83.845394,9.648218],[-83.845368,9.648218],[-83.84534,9.648207],[-83.845278,9.6482],[-83.845245,9.648207],[-83.845202,9.648247],[-83.84517,9.648232],[-83.845148,9.6482]]],[[[-83.845691,9.647691],[-83.845691,9.647626],[-83.845716,9.64758],[-83.845752,9.647554],[-83.845774,9.647522],[-83.845792,9.647511],[-83.84581,9.647483],[-83.845857,9.64745],[-83.845863,9.64743],[-83.845864,9.647427],[-83.845837,9.647408],[-83.845796,9.647403],[-83.845748,9.647413],[-83.845702,9.647432],[-83.845659,9.647439],[-83.845625,9.647427],[-83.845608,9.647401],[-83.845608,9.647353],[-83.845637,9.64731],[-83.845685,9.647267],[-83.845724,9.647245],[-83.84576,9.647243],[-83.84582,9.647243],[-83.845873,9.647241],[-83.845938,9.647226],[-83.845992,9.647205],[-83.84604,9.647145],[-83.846049,9.647068],[-83.846054,9.646994],[-83.846054,9.64692],[-83.846062,9.6468],[-83.846076,9.646717],[-83.84611,9.646686],[-83.846189,9.64665],[-83.846252,9.646595],[-83.846329,9.646547],[-83.846378,9.646463],[-83.846409,9.646329],[-83.846448,9.646157],[-83.846462,9.646081],[-83.846472,9.646033],[-83.846544,9.64599],[-83.846612,9.645956],[-83.846672,9.645944],[-83.846737,9.645978],[-83.846747,9.646042],[-83.846737,9.646129],[-83.84673,9.646231],[-83.84672,9.646296],[-83.846696,9.646361],[-83.846648,9.646437],[-83.846599,9.646492],[-83.846544,9.646533],[-83.846529,9.646573],[-83.846534,9.646612],[-83.846585,9.646636],[-83.846635,9.646662],[-83.84666,9.64671],[-83.846662,9.646794],[-83.846643,9.646837],[-83.846618,9.646889],[-83.846621,9.646949],[-83.846614,9.647045],[-83.846585,9.647112],[-83.846568,9.647217],[-83.846577,9.647349],[-83.846577,9.647483],[-83.846577,9.647561],[-83.846599,9.647636],[-83.846596,9.647691],[-83.84658,9.647731],[-83.846548,9.647741],[-83.846526,9.647758],[-83.846478,9.647755],[-83.846425,9.647734],[-83.846355,9.647703],[-83.846259,9.647681],[-83.846216,9.647681],[-83.846193,9.647705],[-83.846153,9.647745],[-83.846092,9.647763],[-83.846056,9.647784],[-83.846041,9.647824],[-83.846034,9.647867],[-83.845991,9.647885],[-83.845965,9.647895],[-83.845907,9.647921],[-83.84585,9.647971],[-83.845842,9.648007],[-83.845846,9.648039],[-83.845835,9.648068],[-83.845806,9.648075],[-83.845777,9.648057],[-83.845763,9.648032],[-83.845737,9.647982],[-83.845719,9.647942],[-83.845709,9.647899],[-83.845705,9.647834],[-83.84573,9.647795],[-83.845723,9.647752],[-83.845691,9.647691]]]]}},{"type":"Feature","properties":{"fid_regist":1252,"formulario":8455,"nom_hum":"Laguna Mirador Los Quetzales","per_m":106.184137088,"area_m2":741.103259009,"area_ha":0.0741103259,"fecha":"2017-12-13","nom_func":"Edwim Jimenez - Alexis Mafrigal -  Francini  Acuna","poblado":"Tres de Junio","nom_pro":"San Jose","nom_cant":"Dota","nom_dist":"Copey","nombre_ac":"Central","regmplan":"Central","asp":"Dentro","cat_manejo":"Reserva Forestal","nombre_asp":"Los Santos","nom_cuenc":"Parrita","nom_cb":"Fueras CB","tipo_hum":"Lacustre","clase_hum":"Laguna","nat_art":"Artificial","unid_drena":"Tarcoles","unid_ecolo":"Alta Talamanca"},"geometry":{"type":"MultiPolygon","coordinates":[[[[-83.849551,9.644493],[-83.849645,9.644493],[-83.849722,9.644496],[-83.849756,9.644522],[-83.84977,9.644563],[-83.849772,9.644613],[-83.849748,9.644647],[-83.8497,9.644663],[-83.849623,9.644673],[-83.849575,9.644692],[-83.849493,9.644694],[-83.849428,9.644689],[-83.849413,9.644668],[-83.849408,9.644639],[-83.849408,9.644599],[-83.849411,9.644575],[-83.849452,9.644529],[-83.849476,9.64451],[-83.849498,9.644503],[-83.849551,9.644493]]]]}},{"type":"Feature","properties":{"fid_regist":1187,"formulario":111,"nom_hum":"Km 68","per_m":1344.87102482,"area_m2":26462.6858351,"area_ha":2.64626858351,"fecha":"2016-04-09","nom_func":"Rigoberto Granados - Abel Cordero - Nestor Veas","poblado":"N/A - Sin Informacion","nom_pro":"Cartago","nom_cant":"El Guarco","nom_dist":"San Isidro","nombre_ac":"Central","regmplan":"Central","asp":"Dentro","cat_manejo":"Parque Nacional","nombre_asp":"Tapanti - Macizo Cerro de la Muerte","nom_cuenc":"Reventazon - Parismina","nom_cb":"Fueras CB","tipo_hum":"Palustre","clase_hum":"Humedales de altura","nat_art":"Natural","unid_drena":"Caribe","unid_ecolo":"Alta Talamanca"},"geometry":{"type":"MultiPolygon","coordinates":[[[[-83.850105,9.66346],[-83.850072,9.663417],[-83.850014,9.663442],[-83.850007,9.663467],[-83.850018,9.663499],[-83.850011,9.663531],[-83.849996,9.663582],[-83.849967,9.663589],[-83.849913,9.663567],[-83.849873,9.663567],[-83.849826,9.663553],[-83.849808,9.663499],[-83.849815,9.66346],[-83.849808,9.663427],[-83.849765,9.663384],[-83.849739,9.663352],[-83.849678,9.663352],[-83.849645,9.66333],[-83.849624,9.663294],[-83.849606,9.663248],[-83.849616,9.663223],[-83.849588,9.663194],[-83.849555,9.66319],[-83.849461,9.663215],[-83.84941,9.663208],[-83.849371,9.663201],[-83.849352,9.66319],[-83.84932,9.663161],[-83.849277,9.663118],[-83.849266,9.663097],[-83.849248,9.663065],[-83.84919,9.663032],[-83.849136,9.663032],[-83.849103,9.663011],[-83.849074,9.662993],[-83.849045,9.662989],[-83.849013,9.662982],[-83.848984,9.662982],[-83.848958,9.662982],[-83.848926,9.662989],[-83.8489,9.662989],[-83.848843,9.662964],[-83.84881,9.662964],[-83.848778,9.66296],[-83.848727,9.662982],[-83.848694,9.663028],[-83.848665,9.663089],[-83.848665,9.663129],[-83.848636,9.663172],[-83.8486,9.663154],[-83.848579,9.663147],[-83.848495,9.663125],[-83.848466,9.663068],[-83.848466,9.663036],[-83.848427,9.663],[-83.848409,9.662949],[-83.848383,9.662917],[-83.848376,9.662856],[-83.848383,9.662813],[-83.848365,9.662763],[-83.848315,9.662745],[-83.848264,9.662741],[-83.84821,9.662734],[-83.848159,9.66273],[-83.848123,9.662712],[-83.84804,9.662662],[-83.847971,9.662655],[-83.847917,9.662662],[-83.847881,9.662698],[-83.847855,9.662745],[-83.847837,9.66278],[-83.847805,9.662809],[-83.847765,9.662831],[-83.847707,9.662845],[-83.847685,9.662874],[-83.847667,9.662924],[-83.847606,9.662963],[-83.847559,9.662981],[-83.847533,9.663006],[-83.847468,9.663031],[-83.847421,9.663039],[-83.847389,9.663039],[-83.847302,9.663042],[-83.847255,9.66306],[-83.847219,9.663074],[-83.847204,9.663046],[-83.847237,9.662974],[-83.847226,9.662909],[-83.847269,9.662859],[-83.847295,9.662827],[-83.847317,9.662766],[-83.847338,9.66273],[-83.847378,9.662698],[-83.847425,9.662683],[-83.847421,9.66263],[-83.847342,9.66264],[-83.847266,9.662633],[-83.847219,9.662615],[-83.847161,9.662604],[-83.847107,9.662594],[-83.847053,9.66259],[-83.847027,9.662572],[-83.847009,9.662525],[-83.847045,9.662511],[-83.847074,9.662511],[-83.847096,9.662507],[-83.847158,9.6625],[-83.847208,9.662475],[-83.847237,9.662472],[-83.847273,9.662436],[-83.847237,9.662407],[-83.847197,9.6624],[-83.847158,9.662389],[-83.847096,9.662378],[-83.847038,9.662378],[-83.846977,9.662357],[-83.846984,9.662285],[-83.846991,9.662235],[-83.846962,9.662202],[-83.846926,9.662123],[-83.84697,9.662102],[-83.847009,9.662052],[-83.84706,9.662044],[-83.847122,9.662016],[-83.847187,9.661998],[-83.847212,9.66203],[-83.847277,9.662095],[-83.84732,9.662131],[-83.847357,9.662174],[-83.847386,9.662213],[-83.847414,9.662274],[-83.847458,9.662353],[-83.847516,9.662371],[-83.847592,9.662396],[-83.847682,9.662404],[-83.84774,9.662407],[-83.847794,9.662407],[-83.847837,9.662407],[-83.847928,9.662407],[-83.847997,9.662397],[-83.848054,9.662397],[-83.848105,9.6624],[-83.848159,9.662397],[-83.848192,9.662386],[-83.848224,9.662368],[-83.848243,9.662336],[-83.848275,9.662285],[-83.848322,9.662253],[-83.848384,9.662221],[-83.848445,9.662203],[-83.848525,9.662207],[-83.848579,9.662232],[-83.84859,9.662246],[-83.848622,9.662257],[-83.848644,9.662275],[-83.848684,9.662293],[-83.848724,9.662339],[-83.848745,9.662372],[-83.848771,9.662411],[-83.848803,9.662444],[-83.848836,9.662458],[-83.848883,9.662483],[-83.848915,9.662508],[-83.848948,9.662526],[-83.848984,9.662551],[-83.849063,9.662576],[-83.849096,9.662591],[-83.849114,9.662598],[-83.849154,9.662612],[-83.849194,9.662627],[-83.84923,9.662641],[-83.849273,9.662659],[-83.849298,9.662666],[-83.849342,9.662677],[-83.849389,9.662681],[-83.849432,9.662684],[-83.849468,9.662684],[-83.849523,9.662688],[-83.849577,9.662688],[-83.849642,9.662659],[-83.84966,9.662645],[-83.849653,9.662613],[-83.849635,9.662552],[-83.849689,9.662544],[-83.849722,9.662519],[-83.849761,9.662487],[-83.849769,9.662451],[-83.849772,9.662401],[-83.849794,9.66239],[-83.849834,9.66239],[-83.849859,9.662415],[-83.849892,9.662451],[-83.849928,9.662462],[-83.849968,9.662473],[-83.850004,9.662473],[-83.850051,9.662476],[-83.850076,9.662469],[-83.850123,9.662466],[-83.850138,9.662469],[-83.850163,9.662491],[-83.850188,9.662509],[-83.850213,9.662512],[-83.850239,9.662512],[-83.850271,9.662512],[-83.850315,9.662491],[-83.850329,9.662473],[-83.850351,9.662433],[-83.850369,9.662398],[-83.850369,9.662369],[-83.850369,9.662326],[-83.850376,9.662286],[-83.850409,9.662247],[-83.850434,9.662247],[-83.850456,9.662247],[-83.850463,9.662283],[-83.850452,9.662333],[-83.850449,9.66239],[-83.85042,9.662459],[-83.850409,9.662494],[-83.850409,9.662545],[-83.850409,9.662617],[-83.850405,9.662681],[-83.850394,9.662742],[-83.850394,9.662796],[-83.850383,9.662835],[-83.850376,9.662896],[-83.850372,9.662943],[-83.850365,9.662979],[-83.850365,9.663018],[-83.850354,9.663061],[-83.850354,9.663108],[-83.850343,9.663148],[-83.85034,9.663191],[-83.850336,9.663244],[-83.850329,9.663291],[-83.850329,9.663341],[-83.850325,9.663392],[-83.850318,9.663427],[-83.850318,9.663471],[-83.850314,9.663506],[-83.850322,9.663546],[-83.850322,9.663571],[-83.850314,9.663614],[-83.850314,9.663646],[-83.850314,9.663672],[-83.850321,9.663711],[-83.850325,9.663743],[-83.850303,9.663754],[-83.850271,9.663747],[-83.850256,9.663725],[-83.850246,9.663715],[-83.850227,9.663689],[-83.850217,9.663657],[-83.850191,9.663632],[-83.850166,9.663607],[-83.850155,9.663585],[-83.850133,9.663557],[-83.850108,9.663517],[-83.850112,9.663478],[-83.850105,9.66346]]]]}},{"type":"Feature","properties":{"fid_regist":1192,"formulario":112,"nom_hum":"Torre 27","per_m":310.350742613,"area_m2":3035.62639866,"area_ha":0.30356263987,"fecha":"2016-04-09","nom_func":"Rigoberto Granados - Abel Cordero - Nestor Veas","poblado":"San Gerardo de Dota","nom_pro":"Cartago","nom_cant":"El Guarco","nom_dist":"San Isidro","nombre_ac":"Central","regmplan":"Central","asp":"Parcialmente","cat_manejo":"Parque Nacional","nombre_asp":"Tapanti - Macizo Cerro de la Muerte","nom_cuenc":"Reventazon - Parismina","nom_cb":"Fueras CB","tipo_hum":"Palustre","clase_hum":"Humedales de altura","nat_art":"Natural","unid_drena":"Caribe","unid_ecolo":"Alta Talamanca"},"geometry":{"type":"MultiPolygon","coordinates":[[[[-83.851245,9.666891],[-83.851295,9.666807],[-83.851417,9.666842],[-83.851502,9.666919],[-83.851602,9.666962],[-83.851631,9.667039],[-83.851609,9.667123],[-83.851538,9.667172],[-83.851521,9.667214],[-83.851506,9.667261],[-83.851491,9.667322],[-83.851437,9.667378],[-83.851397,9.667411],[-83.851392,9.667458],[-83.851392,9.66751],[-83.851378,9.667599],[-83.851335,9.66765],[-83.85133,9.667702],[-83.851325,9.667744],[-83.851287,9.667791],[-83.851287,9.667852],[-83.851287,9.667903],[-83.851206,9.667927],[-83.851159,9.667894],[-83.851111,9.667842],[-83.851097,9.667782],[-83.851097,9.667721],[-83.851135,9.66766],[-83.851173,9.667594],[-83.851187,9.667547],[-83.851206,9.667505],[-83.85124,9.667468],[-83.851244,9.667402],[-83.851192,9.66735],[-83.851197,9.667275],[-83.85123,9.667247],[-83.851268,9.667229],[-83.851287,9.667229],[-83.851303,9.667088],[-83.851295,9.666983],[-83.851245,9.666891]]]]}},{"type":"Feature","properties":{"fid_regist":1256,"formulario":8557,"nom_hum":"Laguna Cerro Vueltas 1","per_m":631.042348439,"area_m2":3640.11264534,"area_ha":0.36401126453,"fecha":"2017-12-14","nom_func":"Priscilla Castro  - Edwim Jimenez - Francini  Acuna","poblado":"N/A - Sin Informacion","nom_pro":"San Jose","nom_cant":"Dota","nom_dist":"Copey","nombre_ac":"Central","regmplan":"Central","asp":"Dentro","cat_manejo":"Reserva Biologica","nombre_asp":"Cerro Las Vueltas","nom_cuenc":"Parrita","nom_cb":"Fueras CB","tipo_hum":"Lacustre","clase_hum":"Laguna","nat_art":"Natural","unid_drena":"Tarcoles","unid_ecolo":"Alta Talamanca"},"geometry":{"type":"MultiPolygon","coordinates":[[[[-83.858884,9.621077],[-83.858906,9.621076],[-83.858953,9.621084],[-83.858995,9.621111],[-83.859039,9.621148],[-83.859082,9.621223],[-83.859123,9.621287],[-83.859156,9.621347],[-83.859173,9.621393],[-83.859181,9.621435],[-83.859169,9.621477],[-83.859157,9.62151],[-83.859136,9.621542],[-83.859114,9.621564],[-83.859094,9.621576],[-83.859067,9.621605],[-83.859057,9.621633],[-83.859061,9.621667],[-83.859069,9.621707],[-83.859086,9.621744],[-83.859091,9.621778],[-83.85909,9.621843],[-83.859082,9.621877],[-83.859056,9.621909],[-83.859037,9.621939],[-83.859032,9.62197],[-83.859039,9.621997],[-83.859037,9.622025],[-83.859012,9.622051],[-83.858992,9.622054],[-83.858969,9.622048],[-83.858933,9.622027],[-83.858925,9.622008],[-83.858926,9.62198],[-83.858945,9.621954],[-83.858953,9.62194],[-83.858954,9.621923],[-83.858956,9.621901],[-83.85897,9.621887],[-83.858987,9.621881],[-83.859004,9.621874],[-83.859039,9.621834],[-83.859034,9.6218],[-83.85902,9.621779],[-83.858996,9.621766],[-83.858977,9.621748],[-83.858973,9.621723],[-83.858976,9.621677],[-83.859001,9.621535],[-83.858982,9.621474],[-83.858962,9.621425],[-83.858938,9.621382],[-83.858911,9.621345],[-83.858888,9.621311],[-83.858873,9.621279],[-83.858858,9.621243],[-83.858853,9.621217],[-83.85886,9.621204],[-83.858865,9.621192],[-83.858871,9.621182],[-83.858871,9.621145],[-83.858863,9.621119],[-83.858861,9.621103],[-83.858866,9.621087],[-83.858884,9.621077]]],[[[-83.858575,9.621482],[-83.858608,9.621481],[-83.858636,9.62149],[-83.858691,9.621515],[-83.858732,9.621536],[-83.858737,9.621561],[-83.858731,9.621582],[-83.85872,9.621595],[-83.858681,9.621597],[-83.858644,9.621595],[-83.858604,9.621585],[-83.858574,9.621575],[-83.858556,9.621561],[-83.858554,9.621542],[-83.858549,9.621518],[-83.85855,9.621494],[-83.858575,9.621482]]],[[[-83.857062,9.620811],[-83.857106,9.620809],[-83.857119,9.620832],[-83.857124,9.62089],[-83.857117,9.620935],[-83.857088,9.621005],[-83.85705,9.621079],[-83.857014,9.621176],[-83.856968,9.621345],[-83.856952,9.621387],[-83.856928,9.62143],[-83.8569,9.621445],[-83.856874,9.621453],[-83.856832,9.621453],[-83.856802,9.621419],[-83.856799,9.621378],[-83.85682,9.621356],[-83.856861,9.621335],[-83.856892,9.621293],[-83.856895,9.621247],[-83.856877,9.62121],[-83.856876,9.62115],[-83.856915,9.621068],[-83.856931,9.621018],[-83.856943,9.620968],[-83.856943,9.620958],[-83.856941,9.620929],[-83.856957,9.620866],[-83.857001,9.620816],[-83.857062,9.620811]]],[[[-83.857582,9.619653],[-83.857647,9.619647],[-83.857695,9.619652],[-83.857721,9.619676],[-83.857722,9.619708],[-83.857693,9.619745],[-83.857641,9.619778],[-83.85759,9.619849],[-83.857567,9.619907],[-83.857515,9.619994],[-83.857481,9.62003],[-83.857471,9.620042],[-83.857403,9.620074],[-83.857383,9.620054],[-83.857393,9.619989],[-83.857417,9.619909],[-83.857439,9.619821],[-83.857468,9.619782],[-83.85751,9.619774],[-83.857545,9.619774],[-83.857563,9.619768],[-83.857571,9.619753],[-83.857571,9.619731],[-83.857554,9.619719],[-83.85754,9.619711],[-83.857528,9.619702],[-83.857527,9.619692],[-83.857533,9.619679],[-83.857536,9.619677],[-83.857582,9.619653]]]]}},{"type":"Feature","properties":{"fid_regist":1255,"formulario":8554,"nom_hum":"Estanque Jaular 1","per_m":186.735874752,"area_m2":836.408514549,"area_ha":0.08364085145,"fecha":"2017-12-14","nom_func":"Priscilla Castro  - Edwim Jimenez - Francini  Acuna","poblado":"Tres de Junio","nom_pro":"San Jose","nom_cant":"Dota","nom_dist":"Copey","nombre_ac":"Central","regmplan":"Central","asp":"Dentro","cat_manejo":"Reserva Forestal","nombre_asp":"Los Santos","nom_cuenc":"Parrita","nom_cb":"Fueras CB","tipo_hum":"Lacustre","clase_hum":"Laguna","nat_art":"Artificial","unid_drena":"Tarcoles","unid_ecolo":"Alta Talamanca"},"geometry":{"type":"MultiPolygon","coordinates":[[[[-83.868405,9.661297],[-83.868418,9.661294],[-83.868484,9.661295],[-83.868504,9.661298],[-83.868513,9.66132],[-83.868518,9.661371],[-83.868514,9.661448],[-83.868505,9.661497],[-83.868475,9.661506],[-83.868438,9.661497],[-83.868403,9.661481],[-83.868389,9.661457],[-83.868383,9.661393],[-83.868384,9.661387],[-83.868387,9.661327],[-83.868405,9.661297]]],[[[-83.86812,9.660919],[-83.868136,9.660917],[-83.868147,9.660927],[-83.868212,9.660997],[-83.868218,9.661068],[-83.868206,9.661111],[-83.86818,9.661144],[-83.868133,9.661145],[-83.868075,9.661128],[-83.868059,9.661088],[-83.868059,9.661053],[-83.868058,9.661022],[-83.868081,9.660972],[-83.8681,9.660934],[-83.86812,9.660919]]],[[[-83.867973,9.660794],[-83.867986,9.660784],[-83.868002,9.660785],[-83.868057,9.660801],[-83.868091,9.660822],[-83.868104,9.660857],[-83.868106,9.66089],[-83.868087,9.660925],[-83.868062,9.660937],[-83.868025,9.660931],[-83.867996,9.660912],[-83.867976,9.660889],[-83.867966,9.660862],[-83.867965,9.660837],[-83.867967,9.660807],[-83.867973,9.660794]]]]}},{"type":"Feature","properties":{"fid_regist":1287,"formulario":9600,"nom_hum":"Laguna Madre Selva 1","per_m":423.030151182,"area_m2":5122.52552679,"area_ha":0.51225255268,"fecha":"2018-03-16","nom_func":"Priscilla Castro - Edwin Jimenez - Francini  Acuna","poblado":"Madre Selva","nom_pro":"San Jose","nom_cant":"Dota","nom_dist":"Copey","nombre_ac":"Central","regmplan":"Central","asp":"Dentro","cat_manejo":"Reserva Forestal","nombre_asp":"Los Santos","nom_cuenc":"Parrita","nom_cb":"Fueras CB","tipo_hum":"Lacustre","clase_hum":"Laguna","nat_art":"Natural","unid_drena":"Tarcoles","unid_ecolo":"Alta Talamanca"},"geometry":{"type":"MultiPolygon","coordinates":[[[[-83.870298,9.660181],[-83.870205,9.660156],[-83.870151,9.66017],[-83.870126,9.660187],[-83.870103,9.66017],[-83.870136,9.660072],[-83.87019,9.660013],[-83.870236,9.659955],[-83.870259,9.659909],[-83.870281,9.65985],[-83.870315,9.659787],[-83.870337,9.659754],[-83.870369,9.659735],[-83.870412,9.659739],[-83.870437,9.65976],[-83.87047,9.659833],[-83.870501,9.659871],[-83.87056,9.65991],[-83.870583,9.659944],[-83.870585,9.65999],[-83.870572,9.660055],[-83.870572,9.660126],[-83.870585,9.660178],[-83.870608,9.660218],[-83.870647,9.660277],[-83.870647,9.660321],[-83.87062,9.660361],[-83.870593,9.660386],[-83.87056,9.660417],[-83.870549,9.660482],[-83.870585,9.660516],[-83.87063,9.66053],[-83.870736,9.660566],[-83.870817,9.660614],[-83.870857,9.660635],[-83.870901,9.660694],[-83.870927,9.66075],[-83.871004,9.66084],[-83.871054,9.660905],[-83.871079,9.66097],[-83.871042,9.661026],[-83.870994,9.661048],[-83.870909,9.661058],[-83.870797,9.66105],[-83.87068,9.661029],[-83.870581,9.660979],[-83.870535,9.66092],[-83.870525,9.660836],[-83.870523,9.660777],[-83.870506,9.660702],[-83.870483,9.66065],[-83.870439,9.660581],[-83.870425,9.660518],[-83.870425,9.660445],[-83.870439,9.660363],[-83.870417,9.660302],[-83.870383,9.660239],[-83.870298,9.660181]]]]}},{"type":"Feature","properties":{"fid_regist":1283,"formulario":9599,"nom_hum":"Laguna Escuadra","per_m":277.850482009,"area_m2":3605.35461441,"area_ha":0.36053546144,"fecha":"2018-03-16","nom_func":"Priscilla Castro - Edwin Jimenez - Francini  Acuna","poblado":"Jaular","nom_pro":"San Jose","nom_cant":"Dota","nom_dist":"Copey","nombre_ac":"Central","regmplan":"Central","asp":"Dentro","cat_manejo":"Reserva Forestal","nombre_asp":"Los Santos","nom_cuenc":"Parrita","nom_cb":"Fueras CB","tipo_hum":"Lacustre","clase_hum":"Laguna","nat_art":"Natural","unid_drena":"Tarcoles","unid_ecolo":"Alta Talamanca"},"geometry":{"type":"MultiPolygon","coordinates":[[[[-83.871862,9.655899],[-83.871874,9.655942],[-83.871883,9.655995],[-83.87188,9.656059],[-83.871847,9.656152],[-83.871802,9.656208],[-83.871746,9.656235],[-83.871691,9.656241],[-83.871617,9.656218],[-83.871566,9.656178],[-83.871537,9.656126],[-83.871526,9.656038],[-83.871549,9.655972],[-83.871561,9.655895],[-83.87155,9.655826],[-83.871511,9.655725],[-83.871504,9.655674],[-83.871516,9.655642],[-83.871862,9.655899]]]]}},{"type":"Feature","properties":{"fid_regist":1288,"formulario":9601,"nom_hum":"Lago Cafeterías Carara","per_m":193.612899532,"area_m2":2360.00062988,"area_ha":0.23600006299,"fecha":"2018-03-16","nom_func":"Priscilla Castro - Edwin Jimenez - Francini  Acuna","poblado":"Madre Selva","nom_pro":"San Jose","nom_cant":"Dota","nom_dist":"Copey","nombre_ac":"Central","regmplan":"Central","asp":"Dentro","cat_manejo":"Reserva Forestal","nombre_asp":"Los Santos","nom_cuenc":"Parrita","nom_cb":"Fueras CB","tipo_hum":"Lacustre","clase_hum":"Laguna","nat_art":"Artificial","unid_drena":"Tarcoles","unid_ecolo":"Alta Talamanca"},"geometry":{"type":"MultiPolygon","coordinates":[[[[-83.877372,9.661854],[-83.877422,9.661852],[-83.877463,9.66188],[-83.877487,9.661927],[-83.877487,9.661964],[-83.877476,9.662023],[-83.87746,9.662066],[-83.877419,9.662112],[-83.877383,9.662154],[-83.877335,9.66224],[-83.87728,9.662306],[-83.877207,9.66234],[-83.877131,9.662359],[-83.877032,9.662342],[-83.876959,9.66231],[-83.87691,9.66227],[-83.876884,9.662241],[-83.87687,9.66221],[-83.876857,9.662177],[-83.876855,9.662142],[-83.876855,9.662118],[-83.876865,9.662094],[-83.876913,9.662068],[-83.877002,9.662049],[-83.877084,9.662008],[-83.877152,9.661965],[-83.87725,9.661903],[-83.877301,9.661875],[-83.877372,9.661854]]]]}},{"type":"Feature","properties":{"fid_regist":1188,"formulario":113,"nom_hum":"El Empalme/Km 52","per_m":1056.05883246,"area_m2":16596.1268222,"area_ha":1.65961268222,"fecha":"2016-04-09","nom_func":"Rigoberto Granados - Abel Cordero - Nestor Veas","poblado":"El Empalme del Guarco","nom_pro":"Cartago","nom_cant":"El Guarco","nom_dist":"San Isidro","nombre_ac":"Central","regmplan":"Central","asp":"Fuera","cat_manejo":"N/A","nombre_asp":"Fueras ASP","nom_cuenc":"Parrita","nom_cb":"Fueras CB","tipo_hum":"Palustre","clase_hum":"Humedales de altura","nat_art":"Natural","unid_drena":"Caribe","unid_ecolo":"Alta Talamanca"},"geometry":{"type":"MultiPolygon","coordinates":[[[[-83.946871,9.711712],[-83.946883,9.711734],[-83.946937,9.711812],[-83.94687,9.711854],[-83.946852,9.711914],[-83.946816,9.712003],[-83.946822,9.712099],[-83.946846,9.712189],[-83.94678,9.712249],[-83.94672,9.712279],[-83.946605,9.712314],[-83.946503,9.712344],[-83.946436,9.71235],[-83.946406,9.712308],[-83.946436,9.712189],[-83.946442,9.712111],[-83.946454,9.712075],[-83.946466,9.712039],[-83.946473,9.711991],[-83.946473,9.71192],[-83.946448,9.711824],[-83.946436,9.711716],[-83.946461,9.711603],[-83.946461,9.711519],[-83.946455,9.711411],[-83.946455,9.711402],[-83.946871,9.711712]]]]}}]}