{"type":"FeatureCollection","features":[{"type":"Feature","properties":{"FID_":0,"ENTITY":"LWPolyline","LAYER":"DGN_LEVEL_5","COLOR":7,"LINETYPE":"Continuous","ELEVATION":0.0,"LINEWT":25,"REFNAME":null,"OID_":0,"Name":null,"FolderPath":null,"SymbolID":0,"AltMode":0,"Base":0.0,"Clamped":0,"Extruded":0,"Snippet":null,"PopupInfo":null,"Shape_Leng":0.0,"Shape_Area":0.0},"geometry":{"type":"MultiPolygon","coordinates":[[[[-83.817126,9.652018],[-83.816361,9.65175],[-83.815767,9.651217],[-83.815359,9.650742],[-83.814823,9.650544],[-83.813998,9.650376],[-83.813849,9.650326],[-83.813899,9.650089],[-83.814059,9.649804],[-83.815609,9.650122],[-83.816424,9.65038],[-83.816741,9.650764],[-83.817516,9.650983],[-83.817754,9.65125],[-83.817972,9.651733],[-83.818268,9.652313],[-83.818387,9.652717],[-83.818217,9.652915],[-83.818068,9.653082],[-83.817749,9.653181],[-83.817601,9.653111],[-83.817383,9.652716],[-83.817273,9.65236],[-83.817204,9.652173],[-83.817126,9.652018]]]]}},{"type":"Feature","properties":{"FID_":0,"ENTITY":"LWPolyline","LAYER":"DGN_LEVEL_5","COLOR":7,"LINETYPE":"Continuous","ELEVATION":0.0,"LINEWT":25,"REFNAME":null,"OID_":0,"Name":null,"FolderPath":null,"SymbolID":0,"AltMode":0,"Base":0.0,"Clamped":0,"Extruded":0,"Snippet":null,"PopupInfo":null,"Shape_Leng":0.0,"Shape_Area":0.0},"geometry":{"type":"MultiPolygon","coordinates":[[[[-83.823108,9.765034],[-83.822792,9.765286],[-83.822136,9.765791],[-83.821681,9.765929],[-83.820872,9.765873],[-83.820672,9.765804],[-83.820002,9.76525],[-83.819329,9.764621],[-83.818705,9.764543],[-83.817795,9.764718],[-83.81707,9.764771],[-83.81552,9.76476],[-83.813167,9.764772],[-83.81255,9.765039],[-83.811431,9.76592],[-83.810173,9.766209],[-83.809299,9.766379],[-83.808358,9.766984],[-83.807917,9.767444],[-83.8071,9.767535],[-83.806637,9.767618],[-83.805756,9.768008],[-83.805371,9.768023],[-83.804724,9.768053],[-83.803172,9.768499],[-83.802748,9.768668],[-83.802331,9.768812],[-83.801792,9.76849],[-83.801552,9.768428],[-83.80065,9.768534],[-83.799786,9.76874],[-83.798984,9.768815],[-83.798533,9.768723],[-83.798071,9.768568],[-83.797832,9.768576],[-83.79743,9.768829],[-83.797269,9.768989],[-83.796876,9.76862],[-83.796336,9.768359],[-83.795627,9.768296],[-83.795085,9.768167],[-83.794546,9.767667],[-83.793507,9.766354],[-83.793069,9.765916],[-83.7926,9.76545],[-83.791768,9.764919],[-83.790813,9.764211],[-83.790092,9.763707],[-83.789129,9.763237],[-83.788143,9.762538],[-83.787335,9.761846],[-83.786506,9.761105],[-83.785821,9.760397],[-83.785298,9.759729],[-83.78516,9.759345],[-83.785076,9.758951],[-83.784592,9.758122],[-83.784285,9.757477],[-83.784332,9.756848],[-83.784479,9.756387],[-83.784572,9.755994],[-83.784527,9.755487],[-83.784388,9.755081],[-83.784359,9.754681],[-83.784305,9.754113],[-83.784252,9.753699],[-83.78424,9.752968],[-83.78431,9.75273],[-83.784951,9.752586],[-83.785421,9.752747],[-83.785751,9.753186],[-83.785935,9.753945],[-83.786093,9.754914],[-83.786369,9.75618],[-83.786628,9.757477],[-83.786689,9.757807],[-83.786834,9.758193],[-83.787311,9.759092],[-83.78768,9.759637],[-83.788434,9.760229],[-83.789009,9.760656],[-83.790435,9.761341],[-83.791906,9.761873],[-83.793201,9.762328],[-83.793673,9.762676],[-83.794974,9.763838],[-83.795967,9.76486],[-83.796807,9.765276],[-83.797668,9.76555],[-83.798754,9.765713],[-83.799549,9.765806],[-83.800698,9.765716],[-83.801981,9.765574],[-83.803145,9.765292],[-83.80354,9.765001],[-83.803841,9.764741],[-83.803948,9.764757],[-83.80455,9.764911],[-83.804774,9.764834],[-83.805021,9.764367],[-83.805477,9.764153],[-83.805932,9.7641],[-83.806759,9.763894],[-83.807515,9.763581],[-83.808016,9.763474],[-83.808549,9.763399],[-83.809258,9.763078],[-83.809953,9.762757],[-83.810529,9.762157],[-83.811201,9.761368],[-83.811525,9.761168],[-83.812104,9.760939],[-83.812598,9.760771],[-83.813045,9.76061],[-83.813955,9.760558],[-83.81488,9.760613],[-83.815199,9.760706],[-83.81677,9.761668],[-83.818704,9.762453],[-83.819443,9.762923],[-83.820061,9.763448],[-83.821525,9.764194],[-83.821934,9.764157],[-83.821972,9.764034],[-83.821788,9.763519],[-83.821858,9.763451],[-83.821989,9.76339],[-83.822614,9.763367],[-83.822768,9.763283],[-83.822869,9.763099],[-83.823007,9.763053],[-83.823308,9.763207],[-83.823725,9.763155],[-83.824118,9.762925],[-83.824424,9.762766],[-83.823108,9.765034]]]]}},{"type":"Feature","properties":{"FID_":0,"ENTITY":"LWPolyline","LAYER":"DGN_LEVEL_5","COLOR":7,"LINETYPE":"Continuous","ELEVATION":0.0,"LINEWT":25,"REFNAME":null,"OID_":0,"Name":null,"FolderPath":null,"SymbolID":0,"AltMode":0,"Base":0.0,"Clamped":0,"Extruded":0,"Snippet":null,"PopupInfo":null,"Shape_Leng":0.0,"Shape_Area":0.0},"geometry":{"type":"MultiPolygon","coordinates":[[[[-83.701151,9.809234],[-83.701297,9.808877],[-83.702417,9.807989],[-83.704059,9.806732],[-83.705626,9.80577],[-83.706423,9.805427],[-83.707144,9.805131],[-83.708113,9.805084],[-83.708661,9.804392],[-83.708962,9.803083],[-83.709385,9.802391],[-83.709958,9.801774],[-83.711078,9.800985],[-83.712018,9.799671],[-83.712518,9.798263],[-83.713413,9.797597],[-83.714583,9.796932],[-83.715048,9.796003],[-83.715074,9.795187],[-83.7152,9.794297],[-83.715823,9.793433],[-83.716248,9.792247],[-83.716697,9.791136],[-83.717595,9.78953],[-83.717596,9.788898],[-83.717524,9.787638],[-83.717103,9.786772],[-83.716783,9.785733],[-83.716462,9.784545],[-83.716539,9.783185],[-83.716465,9.782568],[-83.716418,9.781455],[-83.716593,9.781307],[-83.716915,9.781481],[-83.717188,9.782],[-83.71736,9.782619],[-83.717556,9.784078],[-83.718121,9.785895],[-83.718368,9.786761],[-83.718961,9.788567],[-83.718959,9.789506],[-83.718932,9.790223],[-83.718011,9.791482],[-83.717268,9.79305],[-83.716369,9.794829],[-83.716245,9.795051],[-83.716342,9.796164],[-83.716192,9.796708],[-83.715943,9.797201],[-83.71532,9.797768],[-83.714076,9.798582],[-83.713678,9.798828],[-83.713005,9.800138],[-83.712064,9.801726],[-83.711193,9.80259],[-83.710795,9.803034],[-83.710445,9.804245],[-83.71002,9.80553],[-83.709298,9.806295],[-83.70803,9.806539],[-83.707657,9.80691],[-83.706711,9.807526],[-83.705176,9.808623],[-83.704404,9.80961],[-83.703597,9.810369],[-83.701151,9.809234]]],[[[-83.693524,9.805695],[-83.693568,9.804124],[-83.693448,9.802072],[-83.693474,9.801182],[-83.693824,9.800565],[-83.694497,9.799676],[-83.694622,9.799083],[-83.694277,9.79796],[-83.693957,9.796427],[-83.693934,9.795216],[-83.693788,9.794029],[-83.693516,9.793386],[-83.69307,9.792742],[-83.69312,9.792569],[-83.693542,9.792619],[-83.694361,9.793115],[-83.694822,9.795083],[-83.694894,9.79585],[-83.695166,9.796864],[-83.695536,9.798125],[-83.695684,9.798794],[-83.695905,9.80008],[-83.695654,9.801093],[-83.695183,9.802211],[-83.694956,9.804188],[-83.694859,9.806314],[-83.693524,9.805695]]],[[[-83.689049,9.803619],[-83.689649,9.80222],[-83.689874,9.801379],[-83.69005,9.800539],[-83.690277,9.799106],[-83.690677,9.797697],[-83.690579,9.796857],[-83.690258,9.796065],[-83.690407,9.795942],[-83.690854,9.796387],[-83.691225,9.797081],[-83.691617,9.798455],[-83.691541,9.799023],[-83.691241,9.799912],[-83.690965,9.801197],[-83.690664,9.802408],[-83.690439,9.803273],[-83.689995,9.804058],[-83.689049,9.803619]]]]}},{"type":"Feature","properties":{"FID_":0,"ENTITY":"LWPolyline","LAYER":"DGN_LEVEL_5","COLOR":7,"LINETYPE":"Continuous","ELEVATION":0.0,"LINEWT":25,"REFNAME":null,"OID_":0,"Name":null,"FolderPath":null,"SymbolID":0,"AltMode":0,"Base":0.0,"Clamped":0,"Extruded":0,"Snippet":null,"PopupInfo":null,"Shape_Leng":0.0,"Shape_Area":0.0},"geometry":{"type":"MultiPolygon","coordinates":[[[[-83.476872,9.773916],[-83.476828,9.773616],[-83.476387,9.77301],[-83.476245,9.772899],[-83.47591,9.772574],[-83.473959,9.769852],[-83.474028,9.769339],[-83.474213,9.769114],[-83.474585,9.769238],[-83.474666,9.769696],[-83.474911,9.770261],[-83.475374,9.770796],[-83.476229,9.771146],[-83.477122,9.771801],[-83.477575,9.77209],[-83.477841,9.772613],[-83.477963,9.773281],[-83.47793,9.774101],[-83.477766,9.775163],[-83.476872,9.773916]]]]}},{"type":"Feature","properties":{"FID_":0,"ENTITY":"LWPolyline","LAYER":"DGN_LEVEL_5","COLOR":7,"LINETYPE":"Continuous","ELEVATION":0.0,"LINEWT":25,"REFNAME":null,"OID_":0,"Name":null,"FolderPath":null,"SymbolID":0,"AltMode":0,"Base":0.0,"Clamped":0,"Extruded":0,"Snippet":null,"PopupInfo":null,"Shape_Leng":0.0,"Shape_Area":0.0},"geometry":{"type":"MultiPolygon","coordinates":[[[[-83.481451,9.764902],[-83.480639,9.764887],[-83.48019,9.76491],[-83.47985,9.765042],[-83.479294,9.764667],[-83.47859,9.764617],[-83.477632,9.764759],[-83.477051,9.764817],[-83.47693,9.7646],[-83.477234,9.764058],[-83.477756,9.76371],[-83.478242,9.763445],[-83.47989,9.763631],[-83.48086,9.763634],[-83.481818,9.763528],[-83.48305,9.763159],[-83.484107,9.762353],[-83.485115,9.761633],[-83.486586,9.760406],[-83.487541,9.759522],[-83.487857,9.758798],[-83.488101,9.758112],[-83.488092,9.757038],[-83.488275,9.756166],[-83.488812,9.75472],[-83.489482,9.753793],[-83.489823,9.753131],[-83.489944,9.752865],[-83.490006,9.752648],[-83.49026,9.752927],[-83.49072,9.752903],[-83.491606,9.75258],[-83.492347,9.752221],[-83.492407,9.752221],[-83.49277,9.752306],[-83.492709,9.75268],[-83.492392,9.753307],[-83.491759,9.75433],[-83.49154,9.754631],[-83.490557,9.755219],[-83.490058,9.755785],[-83.489582,9.756688],[-83.489412,9.757537],[-83.489262,9.759068],[-83.489103,9.75961],[-83.488337,9.760489],[-83.487512,9.761114],[-83.486455,9.762122],[-83.485666,9.76294],[-83.484491,9.763837],[-83.483048,9.764484],[-83.482052,9.764795],[-83.481451,9.764902]]]]}},{"type":"Feature","properties":{"FID_":0,"ENTITY":"LWPolyline","LAYER":"DGN_LEVEL_5","COLOR":7,"LINETYPE":"Continuous","ELEVATION":0.0,"LINEWT":25,"REFNAME":null,"OID_":0,"Name":null,"FolderPath":null,"SymbolID":0,"AltMode":0,"Base":0.0,"Clamped":0,"Extruded":0,"Snippet":null,"PopupInfo":null,"Shape_Leng":0.0,"Shape_Area":0.0},"geometry":{"type":"MultiPolygon","coordinates":[[[[-83.428467,9.706362],[-83.428778,9.705883],[-83.428871,9.705197],[-83.428783,9.70396],[-83.428668,9.703116],[-83.428541,9.701727],[-83.428338,9.69978],[-83.427772,9.698192],[-83.427085,9.696607],[-83.426944,9.695684],[-83.426556,9.694905],[-83.426001,9.693304],[-83.425924,9.692654],[-83.425875,9.691526],[-83.425865,9.69054],[-83.42588,9.6898],[-83.426405,9.688802],[-83.426707,9.687736],[-83.426733,9.687295],[-83.426671,9.68662],[-83.426413,9.68549],[-83.426442,9.684426],[-83.426535,9.68337],[-83.426629,9.682903],[-83.426787,9.682138],[-83.427063,9.68136],[-83.427183,9.680685],[-83.427224,9.67964],[-83.427372,9.678278],[-83.427557,9.67728],[-83.427649,9.677111],[-83.428223,9.676853],[-83.429314,9.676162],[-83.430138,9.675425],[-83.430898,9.67422],[-83.431932,9.672744],[-83.43239,9.672278],[-83.433136,9.67132],[-83.433867,9.670985],[-83.434048,9.671102],[-83.434087,9.671336],[-83.434047,9.671569],[-83.433446,9.672191],[-83.433014,9.6728],[-83.432934,9.673435],[-83.43253,9.674141],[-83.43194,9.675217],[-83.431207,9.67633],[-83.430081,9.677755],[-83.429521,9.679018],[-83.429362,9.679912],[-83.429227,9.681521],[-83.429172,9.682533],[-83.429001,9.683168],[-83.428982,9.683218],[-83.428672,9.683954],[-83.428408,9.685108],[-83.428548,9.686646],[-83.428572,9.687217],[-83.428333,9.688578],[-83.428278,9.689681],[-83.428451,9.692472],[-83.42872,9.69377],[-83.428822,9.694691],[-83.429028,9.695704],[-83.42978,9.697263],[-83.430397,9.699939],[-83.430548,9.702172],[-83.430569,9.704006],[-83.430566,9.704811],[-83.430644,9.705109],[-83.430629,9.705668],[-83.430288,9.706407],[-83.429659,9.707521],[-83.429428,9.707704],[-83.428467,9.706362]]]]}}]}